{
"type": "FeatureCollection",
"name": "QA Faz",
"features": [
{ "type": "Feature", "properties": { "Tema": "Limites da Propriedade", "Área (ha)": 379.18, "%": 100.0 }, "geometry": null },
{ "type": "Feature", "properties": { "Tema": "Reserva Legal", "Área (ha)": 75.84, "%": 20.0 }, "geometry": null },
{ "type": "Feature", "properties": { "Tema": "Vegetação Nativa", "Área (ha)": 226.54, "%": 59.75 }, "geometry": null },
{ "type": "Feature", "properties": { "Tema": "Vegetação Excedente", "Área (ha)": 150.7, "%": 39.75 }, "geometry": null }
]
}
