{
"type": "FeatureCollection",
"name": "QA Faz",
"features": [
{ "type": "Feature", "properties": { "Tema": "Limites da Propriedade", "Área (ha)": 1020.26, "%": 100.0 }, "geometry": null },
{ "type": "Feature", "properties": { "Tema": "Reserva Legal", "Área (ha)": 204.05, "%": 20.0 }, "geometry": null },
{ "type": "Feature", "properties": { "Tema": "Vegetação Nativa", "Área (ha)": 619.71, "%": 60.74 }, "geometry": null },
{ "type": "Feature", "properties": { "Tema": "Vegetação Remanescente", "Área (ha)": 415.66, "%": 40.74 }, "geometry": null }
]
}
