{
"type": "FeatureCollection",
"name": "QA Montanhas do Japi",
"features": [
{ "type": "Feature", "properties": { "Tema": "Limites da Propriedade", "Área (ha)": 348.937, "%": 100.0 }, "geometry": null },
{ "type": "Feature", "properties": { "Tema": "Reserva Legal (RL)", "Área (ha)": 69.787, "%": 20.0 }, "geometry": null },
{ "type": "Feature", "properties": { "Tema": "Vegetação Nativa", "Área (ha)": 281.919, "%": 80.794 }, "geometry": null },
{ "type": "Feature", "properties": { "Tema": "Vegetação Remanescente", "Área (ha)": 212.132, "%": 60.794 }, "geometry": null }
]
}
