{
"type": "FeatureCollection",
"name": "Acacio_ind_2015",
"crs": { "type": "name", "properties": { "name": "urn:ogc:def:crs:OGC:1.3:CRS84" } },
"features": [
{"type":"Feature","properties":{"id":null,"Name":"Acacio_ind_2015","description":null,"timestamp":null,"begin":null,"end":null,"altitudeMode":null,"tessellate":1,"extrude":0,"visibility":-1,"drawOrder":null,"icon":null},"geometry":{"type":"Polygon","coordinates":[[[-46.571802409415326,-23.145774079773911,0.0],[-46.571652661157977,-23.145552937122769,0.0],[-46.571976228163052,-23.145336672927201,0.0],[-46.572091006595493,-23.145524135172149,0.0],[-46.571802409415326,-23.145774079773911,0.0]]]}}
]
}
