{
"type": "FeatureCollection",
"name": "Airton - WWF - 2014",
"crs": { "type": "name", "properties": { "name": "urn:ogc:def:crs:OGC:1.3:CRS84" } },
"xy_coordinate_resolution": 1e-15,
"features": [
{"type":"Feature","properties":{"Área (ha)":0.887,"Nome do Projeto":"Airton - WWF","Propriedade":"-","Tipo":"Recuperação Ambiental","Ano de Implantação":"2014","Metodologia de Restauração":null,"Monitoramento":null,"Município":"Joanópolis","UGRHI":"05 -  Piracicaba, Capivari e Jundiaí","Região Hidrográfica":"Paraná","Status do Projeto":null,"Fotos do Projeto":null},"geometry":{"type":"Polygon","coordinates":[[[-46.190839224725877,-22.915268090586238,0.0],[-46.190981818017022,-22.91535564437994,0.0],[-46.191078617985049,-22.915467758564478,0.0],[-46.191235198149762,-22.915527632795811,0.0],[-46.191327947435418,-22.915534454625451,0.0],[-46.191405717085679,-22.915525205705649,0.0],[-46.191516954660287,-22.91553386146423,0.0],[-46.191447563312053,-22.91542462744173,0.0],[-46.19157276279504,-22.9152129688194,0.0],[-46.191782706846077,-22.91518662117355,0.0],[-46.192042238872347,-22.915399763878991,0.0],[-46.192248436401393,-22.91554224965304,0.0],[-46.192187561714277,-22.915683602457779,0.0],[-46.192127304215227,-22.9158940129788,0.0],[-46.192030391256957,-22.91592415075657,0.0],[-46.192032146311917,-22.91605548277343,0.0],[-46.192033948896928,-22.916164712143171,0.0],[-46.192010138750831,-22.916252485604659,0.0],[-46.191558062531293,-22.916390842929921,0.0],[-46.191587069375423,-22.91618675960137,0.0],[-46.191783815933753,-22.9159646080087,0.0],[-46.191765495736149,-22.915834715077299,0.0],[-46.191646583417437,-22.9157684135205,0.0],[-46.191479338206413,-22.915754233743652,0.0],[-46.191472313856721,-22.91576005765965,0.0],[-46.191320449598052,-22.915903569049789,0.0],[-46.191313166014631,-22.915877195662631,0.0],[-46.19063533606824,-22.91548459277897,0.0],[-46.190764325154902,-22.915288440694692,0.0],[-46.190839224725877,-22.915268090586238,0.0]]]}}
]
}
