{
"type": "FeatureCollection",
"name": "Alto Tiete I (1755)",
"crs": { "type": "name", "properties": { "name": "urn:ogc:def:crs:OGC:1.3:CRS84" } },
"xy_coordinate_resolution": 1e-15,
"features": [
{"type":"Feature","properties":{"Área (ha)":45.805483822858996,"Nome do Projeto":"Alto Tietê I","Propriedade":null,"Tipo":"Programa Nascentes","Ano de Implantação":null,"Metodologia de Restauração":null,"Monitoramento":null,"Município":"Salesópolis","UGRHI":"06 - Alto Tietê","Região Hidrográfica":"Paraná","Status do Projeto":null,"Fotos do Projeto":null},"geometry":{"type":"MultiPolygon","coordinates":[[[[-45.966455019948,-23.5128351175928],[-45.966461220202902,-23.512832516586599],[-45.966545809466403,-23.512855450658499],[-45.966886552643999,-23.5129703560557],[-45.966345476822902,-23.5127226965521],[-45.966243498347197,-23.5126553296145],[-45.965784904111203,-23.5126171930178],[-45.964888594117603,-23.512723506482502],[-45.964896043551001,-23.5127158696137],[-45.964333901308599,-23.5128010157527],[-45.964151581747799,-23.5128706370527],[-45.9635241577908,-23.513180311225199],[-45.9642696028058,-23.512858069099199],[-45.965791116668797,-23.512685646825901],[-45.966181404244203,-23.512758453389701],[-45.966183000491498,-23.512771122496801],[-45.966455019948,-23.5128351175928]]],[[[-45.973782086052601,-23.5111073296185],[-45.973352840178897,-23.5112297570832],[-45.972922158700399,-23.511456181771798],[-45.972492912826702,-23.5117510598525],[-45.971967481422901,-23.512135453502001],[-45.971384625821898,-23.512352661746199],[-45.971465378599099,-23.512608539180398],[-45.971605350079699,-23.512835619702301],[-45.971719480671503,-23.512886301388601],[-45.972066179261702,-23.512857340427399],[-45.973618071455,-23.5119929481029],[-45.974309491413102,-23.511619417933801],[-45.973977328322803,-23.511303476792001],[-45.973782086052601,-23.5111073296185]]],[[[-45.971252909069698,-23.511248022461299],[-45.971179693218403,-23.511024230266401],[-45.970939947195298,-23.510839930526199],[-45.970674360283603,-23.510828082677001],[-45.970484860432997,-23.510889954766899],[-45.970342735545103,-23.511054508056201],[-45.970270955298602,-23.511280933046098],[-45.970341299940102,-23.511503408383799],[-45.970237936385303,-23.511837778894499],[-45.970243678804998,-23.512212957393899],[-45.970934922578103,-23.5121556933763],[-45.970923437738598,-23.511780514713799],[-45.9709801441333,-23.511541584587398],[-45.971191178057801,-23.511479712803599],[-45.971252909069698,-23.511248022461299]]],[[[-45.965789128936599,-23.5106134137081],[-45.966039385263898,-23.510459070886199],[-45.966768183429998,-23.5101173552417],[-45.966479741690797,-23.510090200441802],[-45.966496252366099,-23.5098685943554],[-45.966472892210398,-23.509772615110698],[-45.966581135608401,-23.509700895002499],[-45.966707688868503,-23.5096541370498],[-45.966757721049802,-23.509678902358299],[-45.966785491112397,-23.509758136926401],[-45.966849820268997,-23.5098789376583],[-45.966985131964101,-23.509790331971299],[-45.9670519791148,-23.509635282304298],[-45.967006295562001,-23.509585414209202],[-45.9669102137686,-23.509460631365702],[-45.966954829362201,-23.5093642301497],[-45.967108175834902,-23.509262974450099],[-45.967573081372002,-23.509005148688601],[-45.967744217915303,-23.508857809412],[-45.967673754958902,-23.5088196565797],[-45.967088874748299,-23.509151864247499],[-45.967025746032697,-23.5091790001409],[-45.966978640298599,-23.509207207866002],[-45.966781124836899,-23.509284150273899],[-45.966370331495497,-23.509460728071002],[-45.966068531283199,-23.509618816992699],[-45.9658939808292,-23.509714459803899],[-45.965790274581202,-23.509802421224901],[-45.965557841328803,-23.510071148224998],[-45.964959778316697,-23.5106943841364],[-45.964589922235703,-23.511386932235599],[-45.964113283414498,-23.511841456229199],[-45.964175794573002,-23.5126650100575],[-45.964474886237703,-23.512547247759699],[-45.964495399953201,-23.5126182473843],[-45.964836878503803,-23.5124369981543],[-45.965051778718497,-23.511350326123701],[-45.965242680227199,-23.5108907710487],[-45.965789128936599,-23.5106134137081]]],[[[-45.975649808064503,-23.509489762510999],[-45.975937645243398,-23.5094356671888],[-45.976095115913701,-23.509280046000299],[-45.976091679200898,-23.509270866271901],[-45.976180981888099,-23.509092196689299],[-45.976169497048701,-23.508923691608],[-45.976059436423597,-23.5087432287967],[-45.976008101836896,-23.508712131028201],[-45.9758455691195,-23.508625458761699],[-45.975634091166498,-23.5085243906796],[-45.975631529034999,-23.508528533011798],[-45.975462440928602,-23.508600693391301],[-45.9752301664643,-23.508752603072399],[-45.9752403979899,-23.508763552092098],[-45.975227728295401,-23.508772004114299],[-45.975133349288498,-23.509085681271898],[-45.9750841797227,-23.509289663307101],[-45.974840126884899,-23.509747784720101],[-45.974688139759699,-23.510129800312999],[-45.974455384763999,-23.5104849882465],[-45.974285983382501,-23.5108088299197],[-45.974062746816102,-23.510995762555499],[-45.974232148197601,-23.511234035460301],[-45.974486356530797,-23.5115387609194],[-45.974776891347901,-23.5112273474098],[-45.975058298613298,-23.510942967789902],[-45.975258980776303,-23.510642632566999],[-45.975448808635399,-23.510279606929998],[-45.975488171288099,-23.509585587305398],[-45.975649808064503,-23.509489762510999]]],[[[-45.969815005735803,-23.508396640929],[-45.970221972992697,-23.508120091864399],[-45.969671912001999,-23.508461322521502],[-45.969351109684197,-23.508592878206802],[-45.969120910252101,-23.508719690173798],[-45.967953073720501,-23.508910842553501],[-45.967619711393802,-23.509184569446699],[-45.967430416856502,-23.509327842078701],[-45.967236071337503,-23.509400097533302],[-45.967141576337802,-23.5094926292726],[-45.967068392023002,-23.509789320683399],[-45.967204617806999,-23.509640467587101],[-45.967164319534902,-23.509598568718101],[-45.968144638729697,-23.508886479723898],[-45.969103441035301,-23.508748800492398],[-45.969815005735803,-23.508396640929]]],[[[-45.974008227345799,-23.5089476178781],[-45.974032286674799,-23.508882361466299],[-45.974064001518698,-23.508660977161099],[-45.973936666947999,-23.508434768856301],[-45.973604588046101,-23.508184295573699],[-45.973372085899101,-23.508127342200002],[-45.973125281931402,-23.507969007679101],[-45.972940728125003,-23.508094783680399],[-45.972585270422101,-23.508330365134899],[-45.972810043391398,-23.508517914485601],[-45.972801706497002,-23.508771326936198],[-45.972713787461899,-23.508832671219398],[-45.972655060777697,-23.5089275204434],[-45.972662575125803,-23.5090382251996],[-45.972789300475597,-23.509243398151],[-45.972998930966597,-23.509319583808999],[-45.973199534961097,-23.5093088824358],[-45.973519049353001,-23.5092581897818],[-45.973664523962498,-23.509221956006499],[-45.973876348324197,-23.509114170024699],[-45.974008227345799,-23.5089476178781]]],[[[-45.951765662037801,-23.508800541111501],[-45.951784573444897,-23.508727705791902],[-45.951739186067798,-23.508585503385198],[-45.951682451846303,-23.508346186792998],[-45.951606806217697,-23.5081276799596],[-45.951516031463399,-23.507912641134698],[-45.951504684619103,-23.507843273696999],[-45.951421474427598,-23.507780842971801],[-45.951364740206202,-23.507850210442399],[-45.951236142637597,-23.507877957420401],[-45.951160497008999,-23.507905704392599],[-45.951069722254601,-23.507912641134698],[-45.951031899440302,-23.5076976019588],[-45.951001641188903,-23.507692399393701],[-45.951001641188903,-23.507645576299002],[-45.951014859771902,-23.5076031657808],[-45.950994076626003,-23.507555398439901],[-45.950956253811697,-23.507527651394],[-45.950944906967401,-23.507465220519201],[-45.950910866434597,-23.507444410221002],[-45.950827656243099,-23.507524183012801],[-45.950778486584497,-23.5075762087206],[-45.950699058674502,-23.507621297650701],[-45.950646106734503,-23.507666386565401],[-45.950532638291598,-23.507850210442399],[-45.950506162321602,-23.507874489048501],[-45.950498597758703,-23.507968135058601],[-45.950517509165898,-23.5081311483249],[-45.950566678824501,-23.508325376634001],[-45.9506196307645,-23.508391275459601],[-45.950676364985902,-23.508564693263999],[-45.950740663770198,-23.508693022292299],[-45.950767139740201,-23.508873376390898],[-45.950808744836003,-23.5089496799737],[-45.950861696776002,-23.508998236776101],[-45.9509524715303,-23.509112692025202],[-45.951160497008999,-23.5091959321439],[-45.9513004414219,-23.509171653781401],[-45.951447950397601,-23.509150843752799],[-45.951508774374602,-23.5091157259357],[-45.951708927816298,-23.5089670216909],[-45.951765662037801,-23.508800541111501]]],[[[-45.970139143122402,-23.5078147117779],[-45.970157901410502,-23.507788909587401],[-45.9702583937555,-23.507746782920499],[-45.970301461903503,-23.507733618334399],[-45.970378719156997,-23.507835843737698],[-45.970544399759703,-23.5077493232852],[-45.970328333389801,-23.507560402328],[-45.9702777106626,-23.5076087316667],[-45.970301430350602,-23.5077271282927],[-45.970144751701497,-23.507786059359699],[-45.970139143122402,-23.5078147117779]]],[[[-45.977325234414302,-23.506947362106999],[-45.977087680440903,-23.507143781253401],[-45.977022201926303,-23.507266876615901],[-45.976903632652402,-23.507357848370098],[-45.976657752771899,-23.507125628693402],[-45.9764684194338,-23.507300224839],[-45.976236405689001,-23.507400070510101],[-45.975912583906201,-23.507569298490601],[-45.9757240273455,-23.507782485619199],[-45.9759991897741,-23.507909477464899],[-45.976339342121001,-23.5080587181243],[-45.976667043102502,-23.5081682454401],[-45.976882468475303,-23.508300463718399],[-45.977340266339603,-23.508408671113401],[-45.9773837256121,-23.5083235413457],[-45.977594281848901,-23.508110635465801],[-45.977697058580603,-23.5078491831799],[-45.977676385338803,-23.507617322007501],[-45.977580986689198,-23.507332467834299],[-45.977325234414302,-23.506947362106999]]],[[[-45.976387265600003,-23.507156012708499],[-45.976317939277997,-23.507014573801701],[-45.976601939892198,-23.506945629649099],[-45.976592307620002,-23.506894087644099],[-45.976528272232997,-23.506827792796798],[-45.976395011329302,-23.506742106911702],[-45.976319562817103,-23.506543760473299],[-45.976225452921,-23.506388823338199],[-45.976140178305798,-23.5061078598225],[-45.9757892502328,-23.505609400208101],[-45.975686583841302,-23.505441174454301],[-45.975193469159301,-23.5055825429633],[-45.9748093778949,-23.505724669884899],[-45.974364036193201,-23.505956403353501],[-45.974089878114903,-23.506083463881399],[-45.973956614901901,-23.506366150984501],[-45.973874177078599,-23.5065697947255],[-45.9737823599732,-23.506726638055401],[-45.973824869226199,-23.506752447651898],[-45.974128276756097,-23.5068958999925],[-45.974414172810903,-23.507161548544001],[-45.974680419629799,-23.507355421588102],[-45.975253470538597,-23.507616901112399],[-45.975515567609797,-23.5075972370202],[-45.975752540899599,-23.507412400552202],[-45.976065712629598,-23.507287170349201],[-45.976208658141097,-23.507245657445299],[-45.976387265600003,-23.507156012708499]]],[[[-45.973137085428903,-23.506449519259],[-45.972949076292799,-23.506140200017999],[-45.972947386124602,-23.506141812602301],[-45.973128605408903,-23.506454590544699],[-45.973137085428903,-23.506449519259]]],[[[-45.9728270498738,-23.507630440844601],[-45.972890216490697,-23.507353984014401],[-45.972927542218798,-23.507230236483402],[-45.973005064885001,-23.5070590960893],[-45.973099814810197,-23.506972209342699],[-45.973338125228402,-23.506722080509501],[-45.973513269029702,-23.5066272947223],[-45.9736826704112,-23.506706282883101],[-45.973823359694201,-23.506479850028899],[-45.9738526894823,-23.5063629206313],[-45.973869112479399,-23.506309809679799],[-45.974003030632502,-23.5061132902302],[-45.974146028043897,-23.505871609366],[-45.9742661782117,-23.505649425478801],[-45.974311712103002,-23.5055722342919],[-45.974255225634302,-23.505346143260901],[-45.974221217172598,-23.505133213349598],[-45.974248149254102,-23.504882076666199],[-45.974274666074798,-23.504787729402398],[-45.974495209559201,-23.5046075655629],[-45.974255096734503,-23.504462882739301],[-45.9741531978962,-23.504498786267],[-45.974099086445499,-23.504528809776499],[-45.974005185933102,-23.504546815858099],[-45.973911861225503,-23.504488885418802],[-45.973835305408997,-23.504484850260202],[-45.9735627590265,-23.504402370057701],[-45.9735180085477,-23.504864072445699],[-45.9734413456287,-23.5050943210619],[-45.973423181956797,-23.505221187902801],[-45.973371127555403,-23.505671172968601],[-45.973004642800298,-23.506045258935401],[-45.973287879055903,-23.5063508357869],[-45.973238509743098,-23.506388864658501],[-45.973291037587302,-23.506357451479001],[-45.9733865086869,-23.5063986479561],[-45.973608895974202,-23.506443230385202],[-45.973473254433401,-23.506485871312201],[-45.973346860301099,-23.506553530191201],[-45.9732160572255,-23.506637933758402],[-45.973102858596597,-23.506651178966301],[-45.972945602168998,-23.506836051019899],[-45.972792938331999,-23.5070292528574],[-45.972700474439797,-23.507397609607501],[-45.9725735573885,-23.5073942228844],[-45.9723873606615,-23.507341054450801],[-45.972288523195701,-23.507458692173199],[-45.972199577069603,-23.5076891094632],[-45.971819622281799,-23.507787604878001],[-45.9716340996955,-23.507826376175501],[-45.971575371885201,-23.507851818404198],[-45.971073551054502,-23.508017941172501],[-45.971013260573102,-23.507830248083501],[-45.970985580365898,-23.507763551680199],[-45.9709524801236,-23.507575689039399],[-45.971161089877199,-23.507595284952401],[-45.971323831403701,-23.507539939055501],[-45.9714410416371,-23.507455621813701],[-45.971572091917302,-23.507404652637401],[-45.9720065176706,-23.5073183558419],[-45.972137414225102,-23.507246490606502],[-45.972145894772297,-23.507167030778199],[-45.972559768698503,-23.506750695248702],[-45.972897216381398,-23.5064184222745],[-45.972868768240602,-23.506247248255502],[-45.9729131569675,-23.506174470523401],[-45.972416466864303,-23.5066483582365],[-45.972050387607503,-23.507102539441199],[-45.9720087550646,-23.507177577924299],[-45.971334020748202,-23.507297376115702],[-45.970913388504101,-23.5073474017018],[-45.970973683911097,-23.507789732373698],[-45.9710669982315,-23.508030643989802],[-45.9715723311663,-23.5078608210931],[-45.971814948399199,-23.507800264038298],[-45.972188205680602,-23.5076975802729],[-45.972548457224903,-23.507946199734],[-45.9728270498738,-23.507630440844601]]],[[[-45.949953000007497,-23.505772474993702],[-45.949908000008399,-23.505748474993698],[-45.949741000011699,-23.5056454749935],[-45.949605000014301,-23.505552474993401],[-45.949460000017098,-23.505458474993301],[-45.949037000025399,-23.5051894749929],[-45.948900000028097,-23.505108474992799],[-45.948786874051798,-23.5053205531669],[-45.949307222599899,-23.505689499770298],[-45.949828940869502,-23.5059914221684],[-45.949876240578,-23.505972907486999],[-45.949959897253898,-23.5060635284472],[-45.950443999997702,-23.5063404749942],[-45.950510999996503,-23.506217474994202],[-45.950538999996098,-23.5061394749942],[-45.950188000002903,-23.506018474993901],[-45.950048000005602,-23.505952474993801],[-45.949887000008701,-23.505893474993702],[-45.949953000007497,-23.505772474993702]]],[[[-45.950782437558402,-23.503805401611501],[-45.951034565205603,-23.5034807240113],[-45.951163311238297,-23.503342981757701],[-45.951286692853699,-23.5033429817578],[-45.951367159123699,-23.503215078107001],[-45.951324243779197,-23.503008464255501],[-45.951367159123699,-23.5028067694691],[-45.951072,-23.502772000690701],[-45.950868215652598,-23.502876925672101],[-45.950626,-23.502939000690699],[-45.950291,-23.503015000690699],[-45.950236,-23.503411000690701],[-45.950194,-23.503508000690701],[-45.950143,-23.503750000690701],[-45.95009,-23.503971000690701],[-45.950031,-23.5040880006907],[-45.9499758361669,-23.5042635631387],[-45.9498463860564,-23.504609588792199],[-45.949975011736797,-23.504644220905099],[-45.950035272499598,-23.504448224420202],[-45.950175601242897,-23.504173974937199],[-45.950403276003897,-23.5039538711269],[-45.9504820301485,-23.504095643031899],[-45.950616140599401,-23.5039283853421],[-45.950782437558402,-23.503805401611501]]],[[[-45.943584778813602,-23.507085417532299],[-45.943636296399902,-23.507012776723698],[-45.943492656084601,-23.5067173507828],[-45.943512477482997,-23.506527576018001],[-45.943281421372703,-23.506464886592799],[-45.9432611177807,-23.506477928698999],[-45.9432521238394,-23.506479019097899],[-45.943202786896002,-23.506604935775599],[-45.942907145841303,-23.506619627248401],[-45.942599223224398,-23.506903912881601],[-45.942584789401003,-23.5073016562894],[-45.9428161651633,-23.507534491933502],[-45.943077598949799,-23.507561740714898],[-45.9432202819632,-23.507532845590902],[-45.943356052217098,-23.507453868568302],[-45.943465757590303,-23.507376878144701],[-45.943536669523901,-23.507214285454399],[-45.943584778813602,-23.507085417532299]]],[[[-45.807416,-23.506726],[-45.807336205371897,-23.506643321228701],[-45.807246304544599,-23.506381237461099],[-45.807246,-23.506367],[-45.807198,-23.506147],[-45.807153574680299,-23.506051000458701],[-45.8071275985955,-23.505931003639301],[-45.807004507536597,-23.505950422525199],[-45.807047119150802,-23.5061063564047],[-45.807035026054599,-23.506183056452699],[-45.807103997734799,-23.506375509689299],[-45.807149231299498,-23.506480516178801],[-45.807150407000599,-23.506560757775599],[-45.807154151877903,-23.506602575572501],[-45.807070098682601,-23.506709584280401],[-45.8071143778755,-23.506766796504799],[-45.8071496697074,-23.506796827442599],[-45.807274835148498,-23.506785648042399],[-45.807307415002597,-23.506831537958799],[-45.8073154688499,-23.5068333172972],[-45.807419412963597,-23.507030532819702],[-45.807238430294497,-23.507074667423801],[-45.807138311330597,-23.507020721113999],[-45.807024188875701,-23.507008165700501],[-45.8069514049836,-23.506892610377299],[-45.806880397446001,-23.506925813398301],[-45.806761884492097,-23.507075258402399],[-45.806738144535103,-23.5071899460387],[-45.807037769528101,-23.507565893781798],[-45.807158230783799,-23.507615978507001],[-45.807420913781101,-23.507610860758799],[-45.807549588302003,-23.507337867843798],[-45.807457132837598,-23.506870697997002],[-45.8074527792391,-23.5068636533133],[-45.807460679044603,-23.506865398619201],[-45.807416,-23.506726]],[[-45.807136652491401,-23.5070827073164],[-45.807326948596803,-23.5072300916936],[-45.807439023343299,-23.507240779386301],[-45.807459433875003,-23.5072481860119],[-45.807427663072801,-23.507381696462499],[-45.807334774971402,-23.507511767497501],[-45.807141275208402,-23.5075071360443],[-45.807106140135701,-23.507422803203699],[-45.8070158829645,-23.5073162186597],[-45.807019212196003,-23.5071941243074],[-45.807067572647597,-23.507109358809501],[-45.807136652491401,-23.5070827073164]]],[[[-45.941619381065401,-23.506362678779698],[-45.9418171726361,-23.506495489778299],[-45.941885811328703,-23.506578792410298],[-45.942211834220203,-23.506613763875201],[-45.942429343710003,-23.506331112282201],[-45.942535878124502,-23.506181147005002],[-45.942664477572301,-23.505978545413399],[-45.942588187308999,-23.505872336972299],[-45.942372294697201,-23.5055084853106],[-45.942054059563397,-23.505564762814199],[-45.941827306085301,-23.505422479637499],[-45.941361264940099,-23.505160067357899],[-45.941148986513802,-23.505057082117698],[-45.940846752762397,-23.505001503333901],[-45.940676674920901,-23.505032709826502],[-45.940249525107298,-23.505127599734301],[-45.939662354878699,-23.505227501203699],[-45.939261449346702,-23.505292354793401],[-45.938894246737199,-23.505437274010902],[-45.938911442046702,-23.505771917203901],[-45.939227520253503,-23.506029146671501],[-45.939411484131902,-23.506114009067101],[-45.939594132684803,-23.5061876330034],[-45.939467299133199,-23.506401337399499],[-45.939402136673102,-23.506618773179198],[-45.939573124243203,-23.506731229972701],[-45.939853283046297,-23.506895599122899],[-45.939921816478602,-23.506979309271099],[-45.940091964356597,-23.506969407885901],[-45.940314543045901,-23.506902258957599],[-45.940508970702098,-23.50644695762],[-45.940892165048702,-23.505908060675299],[-45.941347663978704,-23.505922230087101],[-45.941619381065401,-23.506362678779698]]],[[[-45.806928035577499,-23.506723261559198],[-45.806845633863503,-23.506642507879398],[-45.806840372969297,-23.506602174357202],[-45.806800916262802,-23.506564032874302],[-45.806734278269602,-23.506309317913399],[-45.806734716677397,-23.506164643323],[-45.806708850614299,-23.506026544850201],[-45.806682107735398,-23.505940178503799],[-45.806669832315599,-23.505940178503799],[-45.806667640276402,-23.505932287162501],[-45.806633722897701,-23.505934040210398],[-45.806547516525498,-23.5059112435857],[-45.806552339011901,-23.505799449584],[-45.806577328259301,-23.505681956280199],[-45.806579081890703,-23.5054877416027],[-45.806554969459,-23.505439516739202],[-45.806529980211501,-23.505413212268198],[-45.806543132446997,-23.505407074558299],[-45.806505429371903,-23.505290458070199],[-45.806464729042602,-23.5050975044125],[-45.8065296467989,-23.504972743506698],[-45.806559598821501,-23.5048749266989],[-45.806680792511898,-23.5047117597083],[-45.806770227713301,-23.504683701605899],[-45.806827047407701,-23.5047336224271],[-45.8067268934374,-23.505217050171201],[-45.806753292610502,-23.505330069560198],[-45.806947275467202,-23.505247366961999],[-45.8069348514816,-23.505164777944898],[-45.806991,-23.50505],[-45.807084,-23.504929],[-45.8072211677501,-23.504833613231298],[-45.807531404052099,-23.504447972272501],[-45.807139930390598,-23.5041818725288],[-45.807038513089303,-23.504366452017202],[-45.806821739552902,-23.504363662256399],[-45.8064584342793,-23.504442257770801],[-45.806188170288301,-23.504669675031501],[-45.805812973972401,-23.504785963948201],[-45.805777203140899,-23.5048365947499],[-45.805847540782601,-23.505000890176699],[-45.805859592944401,-23.505015084945001],[-45.805946,-23.505186],[-45.806064,-23.505336],[-45.806261,-23.505534],[-45.806298,-23.505769],[-45.806549,-23.506335],[-45.806664,-23.506509],[-45.806726,-23.506752],[-45.806783,-23.506947],[-45.806796870866798,-23.5070302252009],[-45.806879084674897,-23.506924402548201],[-45.806952191639198,-23.506890217837899],[-45.806957983750301,-23.506899706634499],[-45.806965521146097,-23.506892854456499],[-45.806928035577499,-23.506723261559198]]],[[[-45.943803588481501,-23.504570313415702],[-45.943330925689501,-23.504232704260399],[-45.943122333294198,-23.5043839798279],[-45.943019050153502,-23.504538284825902],[-45.9428996478822,-23.504773777602999],[-45.942796077123397,-23.5050934264058],[-45.942746682626499,-23.505284538595902],[-45.942787989339401,-23.505396722866202],[-45.943149934585797,-23.505685591704999],[-45.943427299585899,-23.505830886394399],[-45.943808958349102,-23.506081376505701],[-45.943803644236702,-23.505825718792799],[-45.943731667368297,-23.505369432207502],[-45.943651188817498,-23.504909537244899],[-45.9437118121783,-23.504751551916101],[-45.943846839406604,-23.5046062989048],[-45.943803588481501,-23.504570313415702]]],[[[-45.8085484099526,-23.505220312814199],[-45.808667656887799,-23.505127370349999],[-45.8087816429288,-23.505102819510402],[-45.808851788184803,-23.505169457503602],[-45.808837759133603,-23.505392168691401],[-45.808873058879001,-23.5054594063017],[-45.809009687478898,-23.505462194640501],[-45.8091361503107,-23.505353393775501],[-45.809031,-23.50508],[-45.808953,-23.504912],[-45.808908,-23.504742],[-45.808882,-23.504599],[-45.808833,-23.504431],[-45.808782,-23.50427],[-45.808707,-23.504065],[-45.808661,-23.503824],[-45.808633951569099,-23.503792958443402],[-45.808598717994002,-23.5039749985818],[-45.808698952169202,-23.5043329777792],[-45.808678344784198,-23.504573397286499],[-45.808672864075398,-23.504580564363899],[-45.808679472067197,-23.504606996331301],[-45.808712512026403,-23.504679684241498],[-45.808712512026403,-23.504768892131398],[-45.808669560079501,-23.504825060062],[-45.808530792250799,-23.504798628094701],[-45.808497001379997,-23.504782859032499],[-45.808507664279396,-23.504772196127298],[-45.808497752291601,-23.504689596229301],[-45.808434976369099,-23.504600388339501],[-45.808401936409901,-23.504497964465902],[-45.808372200446598,-23.504458316514899],[-45.808311915925202,-23.504433644823699],[-45.808276536716299,-23.504268541523601],[-45.808154229505803,-23.504121772908],[-45.808147528724099,-23.504088268971799],[-45.808104576777097,-23.504008973069698],[-45.807985632924002,-23.503913157187998],[-45.807927588253698,-23.503878024911501],[-45.807869387938801,-23.503807088448799],[-45.807884345711003,-23.503774679937202],[-45.807762002520498,-23.503689171255601],[-45.807703770000501,-23.503727992935602],[-45.8076321741611,-23.503738732311501],[-45.8074603441463,-23.503692195015901],[-45.807394670935302,-23.503688442261002],[-45.807286191645701,-23.5038127965685],[-45.807277674569399,-23.503838347797299],[-45.80732,-23.503839],[-45.807586,-23.503881],[-45.807974,-23.504239],[-45.807969537178003,-23.5042537215168],[-45.808028896650498,-23.504322453537601],[-45.808053447490103,-23.504739817810702],[-45.807864254726198,-23.505092789384999],[-45.807865,-23.505099],[-45.807943,-23.505211],[-45.808081,-23.505251],[-45.808385,-23.505133],[-45.808383,-23.505318],[-45.808390890279497,-23.505470874165798],[-45.808399474067301,-23.505525309582801],[-45.808447469929099,-23.505714749508702],[-45.8086223696179,-23.5056753403946],[-45.808654144586498,-23.5055427687407],[-45.808650120573802,-23.505430748582199],[-45.808576431907703,-23.5054060702019],[-45.808539641795598,-23.505302733490002],[-45.8085484099526,-23.505220312814199]]],[[[-45.809712585913701,-23.5033629585818],[-45.809710481837001,-23.5033600831533],[-45.809559397086197,-23.503297012698699],[-45.809444824693301,-23.503543640422699],[-45.809591813891601,-23.503602976048501],[-45.809721863467097,-23.503659537110199],[-45.809863415027799,-23.503725519434099],[-45.810280245731697,-23.503952481060001],[-45.810436154123103,-23.503805177484601],[-45.810421175432701,-23.503686934546],[-45.809987072573698,-23.5034766777244],[-45.8099883456741,-23.503473262485901],[-45.809712585913701,-23.5033629585818]]],[[[-45.807161027049602,-23.502559857849398],[-45.807157434777601,-23.5026387570963],[-45.807203219659499,-23.502800037339998],[-45.807250354502798,-23.5028486239557],[-45.807404892498802,-23.502810260841699],[-45.807482709898899,-23.502546922058801],[-45.807235492871101,-23.5024148574926],[-45.8071462802694,-23.5024791755142],[-45.807161027049602,-23.502559857849398]]],[[[-45.944323,-23.5022730006907],[-45.944216,-23.5022210006907],[-45.944078,-23.5021250006907],[-45.943949,-23.5020280006907],[-45.943763613360403,-23.501865762334599],[-45.943582934620899,-23.502052480971301],[-45.943798004081401,-23.502233376049301],[-45.943953031741501,-23.502356375288599],[-45.9442184680859,-23.5024422526444],[-45.944495943963403,-23.502553573303199],[-45.944852625053997,-23.502686284559701],[-45.944949475966403,-23.502748403037099],[-45.944897771565003,-23.5026118710595],[-45.944696,-23.502468000690701],[-45.944561,-23.502386000690699],[-45.944438,-23.502340000690701],[-45.944323,-23.5022730006907]]],[[[-45.808358524901102,-23.5023186499098],[-45.808282456388397,-23.5022007236885],[-45.808238467658597,-23.502167145942199],[-45.807945982530804,-23.502292618451399],[-45.8082417470766,-23.502370903868499],[-45.808358524901102,-23.5023186499098]]],[[[-45.8112537125375,-23.501672414871798],[-45.811279213890302,-23.5016416824723],[-45.8111737031724,-23.501624273293199],[-45.810433498002901,-23.501474704414999],[-45.810461476790202,-23.501530661989602],[-45.810498321508803,-23.5015705771015],[-45.810482969542697,-23.5016074218202],[-45.8103785761731,-23.5016012810337],[-45.810335590667997,-23.5015460139557],[-45.810274182803603,-23.5015337323828],[-45.810234267691698,-23.501512239630301],[-45.810203563759501,-23.501518380416702],[-45.810093029603401,-23.501518380416702],[-45.809964073088103,-23.501509169237099],[-45.809785990281199,-23.501460042945499],[-45.809712300843799,-23.501447761372599],[-45.809626329833598,-23.5014661837319],[-45.8095741331488,-23.501410916653899],[-45.809503052799499,-23.501392352014001],[-45.809497190476499,-23.501393736055],[-45.809460474467201,-23.501389866102201],[-45.809369058619701,-23.501321308570699],[-45.809331982844,-23.501498819983698],[-45.8094717485587,-23.501553590521901],[-45.809499697428301,-23.501558482978499],[-45.809780246037199,-23.501690024536099],[-45.809940656940697,-23.501670268192399],[-45.80999,-23.501749],[-45.8100443379344,-23.501806263823202],[-45.810101930165999,-23.501881941415999],[-45.810194483364199,-23.501896349449002],[-45.810541743810802,-23.502040729455],[-45.810722364741402,-23.5020560324974],[-45.810775728236898,-23.5019992263117],[-45.810779134547403,-23.501989764338099],[-45.8109,-23.501865],[-45.811037,-23.501761],[-45.811191,-23.501684],[-45.8112537125375,-23.501672414871798]],[[-45.810850051164799,-23.501600379197299],[-45.811062240564098,-23.5016345750096],[-45.8109806967041,-23.501692444845698],[-45.810925895722796,-23.501793717059101],[-45.810838214152803,-23.501798101137599],[-45.810727735374599,-23.501807746110298],[-45.810734749900199,-23.501852463711],[-45.810776398645999,-23.5018998117588],[-45.8107154599548,-23.501941898912399],[-45.810644437883099,-23.501898496535201],[-45.810632600871202,-23.5018344889891],[-45.810667235091401,-23.501741546524901],[-45.810776837053801,-23.501687622359398],[-45.810794373367798,-23.501641151127298],[-45.810850051164799,-23.501600379197299]]],[[[-45.945699,-23.5018200006906],[-45.94575,-23.501826000690698],[-45.945805,-23.501804000690701],[-45.945926,-23.501791000690702],[-45.945877516363701,-23.501598303249601],[-45.945886692431699,-23.5015191852426],[-45.945865910625898,-23.5014495080414],[-45.945821,-23.501361000690601],[-45.945858,-23.501170000690699],[-45.945849,-23.5009080006907],[-45.94584,-23.500767000690601],[-45.945845,-23.500723000690598],[-45.945685,-23.5007040006906],[-45.945594,-23.500717000690599],[-45.94546,-23.500719000690601],[-45.945349,-23.500754000690598],[-45.945206,-23.500789000690698],[-45.9451,-23.5008040006906],[-45.944998,-23.500812000690601],[-45.944885,-23.500843000690601],[-45.944693356093801,-23.5008480714657],[-45.944654726582598,-23.500958869081],[-45.944615236496801,-23.5011178328079],[-45.944719800030498,-23.501411139966201],[-45.944821,-23.501598000690699],[-45.944908,-23.5017790006907],[-45.944966,-23.5018410006907],[-45.945095,-23.501939000690701],[-45.94523,-23.502032000690701],[-45.945376,-23.502105000690701],[-45.945494371477103,-23.502011810313199],[-45.945519907838097,-23.501927135277199],[-45.945642,-23.501842000690701],[-45.945681,-23.501839000690701],[-45.945699,-23.5018200006906]]],[[[-45.807908064209897,-23.501216545207299],[-45.807984520634697,-23.500998222474202],[-45.8078359749789,-23.500947556836699],[-45.807749236558699,-23.501164579236899],[-45.8078068708529,-23.50122925218],[-45.807908064209897,-23.501216545207299]]],[[[-45.948411,-23.501252000690599],[-45.948403294219297,-23.5011768693305],[-45.948410563838102,-23.501178764932501],[-45.948541922675297,-23.500996534144299],[-45.948710693259002,-23.5007754676204],[-45.948898698430497,-23.500563567430401],[-45.9487793173097,-23.500293692310201],[-45.948585245950099,-23.500089471305699],[-45.948325663111902,-23.499878519780101],[-45.948291584813497,-23.4998602540029],[-45.9480812245693,-23.499715190460101],[-45.947822398944197,-23.499694924392799],[-45.947375988474199,-23.499873203404501],[-45.947162281665001,-23.500015489575201],[-45.946978029001997,-23.500175843657001],[-45.946792392830602,-23.500354365869399],[-45.946533514573403,-23.500457189731801],[-45.946419,-23.500524000690699],[-45.946321,-23.500480000690601],[-45.946257,-23.5004240006906],[-45.946073664274401,-23.5005995062028],[-45.946190658770199,-23.500608118741201],[-45.946047,-23.500788000690601],[-45.945998,-23.500865000690599],[-45.945984,-23.500920000690598],[-45.94596,-23.500945000690699],[-45.945951,-23.501096000690598],[-45.945994,-23.501173000690699],[-45.946125,-23.501182000690701],[-45.946231,-23.5011770006906],[-45.946389,-23.501222000690699],[-45.946677,-23.501298000690699],[-45.946873,-23.5013150006906],[-45.947024,-23.5013230006907],[-45.947195,-23.501339000690699],[-45.947376,-23.501369000690701],[-45.947511776093499,-23.501466720991299],[-45.947637,-23.5015720006907],[-45.947717,-23.501739000690701],[-45.94784,-23.501761000690699],[-45.947989,-23.501781000690698],[-45.948099,-23.5017620006907],[-45.948257,-23.5017030006907],[-45.948354,-23.501609000690699],[-45.948414,-23.501521000690701],[-45.948444,-23.501414000690701],[-45.948411,-23.501252000690599]],[[-45.947378342335199,-23.500168873025402],[-45.947462619519399,-23.500028152653599],[-45.947491744046701,-23.499952742048102],[-45.947628223668097,-23.499852740528201],[-45.947865767670301,-23.499885492439201],[-45.947988027334802,-23.4998710697073],[-45.948159002249199,-23.499928164156501],[-45.948215182136799,-23.500006475387099],[-45.9483495687141,-23.500132186368699],[-45.948387503442902,-23.500251645028101],[-45.948354696031501,-23.5003304979092],[-45.948292837862198,-23.5004950201889],[-45.9482548024884,-23.500535582412699],[-45.948206011321801,-23.500557060337101],[-45.948147360559702,-23.500556506001601],[-45.9480420187205,-23.5006008290806],[-45.947983125659398,-23.500517183676301],[-45.947882311252897,-23.500430433174099],[-45.947810431654503,-23.500568636743299],[-45.947812433542303,-23.500593825702701],[-45.947797335207603,-23.500686119292901],[-45.947749157925102,-23.500689832102701],[-45.947588963830697,-23.500768475587002],[-45.947560841312701,-23.500800408158401],[-45.947430847210498,-23.500770421476702],[-45.947393059868901,-23.500671479895502],[-45.947440259113797,-23.5005309850199],[-45.947446867870497,-23.500418094622798],[-45.947468283431903,-23.500301694468401],[-45.947378342335199,-23.500168873025402]]],[[[-45.946317581944101,-23.500380924874399],[-45.946442644011,-23.500391358800599],[-45.946558896045602,-23.500397439218101],[-45.946655670380999,-23.500352201334],[-45.946728240871401,-23.500267405748701],[-45.9468802698335,-23.500114169557101],[-45.946966373737403,-23.5000298140674],[-45.9470702397564,-23.499934895290899],[-45.947205892932303,-23.499873903878399],[-45.947330721660499,-23.499782785368399],[-45.947488445640097,-23.499753747081702],[-45.947714297509599,-23.499635665009698],[-45.947609299213397,-23.4995747366603],[-45.947458944473198,-23.499519075811701],[-45.947323689785101,-23.499464188076999],[-45.947210985372998,-23.499431556623801],[-45.946973833457697,-23.49932289505],[-45.946860491687801,-23.499294782375401],[-45.946802023574399,-23.499237823906402],[-45.946796404415501,-23.499238490531798],[-45.946802408274102,-23.499207184224399],[-45.946210997057499,-23.499296461258101],[-45.946072036729099,-23.499331506809501],[-45.945840647955499,-23.499451608816798],[-45.9456659913414,-23.500647736060099],[-45.945791433962,-23.500571850728001],[-45.945945627712,-23.5004833569356],[-45.946052558459698,-23.5004270625031],[-45.946160508819702,-23.500385879338801],[-45.946317581944101,-23.500380924874399]],[[-45.946400014470299,-23.5000385253927],[-45.946465954387797,-23.4999653361192],[-45.946604521714796,-23.499979818138801],[-45.9466754819017,-23.500027912730499],[-45.946715963139702,-23.500073638523698],[-45.946695541126203,-23.500122288408399],[-45.946719352692597,-23.500160453532999],[-45.946720983607101,-23.500194922465798],[-45.946664006968199,-23.500226096261802],[-45.946592155518303,-23.500219805697601],[-45.946536485385302,-23.5002345330869],[-45.946514635434298,-23.500189791350198],[-45.946478390058402,-23.500155532718001],[-45.946432671535803,-23.500151979491498],[-45.946390641622898,-23.500083277133498],[-45.946400014470299,-23.5000385253927]]],[[[-45.791373570979601,-23.512454324384599],[-45.791474938691699,-23.512645632298099],[-45.791538,-23.512505],[-45.791874,-23.512396],[-45.792306023711099,-23.5123351653152],[-45.7923709329391,-23.5120310029873],[-45.792405,-23.511744],[-45.792396,-23.511521],[-45.792024887880402,-23.511618807119401],[-45.792080884342603,-23.511804479599299],[-45.791645825235101,-23.5119857542274],[-45.791433124419299,-23.511969570469699],[-45.791429021820498,-23.512238345676],[-45.7911476311398,-23.512259384231601],[-45.791135093740998,-23.512266209324402],[-45.7912165339567,-23.512761115250399],[-45.791273315004297,-23.512829725682899],[-45.791313822050597,-23.512810304496298],[-45.791306631493597,-23.5127681115918],[-45.791285331108703,-23.512693223293098],[-45.791280241479001,-23.512539410110602],[-45.791327512225003,-23.512423790628301],[-45.791373570979601,-23.512454324384599]]],[[[-45.796472336102603,-23.510158232528301],[-45.7961410979185,-23.510169768186501],[-45.796116378651,-23.5102043751609],[-45.796152633576597,-23.510290068621501],[-45.796211959818599,-23.5103724661797],[-45.796314132790798,-23.510468047347299],[-45.796414657811802,-23.510522429735701],[-45.796530014393397,-23.510545501052],[-45.796663498437702,-23.510543853100899],[-45.796801926335597,-23.510510894077601],[-45.7969090431613,-23.510448271933299],[-45.796986496865998,-23.510374114130901],[-45.797065598521897,-23.510219206721398],[-45.796472336102603,-23.510158232528301]]],[[[-45.802383944686298,-23.505463283532102],[-45.802532642707199,-23.505394531898698],[-45.802587097504798,-23.5052567350508],[-45.802383430239402,-23.505101726527201],[-45.8021964043661,-23.505204668199902],[-45.802383944686298,-23.505463283532102]]],[[[-45.803264977444996,-23.504040316346099],[-45.8032861749425,-23.503667831482399],[-45.802993050961199,-23.503680158676602],[-45.802975203384797,-23.504052626249798],[-45.803264977444996,-23.504040316346099]]],[[[-45.802985389181799,-23.503383533804701],[-45.802826495396701,-23.5029443778717],[-45.8025420305162,-23.503003013370598],[-45.802692857803201,-23.503424442215898],[-45.802985389181799,-23.503383533804701]]],[[[-45.8027816828235,-23.502841928683701],[-45.803077,-23.502824],[-45.802965,-23.502629],[-45.802832,-23.502343],[-45.802611998428297,-23.502387194246399],[-45.802619192674698,-23.502561775414001],[-45.8027816828235,-23.502841928683701]]],[[[-45.800880562159797,-23.502053198819802],[-45.800598607006997,-23.501938638173499],[-45.800974695141001,-23.501531987572701],[-45.800932607987399,-23.5014513205283],[-45.8008037160795,-23.501410110190399],[-45.800800476770299,-23.5014126565992],[-45.800757009130898,-23.501394428234299],[-45.800405257767402,-23.501754793916898],[-45.800318179385698,-23.501834927396999],[-45.800251088123403,-23.501906117070899],[-45.800435819550998,-23.5023636046819],[-45.800122062984101,-23.50257568088],[-45.799955334382801,-23.502845904374801],[-45.7999605332665,-23.5028467303657],[-45.800324161842397,-23.503054215331598],[-45.800523782546797,-23.502962809207801],[-45.800696204123,-23.502856158740901],[-45.800691526790203,-23.502851740613298],[-45.800696815207402,-23.502849112238302],[-45.800726501108699,-23.502664367721302],[-45.800880562159797,-23.502053198819802]]],[[[-45.804199579113998,-23.501254352385299],[-45.8044956428174,-23.501271546736699],[-45.804650129884898,-23.501297355624001],[-45.804664301342498,-23.501290607310899],[-45.805015314940597,-23.501356525357501],[-45.805293146591097,-23.5014148546543],[-45.805297921269798,-23.501310251411802],[-45.805064292217502,-23.501097188828801],[-45.805161774745301,-23.501066150370299],[-45.8049538548659,-23.5009304738388],[-45.805019772912502,-23.5005745163872],[-45.805007616921202,-23.5005402585934],[-45.804781,-23.5005],[-45.804295553505703,-23.500569955614399],[-45.804319086937603,-23.500620999431401],[-45.8044604784724,-23.5006314728783],[-45.804739702246302,-23.500681589966],[-45.804689585158698,-23.500874898732601],[-45.804467638056302,-23.500975132907801],[-45.804095339691003,-23.501068207499099],[-45.8039807863479,-23.5012113991781],[-45.803837594668899,-23.501304473769402],[-45.803737360493699,-23.501340271689099],[-45.803637126318399,-23.501476303784099],[-45.803336423792601,-23.501676772134701],[-45.803632,-23.501684],[-45.803955,-23.501444],[-45.803987653018602,-23.501424504227099],[-45.803978753658001,-23.501405963892399],[-45.804051263509201,-23.501338397894699],[-45.804199579113998,-23.501254352385299]]],[[[-45.797132340544202,-23.500324083952801],[-45.797128058484297,-23.500325154467799],[-45.796856995485101,-23.500170261325401],[-45.796798,-23.500184],[-45.796641,-23.500376],[-45.796936220742403,-23.500697355037701],[-45.797206836440502,-23.5006668016524],[-45.797357629201699,-23.501173465330101],[-45.797493,-23.501098],[-45.79761,-23.500975],[-45.797628647707597,-23.500959322723698],[-45.797756178429999,-23.500559562959101],[-45.797246102075697,-23.500372741680401],[-45.797132340544202,-23.500324083952801]]],[[[-45.805837717612803,-23.500344734583202],[-45.805984670749297,-23.5003751067092],[-45.8061509338199,-23.500443278998901],[-45.8065337474453,-23.500642980924699],[-45.8066424279831,-23.500413663325698],[-45.806455464253801,-23.500290185510401],[-45.806249813297903,-23.5002145849028],[-45.805850772369197,-23.500078011881499],[-45.805686098269199,-23.500271071902201],[-45.805837717612803,-23.500344734583202]]],[[[-45.805227471662498,-23.500154328064198],[-45.805467140601799,-23.500226182410401],[-45.805599189631103,-23.499977794557299],[-45.805340351361203,-23.499891150120899],[-45.8052001823784,-23.500010989659501],[-45.805144354703103,-23.500001803135198],[-45.805227471662498,-23.500154328064198]]],[[[-45.8031118990856,-23.499079677015999],[-45.803076520237703,-23.499054141359402],[-45.803030605559997,-23.4989853454274],[-45.802983510370403,-23.4989639308798],[-45.803023874406698,-23.499085545072301],[-45.803118294591798,-23.4991662731913],[-45.803173458147,-23.499308114750701],[-45.803281079031599,-23.499387421127899],[-45.803416502930297,-23.499453048248899],[-45.8035051269636,-23.4995459882307],[-45.803584649841802,-23.499590246216201],[-45.803712530700402,-23.499622072473599],[-45.8038109522629,-23.4996364540809],[-45.803873543080499,-23.499550855583799],[-45.803641542653899,-23.4995331023833],[-45.803561765347503,-23.499446884752],[-45.803323558192702,-23.499373666294598],[-45.803239361897198,-23.499284764114702],[-45.8031118990856,-23.499079677015999]]],[[[-45.801801432705503,-23.498706667823001],[-45.801700109729197,-23.498694386250101],[-45.801635631471498,-23.498666752711099],[-45.801598786752798,-23.4986329783857],[-45.801528167708703,-23.498617626419598],[-45.801374648047599,-23.498666752711099],[-45.801193494847404,-23.4986698231044],[-45.801055327152397,-23.4986268375992],[-45.800954004175999,-23.498574640914502],[-45.800846540413197,-23.4985715705212],[-45.800745217436898,-23.498519373836402],[-45.800508797158699,-23.498310587097301],[-45.800597838562197,-23.498258390412499],[-45.800683322686503,-23.4981616583771],[-45.800494175933402,-23.498099483767898],[-45.8003594986724,-23.498012406043301],[-45.800020752029603,-23.498031342514299],[-45.799981533798302,-23.498014947757198],[-45.799311387340502,-23.497866786156202],[-45.799134261085698,-23.497599518067499],[-45.798833351703003,-23.497434294401799],[-45.798852671122603,-23.4974894592048],[-45.798932093932997,-23.497639299515399],[-45.799083723727399,-23.497837498391799],[-45.799281183823197,-23.497969136506001],[-45.799501041210704,-23.498042455428301],[-45.7996347452303,-23.498066810515599],[-45.799970922969997,-23.498080650931101],[-45.799974422801199,-23.4980781042212],[-45.800139,-23.498238],[-45.800488959178097,-23.4984551491853],[-45.800492411089898,-23.498460294060799],[-45.8007936152921,-23.498618354222401],[-45.801136171505902,-23.498718511500901],[-45.801400347410699,-23.4987577231519],[-45.801429,-23.498765],[-45.801745492304498,-23.4987980655645],[-45.801768571872898,-23.4988077299308],[-45.801833539474003,-23.4988764549487],[-45.802335271438899,-23.499041717531099],[-45.802435308108102,-23.498838165234499],[-45.802326597517002,-23.498821128565801],[-45.802246912627297,-23.498829620004202],[-45.802185231858402,-23.498798779619701],[-45.801973374726003,-23.498774216473901],[-45.801801432705503,-23.498706667823001]]]]}}
]
}
