{
"type": "FeatureCollection",
"name": "Ambev Jaguariuna - 2019 - Leucenas",
"crs": { "type": "name", "properties": { "name": "urn:ogc:def:crs:OGC:1.3:CRS84" } },
"features": [
{"type":"Feature","properties":{"id":null,"Name":"Leucena_Ambev","description":null,"timestamp":null,"begin":null,"end":null,"altitudeMode":null,"tessellate":1,"extrude":0,"visibility":-1,"drawOrder":null,"icon":null},"geometry":{"type":"Polygon","coordinates":[[[-47.001028219049317,-22.71254870092335,0.0],[-47.001226713898063,-22.71254337955639,0.0],[-47.001869367114857,-22.712917555363489,0.0],[-47.001304174057879,-22.714095337734239,0.0],[-47.000891333540139,-22.714957045261919,0.0],[-47.000708604779973,-22.714904384266539,0.0],[-47.00086590436635,-22.71434026269587,0.0],[-47.000990544681407,-22.71388433878829,0.0],[-47.00097503009313,-22.713753865026838,0.0],[-47.001057812129623,-22.71349373071709,0.0],[-47.001153886263083,-22.713323795241848,0.0],[-47.001206699855032,-22.713167841682179,0.0],[-47.001335921729172,-22.713021714907889,0.0],[-47.001132441269547,-22.712786525323398,0.0],[-47.000959768046251,-22.71256502037517,0.0],[-47.001028219049317,-22.71254870092335,0.0]]]}}
]
}
