{
"type": "FeatureCollection",
"name": "Ambev Jaguariuna - 2022",
"crs": { "type": "name", "properties": { "name": "urn:ogc:def:crs:OGC:1.3:CRS84" } },
"xy_coordinate_resolution": 1e-15,
"features": [
{"type":"Feature","properties":{"Área (ha)":0.471,"Nome do Projeto":"Ambev Jaguariuna (1)","Propriedade":"-","Tipo":"Restauração Ecológica","Ano de Implantação":"2019","Metodologia de Restauração":null,"Monitoramento":null,"Município":"Jaguariuna","UGRHI":"05 -  Piracicaba, Capivari e Jundiaí","Região Hidrográfica":"Paraná","Status do Projeto":null,"Fotos do Projeto":null},"geometry":{"type":"Polygon","coordinates":[[[-47.001020018325526,-22.71228704800011,0.0],[-47.00076769704242,-22.712352248915408,0.0],[-47.000575740724713,-22.712158734116301,0.0],[-47.000428994064833,-22.711980302486712,0.0],[-47.000296188299849,-22.711853697739421,0.0],[-47.000200402176617,-22.711684960925769,0.0],[-47.000249274229809,-22.711618200633861,0.0],[-47.000239688122932,-22.71157207134932,0.0],[-47.000178095700257,-22.711490149491599,0.0],[-47.000123726953063,-22.711396713179031,0.0],[-47.000098870641168,-22.71123974853402,0.0],[-47.000132967317668,-22.71112820485504,0.0],[-47.000249895446089,-22.711011160149951,0.0],[-47.000315996365437,-22.710961844694541,0.0],[-47.000481932167709,-22.711061806221231,0.0],[-47.000435664804442,-22.71112234455347,0.0],[-47.000323255653313,-22.711256972173889,0.0],[-47.000242626856469,-22.711367211498558,0.0],[-47.000262078729932,-22.71146458435485,0.0],[-47.000246400369143,-22.711536554786331,0.0],[-47.000289103508763,-22.711593573886969,0.0],[-47.000390647136157,-22.711535062672532,0.0],[-47.000430379595912,-22.711533120899041,0.0],[-47.000769587712171,-22.711776893671569,0.0],[-47.000843365408556,-22.711948872883539,0.0],[-47.001020018325526,-22.71228704800011,0.0]]]}}
]
}
