{
"type": "FeatureCollection",
"name": "Ambev Jacarei - 2018",
"crs": { "type": "name", "properties": { "name": "urn:ogc:def:crs:OGC:1.3:CRS84" } },
"xy_coordinate_resolution": 1e-15,
"features": [
{"type":"Feature","properties":{"Área (ha)":144.14410653843518,"Nome do Projeto":"Ambev Jacarei","Propriedade":"-","Tipo":"Restauração Ecológica","Ano de Implantação":"2018","Metodologia de Restauração":null,"Monitoramento":"-","Município":"Jacareí","UGRHI":"02 - Paraíba do Sul","Região Hidrográfica":"Atlântico Sudeste","Status do Projeto":"Finalizado","Fotos do Projeto":null},"geometry":{"type":"Polygon","coordinates":[[[-46.02122054575409,-23.214181627216998,0.0],[-46.021285034820202,-23.2141663769474,0.0],[-46.021423166064913,-23.214140844219099,0.0],[-46.021857524669798,-23.214052542767899,0.0],[-46.022106635238003,-23.214021588132901,0.0],[-46.023039722503491,-23.213873231652201,0.0],[-46.0234110475281,-23.2138193215198,0.0],[-46.023487164602997,-23.213826837632499,0.0],[-46.023749964471101,-23.2137698299059,0.0],[-46.024149811477002,-23.213690978997999,0.0],[-46.024180618405303,-23.213602830028901,0.0],[-46.02407717726539,-23.2132936894883,0.0],[-46.023845715490303,-23.2127367801764,0.0],[-46.023819869143303,-23.212640091808499,0.0],[-46.023836289997,-23.212476321180699,0.0],[-46.023791243979701,-23.2123844448003,0.0],[-46.023744811679897,-23.212308305371,0.0],[-46.023628764783709,-23.212293415687,0.0],[-46.023547273105699,-23.212254975574201,0.0],[-46.023226351020398,-23.212086187780301,0.0],[-46.023194792999199,-23.212026476228601,0.0],[-46.022911281601601,-23.211746727000701,0.0],[-46.022887654418398,-23.211681667041301,0.0],[-46.0228310838638,-23.2116045173345,0.0],[-46.022766634970509,-23.211536838159301,0.0],[-46.022730746800598,-23.211435377921099,0.0],[-46.022730215718489,-23.211327102647498,0.0],[-46.022704942352213,-23.211225387362902,0.0],[-46.022472303961997,-23.211092125676,0.0],[-46.022497726101108,-23.211015739479301,0.0],[-46.022448237918702,-23.2107691185089,0.0],[-46.022383276023099,-23.210678704120799,0.0],[-46.022420767457987,-23.2104559518211,0.0],[-46.022369111103401,-23.210360827563498,0.0],[-46.022237985149999,-23.210219216662502,0.0],[-46.022180190669992,-23.210047179385001,0.0],[-46.022162167033997,-23.2098076330869,0.0],[-46.022101273038508,-23.209544688965298,0.0],[-46.022079266978203,-23.209213295893491,0.0],[-46.022087450741502,-23.209022753357299,0.0],[-46.022161786199597,-23.2088941747303,0.0],[-46.022158301597997,-23.208805777486901,0.0],[-46.022089812957198,-23.208703636896001,0.0],[-46.021928492269303,-23.2084850204261,0.0],[-46.021904523719499,-23.208309149465599,0.0],[-46.022169172071798,-23.208127440773101,0.0],[-46.022184696300592,-23.208069623701899,0.0],[-46.022172261798609,-23.207954862663598,0.0],[-46.02203399427431,-23.2076180001905,0.0],[-46.021920279767997,-23.2074522737711,0.0],[-46.021821616101697,-23.207327085851599,0.0],[-46.021807592773399,-23.207265844145599,0.0],[-46.021809014606497,-23.207227794073901,0.0],[-46.021778693233898,-23.207181217581201,0.0],[-46.021802695942988,-23.2070661553417,0.0],[-46.021774258448303,-23.206996125665999,0.0],[-46.0217637270094,-23.206944026757501,0.0],[-46.021657828681001,-23.206911743216999,0.0],[-46.021528405555102,-23.206757271199599,0.0],[-46.0213713002871,-23.206608981000699,0.0],[-46.021211462687198,-23.206401322201799,0.0],[-46.0211826624761,-23.205942830644101,0.0],[-46.021134227712203,-23.205406303242899,0.0],[-46.020835194428408,-23.2044386111635,0.0],[-46.020798407044609,-23.2042164455092,0.0],[-46.020533206666201,-23.203768828510999,0.0],[-46.020456977487797,-23.203569886162601,0.0],[-46.020327419319891,-23.203407363962,0.0],[-46.0202968359336,-23.203315585521601,0.0],[-46.020310589606503,-23.203250847320401,0.0],[-46.020333142248099,-23.203194144040701,0.0],[-46.020392472603604,-23.203143625914699,0.0],[-46.020535477534402,-23.203009430227301,0.0],[-46.020508593113497,-23.2026570883068,0.0],[-46.020329584727499,-23.202592263015699,0.0],[-46.0200987431447,-23.202495411687998,0.0],[-46.020007070230299,-23.202420380096399,0.0],[-46.019849728799102,-23.202369921351199,0.0],[-46.019647390420602,-23.202314597553901,0.0],[-46.019454447697008,-23.202227826749599,0.0],[-46.019273787864101,-23.202161597555701,0.0],[-46.019159323558711,-23.202121289986401,0.0],[-46.018890251380498,-23.202039353766601,0.0],[-46.018628200375304,-23.201943157628499,0.0],[-46.018488062283701,-23.2019087209564,0.0],[-46.018341752856202,-23.201881571761,0.0],[-46.018293689426102,-23.201865335342401,0.0],[-46.018188717082303,-23.2018168103825,0.0],[-46.017997647210002,-23.201723009569299,0.0],[-46.01786721843439,-23.2016503384279,0.0],[-46.017801350688003,-23.201565988646799,0.0],[-46.017831934308603,-23.201446666840699,0.0],[-46.017942978699601,-23.201335920915302,0.0],[-46.018136257426299,-23.201208842448398,0.0],[-46.018391702504303,-23.200997411893098,0.0],[-46.018568655103699,-23.200822411337899,0.0],[-46.018653749507713,-23.200770053482501,0.0],[-46.018765890310299,-23.200739820802401,0.0],[-46.018891157509501,-23.2007456026925,0.0],[-46.018929675831103,-23.200737782914199,0.0],[-46.018975934388997,-23.2006956301244,0.0],[-46.0189973271399,-23.200653119920801,0.0],[-46.019041202769102,-23.200626462611499,0.0],[-46.019059413801898,-23.200608904385199,0.0],[-46.019140177919603,-23.200569893232601,0.0],[-46.019272133243298,-23.2003346015894,0.0],[-46.019309864722601,-23.2003074656084,0.0],[-46.0193346059379,-23.200222897987899,0.0],[-46.019463479757803,-23.2001043657033,0.0],[-46.019562158819703,-23.200036271075099,0.0],[-46.019635940048602,-23.199866608653899,0.0],[-46.0197915811831,-23.199701532969801,0.0],[-46.019849510253103,-23.199550985311909,0.0],[-46.0198554671979,-23.199489091315701,0.0],[-46.019819948211499,-23.199394280032799,0.0],[-46.019799145979903,-23.199321054437501,0.0],[-46.019857683161597,-23.199167029409601,0.0],[-46.019887495482109,-23.199113466458101,0.0],[-46.019917160656,-23.199051228154001,0.0],[-46.019912069314607,-23.1990088643925,0.0],[-46.0199677062296,-23.198931157635101,0.0],[-46.019987272036907,-23.198885148439199,0.0],[-46.019934764817499,-23.1986615830671,0.0],[-46.019899307297798,-23.1985599964691,0.0],[-46.019851769434297,-23.198472231664098,0.0],[-46.019779514838497,-23.198372468447602,0.0],[-46.019716848506299,-23.198309398022701,0.0],[-46.0195970264393,-23.198226518774199,0.0],[-46.019535540181501,-23.198173526814909,0.0],[-46.019447228120498,-23.198297090512099,0.0],[-46.019348213580599,-23.1984168208661,0.0],[-46.019178722113303,-23.198597679202091,0.0],[-46.018923325137301,-23.198793237374201,0.0],[-46.018655235657803,-23.198991600177902,0.0],[-46.018567180626697,-23.199036579246599,0.0],[-46.018325979389409,-23.199130128853898,0.0],[-46.0176632361702,-23.199254727071999,0.0],[-46.017514533362302,-23.1992595397817,0.0],[-46.017090017470409,-23.1992646284573,0.0],[-46.016904293762799,-23.1993311157491,0.0],[-46.016832581095002,-23.199415009386701,0.0],[-46.016777409574587,-23.199619243994398,0.0],[-46.0165343005905,-23.199896435155701,0.0],[-46.016209847008199,-23.199995578025799,0.0],[-46.015963995131507,-23.200092100408099,0.0],[-46.015828284243398,-23.200121198104,0.0],[-46.015327252603903,-23.199859147251701,0.0],[-46.014869242317502,-23.199655983926402,0.0],[-46.014395477520502,-23.199361161241502,0.0],[-46.01367315602549,-23.199356528517502,0.0],[-46.013181202464992,-23.199534801490302,0.0],[-46.013047643766797,-23.1996063253054,0.0],[-46.012846914726403,-23.199681463926499,0.0],[-46.012662558555292,-23.199739593781899,0.0],[-46.012617091249403,-23.199802639427499,0.0],[-46.012545425512897,-23.1998512866246,0.0],[-46.012469688244202,-23.199852451278499,0.0],[-46.012403287035298,-23.1998684546253,0.0],[-46.012153106609297,-23.199911383352699,0.0],[-46.012109613966501,-23.199901709676499,0.0],[-46.011921969014502,-23.199900562710699,0.0],[-46.011557926608212,-23.199870496269899,0.0],[-46.011086795694702,-23.200049605776901,0.0],[-46.010915204241513,-23.200174214133799,0.0],[-46.010568497963,-23.200296224457102,0.0],[-46.010114886630397,-23.200431437550801,0.0],[-46.009861460516198,-23.2004387550286,0.0],[-46.009449861395602,-23.200370106860699,0.0],[-46.009112260857108,-23.200287582597799,0.0],[-46.009053738103503,-23.200258763157301,0.0],[-46.008833984604607,-23.200169568319101,0.0],[-46.00883352395411,-23.200196641096699,0.0],[-46.008825460459498,-23.200238462406499,0.0],[-46.008781765540803,-23.200214018922701,0.0],[-46.008787123965497,-23.200163322350701,0.0],[-46.0087644031601,-23.200141893376099,0.0],[-46.008613186171701,-23.200106853216901,0.0],[-46.008579045368002,-23.200118838084201,0.0],[-46.008555009111099,-23.200157051970098,0.0],[-46.008455658234602,-23.200230196502499,0.0],[-46.008357357478701,-23.200240573654099,0.0],[-46.008326487115703,-23.200204798384,0.0],[-46.008017006503302,-23.2002393624667,0.0],[-46.007502464464103,-23.200171523941499,0.0],[-46.007348204778403,-23.2001161734159,0.0],[-46.007208862334799,-23.199923701962302,0.0],[-46.007191733182601,-23.199762245646099,0.0],[-46.004945101492602,-23.203081528776401,0.0],[-46.003857726902403,-23.202379501179909,0.0],[-46.002412824821,-23.205934262520199,0.0],[-46.0041461020596,-23.207346399589401,0.0],[-46.005878782798,-23.2086380185774,0.0],[-46.006172793441102,-23.208879739197201,0.0],[-46.007099874993401,-23.208366854783801,0.0],[-46.007385446001202,-23.208192574338099,0.0],[-46.00819770330839,-23.207742609916401,0.0],[-46.0087764880058,-23.207402632863602,0.0],[-46.009107756924003,-23.207195171228101,0.0],[-46.009465716475503,-23.207389787040601,0.0],[-46.0095819957725,-23.207461458856301,0.0],[-46.009771269725398,-23.207245680401599,0.0],[-46.011077162407901,-23.2059061829207,0.0],[-46.011310835053692,-23.205664211246301,0.0],[-46.011436513327091,-23.205528323401701,0.0],[-46.011567674452607,-23.2053965764484,0.0],[-46.0116991744461,-23.205273664193101,0.0],[-46.011844975913199,-23.205146996792099,0.0],[-46.011927734599702,-23.205082745132302,0.0],[-46.012013333891403,-23.2050234569178,0.0],[-46.012108632778499,-23.204964999817498,0.0],[-46.012195471976803,-23.204917932291298,0.0],[-46.012287394773708,-23.2048699193913,0.0],[-46.012379126473299,-23.204829251428901,0.0],[-46.012475914946698,-23.204793463574301,0.0],[-46.0127173365196,-23.2047232500448,0.0],[-46.012830537900797,-23.2046961155907,0.0],[-46.01297413496571,-23.2046679547819,0.0],[-46.013092698817502,-23.204649835984601,0.0],[-46.0136296681071,-23.204586235974901,0.0],[-46.014547619436897,-23.2044938617219,0.0],[-46.014969819269801,-23.2044445977435,0.0],[-46.015491002605998,-23.204346597326701,0.0],[-46.015651053075999,-23.204309444075399,0.0],[-46.015886869048401,-23.204613331497399,0.0],[-46.016021381475497,-23.2047620762755,0.0],[-46.01627316416851,-23.205019882436702,0.0],[-46.0163597244375,-23.205090409391399,0.0],[-46.016429931196598,-23.2051403394936,0.0],[-46.016556206617302,-23.205198557963499,0.0],[-46.016773736449601,-23.205276494665199,0.0],[-46.017338337305397,-23.205457803577701,0.0],[-46.017754628873099,-23.205581066808701,0.0],[-46.01790365444149,-23.205655363298199,0.0],[-46.018014472767902,-23.205738924010799,0.0],[-46.018074764229112,-23.2057978639032,0.0],[-46.018116686234897,-23.205845877681501,0.0],[-46.018210149067599,-23.205997650288602,0.0],[-46.018269214863693,-23.206129351646201,0.0],[-46.018295655672198,-23.206198521966702,0.0],[-46.01846133986291,-23.206734004973001,0.0],[-46.018587624983887,-23.207173818504401,0.0],[-46.018648681032303,-23.207450209434501,0.0],[-46.018763015847597,-23.207878970487201,0.0],[-46.018878798034599,-23.208213939295501,0.0],[-46.019042472650987,-23.208572678315001,0.0],[-46.019062407639296,-23.208644668369899,0.0],[-46.019099681635893,-23.208875282062799,0.0],[-46.019166121730102,-23.209194348618698,0.0],[-46.019267638090803,-23.209524004760201,0.0],[-46.019483180313699,-23.209944350548,0.0],[-46.019551552346499,-23.210096394857501,0.0],[-46.019594815521103,-23.210222708683801,0.0],[-46.019643758797002,-23.2104330946906,0.0],[-46.019643558514701,-23.210470857183498,0.0],[-46.019617288034503,-23.210597198980398,0.0],[-46.019505624292599,-23.210847260737001,0.0],[-46.019521388186703,-23.210986914270901,0.0],[-46.0195679119389,-23.211145930270199,0.0],[-46.019737882316598,-23.211643355764402,0.0],[-46.019907878369303,-23.2120934915866,0.0],[-46.019975101242999,-23.212233457151299,0.0],[-46.020067233386499,-23.212381389557809,0.0],[-46.0201820397617,-23.212617326808399,0.0],[-46.0202545294038,-23.212869171080801,0.0],[-46.020286665712703,-23.2130702285185,0.0],[-46.020300059069299,-23.213227358348899,0.0],[-46.0202950821161,-23.213422890098499,0.0],[-46.020298698176603,-23.2135041756422,0.0],[-46.020322716329609,-23.2135290413296,0.0],[-46.020426372866297,-23.213617524097899,0.0],[-46.020476954088203,-23.213655378083399,0.0],[-46.020561453758191,-23.213707648916099,0.0],[-46.020723148299403,-23.213770882774501,0.0],[-46.020815554413197,-23.213811198492099,0.0],[-46.020872670829696,-23.213842423391899,0.0],[-46.020964361227101,-23.213924520171201,0.0],[-46.021050234249792,-23.214013195019898,0.0],[-46.021116636573197,-23.2140716219692,0.0],[-46.02122054575409,-23.214181627216998,0.0]]]}},
{"type":"Feature","properties":{"Área (ha)":0.85055640549580569,"Nome do Projeto":"Ambev Jacarei","Propriedade":"-","Tipo":"Restauração Ecológica","Ano de Implantação":"2018","Metodologia de Restauração":null,"Monitoramento":"-","Município":"Jacareí","UGRHI":"02 - Paraíba do Sul","Região Hidrográfica":"Atlântico Sudeste","Status do Projeto":"Finalizado","Fotos do Projeto":null},"geometry":{"type":"Polygon","coordinates":[[[-46.009354582240327,-23.200905929840069,0.0],[-46.009110268867651,-23.200736025719038,0.0],[-46.008898517519377,-23.200446377497869,0.0],[-46.00878971969037,-23.200339636118649,0.0],[-46.008533805707437,-23.20017435453088,0.0],[-46.008603067405822,-23.20011030988659,0.0],[-46.008773254154733,-23.200144901714701,0.0],[-46.008764322710519,-23.200216677884381,0.0],[-46.008837616857633,-23.200202744633241,0.0],[-46.008853032845828,-23.200169074915049,0.0],[-46.009148898176761,-23.200310424849839,0.0],[-46.009438856011883,-23.200365540870639,0.0],[-46.009725124350908,-23.200425060507101,0.0],[-46.009955648579599,-23.200450057794821,0.0],[-46.010178068630232,-23.20040323167791,0.0],[-46.010448130582461,-23.200798499493409,0.0],[-46.010143155616753,-23.200978060159631,0.0],[-46.009622022471248,-23.200906389369969,0.0],[-46.009354582240327,-23.200905929840069,0.0]]]}},
{"type":"Feature","properties":{"Área (ha)":0.56772711572754198,"Nome do Projeto":"Ambev Jacarei","Propriedade":"-","Tipo":"Restauração Ecológica","Ano de Implantação":"2018","Metodologia de Restauração":null,"Monitoramento":"-","Município":"Jacareí","UGRHI":"02 - Paraíba do Sul","Região Hidrográfica":"Atlântico Sudeste","Status do Projeto":"Finalizado","Fotos do Projeto":null},"geometry":{"type":"Polygon","coordinates":[[[-46.008278989074611,-23.20021082098091,0.0],[-46.008407116458812,-23.20019687941382,0.0],[-46.008638697639803,-23.200296346252301,0.0],[-46.008796283820949,-23.20054258295707,0.0],[-46.008668541288728,-23.2007188600981,0.0],[-46.008420779365039,-23.200926788449109,0.0],[-46.008346999237972,-23.20101621171526,0.0],[-46.008112094505478,-23.20116616646337,0.0],[-46.008099309753391,-23.201113495329171,0.0],[-46.007983792176717,-23.200721270856409,0.0],[-46.008063266739477,-23.20053019372709,0.0],[-46.00795488764529,-23.200257040871971,0.0],[-46.008278989074611,-23.20021082098091,0.0]]]}},
{"type":"Feature","properties":{"Área (ha)":0.58986560870120297,"Nome do Projeto":"Ambev Jacarei","Propriedade":"-","Tipo":"Restauração Ecológica","Ano de Implantação":"2018","Metodologia de Restauração":null,"Monitoramento":"-","Município":"Jacareí","UGRHI":"02 - Paraíba do Sul","Região Hidrográfica":"Atlântico Sudeste","Status do Projeto":"Finalizado","Fotos do Projeto":null},"geometry":{"type":"Polygon","coordinates":[[[-46.013726183362436,-23.199362513405269,0.0],[-46.014361474019807,-23.199343987761619,0.0],[-46.014874830085759,-23.19968969366823,0.0],[-46.015216421153042,-23.199848901591729,0.0],[-46.015009374403263,-23.200095607180192,0.0],[-46.014837760456103,-23.20006463204891,0.0],[-46.014822223090832,-23.199902813605629,0.0],[-46.014811348268999,-23.199795677993471,0.0],[-46.014671810336012,-23.199725148489801,0.0],[-46.014522811773197,-23.19973939985783,0.0],[-46.014380277715652,-23.199823508342401,0.0],[-46.014564053139168,-23.199940324414921,0.0],[-46.014050480954182,-23.200071934152181,0.0],[-46.01407348720673,-23.199750846034799,0.0],[-46.014167697676527,-23.19955890822386,0.0],[-46.014055252570238,-23.199500981776911,0.0],[-46.013748998645148,-23.199624592799331,0.0],[-46.013577751849482,-23.199396926233689,0.0],[-46.013726183362436,-23.199362513405269,0.0]]]}},
{"type":"Feature","properties":{"Área (ha)":0.45034021959193049,"Nome do Projeto":"Ambev Jacarei","Propriedade":"-","Tipo":"Restauração Ecológica","Ano de Implantação":"2018","Metodologia de Restauração":null,"Monitoramento":"-","Município":"Jacareí","UGRHI":"02 - Paraíba do Sul","Região Hidrográfica":"Atlântico Sudeste","Status do Projeto":"Finalizado","Fotos do Projeto":null},"geometry":{"type":"Polygon","coordinates":[[[-46.020553252045147,-23.202991956817399,0.0],[-46.02022893598587,-23.202918375714141,0.0],[-46.020202237978303,-23.202826046054639,0.0],[-46.019846241948017,-23.202667906071699,0.0],[-46.019222772853368,-23.20245078967001,0.0],[-46.019235557436311,-23.202152513895829,0.0],[-46.019725981568698,-23.202355435537211,0.0],[-46.019997181068298,-23.202409530000271,0.0],[-46.020092005618103,-23.202494218824409,0.0],[-46.020501344587608,-23.202644354976702,0.0],[-46.020553252045147,-23.202991956817399,0.0]]]}},
{"type":"Feature","properties":{"Área (ha)":0.53132200454408307,"Nome do Projeto":"Ambev Jacarei","Propriedade":"-","Tipo":"Restauração Ecológica","Ano de Implantação":"2018","Metodologia de Restauração":null,"Monitoramento":"-","Município":"Jacareí","UGRHI":"02 - Paraíba do Sul","Região Hidrográfica":"Atlântico Sudeste","Status do Projeto":"Finalizado","Fotos do Projeto":null},"geometry":{"type":"Polygon","coordinates":[[[-46.015039607191241,-23.20436473962048,0.0],[-46.014584849571442,-23.204437647423251,0.0],[-46.014534423511691,-23.204309745232209,0.0],[-46.014625561200234,-23.204328108251801,0.0],[-46.014731760334072,-23.20434063931641,0.0],[-46.014782689402423,-23.204292484759989,0.0],[-46.014818250262962,-23.204210594776718,0.0],[-46.014800171092041,-23.20409037621706,0.0],[-46.014781165811591,-23.204018238593441,0.0],[-46.014709204004113,-23.20398766216093,0.0],[-46.014662763704848,-23.203912290272179,0.0],[-46.014650136522249,-23.203801134663831,0.0],[-46.014593567431952,-23.20344880142811,0.0],[-46.014491784681972,-23.2032558628066,0.0],[-46.014470332413183,-23.203060635329759,0.0],[-46.014453745212428,-23.202922707347039,0.0],[-46.014409221392683,-23.202847750990319,0.0],[-46.01450313101693,-23.202615368939551,0.0],[-46.014435551086187,-23.202339282444552,0.0],[-46.014226830874819,-23.202018485208772,0.0],[-46.014406423146298,-23.201887728346311,0.0],[-46.014525154212727,-23.20222936763081,0.0],[-46.014788203377563,-23.202514191513171,0.0],[-46.014545216624377,-23.202657659591569,0.0],[-46.014571775687493,-23.202846293218151,0.0],[-46.014850156816337,-23.20380302952449,0.0],[-46.015031210027701,-23.20429179460556,0.0],[-46.015039607191241,-23.20436473962048,0.0]]]}},
{"type":"Feature","properties":{"Área (ha)":0.68552209320016699,"Nome do Projeto":"Ambev Jacarei","Propriedade":"-","Tipo":"Restauração Ecológica","Ano de Implantação":"2018","Metodologia de Restauração":null,"Monitoramento":"-","Município":"Jacareí","UGRHI":"02 - Paraíba do Sul","Região Hidrográfica":"Atlântico Sudeste","Status do Projeto":"Finalizado","Fotos do Projeto":null},"geometry":{"type":"Polygon","coordinates":[[[-46.021740991303908,-23.208045339970081,0.0],[-46.021680327490692,-23.208439663422951,0.0],[-46.021790807847808,-23.208667750273321,0.0],[-46.022039021647423,-23.208846299709379,0.0],[-46.021985787111703,-23.209368888832621,0.0],[-46.021808266121653,-23.209350756615031,0.0],[-46.021844962978342,-23.209665482955721,0.0],[-46.022006121202637,-23.209782135735271,0.0],[-46.022016483664743,-23.210036403594689,0.0],[-46.022128556036833,-23.2104241629626,0.0],[-46.022257180574982,-23.210627119134511,0.0],[-46.022156308028961,-23.21082823118449,0.0],[-46.022346555721221,-23.211398573286981,0.0],[-46.022193518343506,-23.211439088371481,0.0],[-46.022022084030112,-23.21076940619427,0.0],[-46.021892084751663,-23.210836998605149,0.0],[-46.021892504939231,-23.210232063942879,0.0],[-46.021799092822548,-23.20966670568674,0.0],[-46.021761156619768,-23.209045938581191,0.0],[-46.021572071069528,-23.20867297444731,0.0],[-46.021622584206533,-23.208295355663729,0.0],[-46.021629699070303,-23.208099755091659,0.0],[-46.021684820492958,-23.20802295893564,0.0],[-46.021740991303908,-23.208045339970081,0.0]]]}},
{"type":"Feature","properties":{"Área (ha)":0.3128504479430616,"Nome do Projeto":"Ambev Jacarei","Propriedade":"-","Tipo":"Restauração Ecológica","Ano de Implantação":"2018","Metodologia de Restauração":null,"Monitoramento":"-","Município":"Jacareí","UGRHI":"02 - Paraíba do Sul","Região Hidrográfica":"Atlântico Sudeste","Status do Projeto":"Finalizado","Fotos do Projeto":null},"geometry":{"type":"Polygon","coordinates":[[[-46.021542326269604,-23.208380421516289,0.0],[-46.021425597965823,-23.208407622714049,0.0],[-46.021208727547418,-23.207977468355459,0.0],[-46.021015981159913,-23.20773296235593,0.0],[-46.021198137895333,-23.207675960298051,0.0],[-46.021669732897642,-23.207641796914611,0.0],[-46.021542326269604,-23.208380421516289,0.0]]]}}
]
}
