{
"type": "FeatureCollection",
"name": "Antonio de Campos - Salesopolis - Licitação Pref",
"crs": { "type": "name", "properties": { "name": "urn:ogc:def:crs:OGC:1.3:CRS84" } },
"xy_coordinate_resolution": 1e-15,
"features": [
{"type":"Feature","properties":{"Área (ha)":0.106,"Nome do Projeto":"Adelmo Fanti  -TGI (PN)","Propriedade":"-","Tipo":"Restauração Ecológica","Ano de Implantação":"2016","Metodologia de Restauração":null,"Monitoramento":null,"Município":"Joanópolis","UGRHI":"05 -  Piracicaba, Capivari e Jundiaí","Região Hidrográfica":"Paraná","Status do Projeto":null,"Fotos do Projeto":null},"geometry":{"type":"Polygon","coordinates":[[[-45.782040582658233,-23.61200279206701,0.0],[-45.781592486166481,-23.612390564133779,0.0],[-45.781510229719068,-23.612339123926819,0.0],[-45.781499896262922,-23.612299631401431,0.0],[-45.781817924981787,-23.611948614211709,0.0],[-45.781890795452661,-23.6119057154297,0.0],[-45.782040582658233,-23.61200279206701,0.0]]]}},
{"type":"Feature","properties":{"Área (ha)":0.851,"Nome do Projeto":"Adelmo Fanti  -TGI (PN)","Propriedade":"-","Tipo":"Restauração Ecológica","Ano de Implantação":"2016","Metodologia de Restauração":null,"Monitoramento":null,"Município":"Joanópolis","UGRHI":"05 -  Piracicaba, Capivari e Jundiaí","Região Hidrográfica":"Paraná","Status do Projeto":null,"Fotos do Projeto":null},"geometry":{"type":"Polygon","coordinates":[[[-45.78095676537162,-23.61357414287475,0.0],[-45.781131179753118,-23.613711938846151,0.0],[-45.781310160406562,-23.613492985860951,0.0],[-45.781405250515427,-23.61354768853834,0.0],[-45.781454989742493,-23.61370578469614,0.0],[-45.781374260548738,-23.613919392529318,0.0],[-45.781302992027122,-23.61400816903555,0.0],[-45.781088419423583,-23.61448410016769,0.0],[-45.780859442781718,-23.61468834672878,0.0],[-45.780727146451028,-23.61463582984134,0.0],[-45.780539476348373,-23.614302292160779,0.0],[-45.780494603984323,-23.614306881945911,0.0],[-45.7803010758212,-23.614264511257009,0.0],[-45.780278789655583,-23.61423736844073,0.0],[-45.780490824949602,-23.61381728966618,0.0],[-45.78095676537162,-23.61357414287475,0.0]]]}},
{"type":"Feature","properties":{"Área (ha)":0.132,"Nome do Projeto":"Adelmo Fanti  -TGI (PN)","Propriedade":"-","Tipo":"Restauração Ecológica","Ano de Implantação":"2016","Metodologia de Restauração":null,"Monitoramento":null,"Município":"Joanópolis","UGRHI":"05 -  Piracicaba, Capivari e Jundiaí","Região Hidrográfica":"Paraná","Status do Projeto":null,"Fotos do Projeto":null},"geometry":{"type":"Polygon","coordinates":[[[-45.781122624932571,-23.61266144172733,0.0],[-45.781102487650386,-23.612538558737509,0.0],[-45.781394802537882,-23.612332674162701,0.0],[-45.781541803630027,-23.612423959541641,0.0],[-45.781471836422433,-23.612517774546919,0.0],[-45.781505321429222,-23.612650449822969,0.0],[-45.781205768714592,-23.612779958297551,0.0],[-45.781122624932571,-23.61266144172733,0.0]]]}},
{"type":"Feature","properties":{"Área (ha)":0.356,"Nome do Projeto":"Adelmo Fanti  -TGI (PN)","Propriedade":"-","Tipo":"Restauração Ecológica","Ano de Implantação":"2016","Metodologia de Restauração":null,"Monitoramento":null,"Município":"Joanópolis","UGRHI":"05 -  Piracicaba, Capivari e Jundiaí","Região Hidrográfica":"Paraná","Status do Projeto":null,"Fotos do Projeto":null},"geometry":{"type":"Polygon","coordinates":[[[-45.781926450751783,-23.61312836116133,0.0],[-45.782001136271823,-23.613192995704349,0.0],[-45.781989247623898,-23.613355472883551,0.0],[-45.78149835815622,-23.613931362945831,0.0],[-45.781534042578521,-23.613741718411269,0.0],[-45.781551337395712,-23.61364069701732,0.0],[-45.781669051451381,-23.613636852712759,0.0],[-45.781717139943147,-23.613547318477181,0.0],[-45.781590181447093,-23.613319737976919,0.0],[-45.781406075337458,-23.61304295661483,0.0],[-45.781435028940102,-23.612736437303148,0.0],[-45.781544408503017,-23.612707100654511,0.0],[-45.781926450751783,-23.61312836116133,0.0]]]}}
]
}
