{
"type": "FeatureCollection",
"name": "APP alojamento Da Serra - Voluntário",
"crs": { "type": "name", "properties": { "name": "urn:ogc:def:crs:OGC:1.3:CRS84" } },
"features": [
{"type":"Feature","properties":{"id":null,"Name":"APP alojamento Da Serra","description":null,"timestamp":null,"begin":null,"end":null,"altitudeMode":null,"tessellate":1,"extrude":0,"visibility":-1,"drawOrder":null,"icon":null},"geometry":{"type":"Polygon","coordinates":[[[-46.281810546430719,-22.903748302222979,0.0],[-46.281868238496052,-22.90379351651206,0.0],[-46.281930501273209,-22.903849048952381,0.0],[-46.281953267154343,-22.90389738207077,0.0],[-46.281935955630907,-22.90394992463418,0.0],[-46.281880906597777,-22.903996018307481,0.0],[-46.281852698277149,-22.904081083475219,0.0],[-46.281808767690308,-22.90414564217096,0.0],[-46.281859889269569,-22.904163912651761,0.0],[-46.281887887694289,-22.904230206691189,0.0],[-46.281953520908907,-22.904283911201539,0.0],[-46.282027252374853,-22.90431702124712,0.0],[-46.282112217533431,-22.904367083252421,0.0],[-46.282107550734743,-22.90441872390344,0.0],[-46.282203389064627,-22.90446751572545,0.0],[-46.282258587402893,-22.904530655516972,0.0],[-46.282326824705621,-22.904625729346431,0.0],[-46.28235574297674,-22.90468809718784,0.0],[-46.282436303794768,-22.904734912110658,0.0],[-46.282405928191757,-22.904785502824129,0.0],[-46.282334209274133,-22.904860417665979,0.0],[-46.282090830135807,-22.90452198852168,0.0],[-46.28201987978057,-22.904465186934541,0.0],[-46.281876575984377,-22.904348179773141,0.0],[-46.281798572503632,-22.90430236456324,0.0],[-46.281771621850851,-22.90411984581678,0.0],[-46.281775753108548,-22.903908838027832,0.0],[-46.281733367204779,-22.903584402908891,0.0],[-46.281810546430719,-22.903748302222979,0.0]]]}}
]
}
