{
"type": "FeatureCollection",
"name": "Bar da Loira - Salesopolis - Licitação Pref",
"crs": { "type": "name", "properties": { "name": "urn:ogc:def:crs:OGC:1.3:CRS84" } },
"xy_coordinate_resolution": 1e-15,
"features": [
{"type":"Feature","properties":{"Área (ha)":0.109,"Nome do Projeto":"Adelmo Fanti  -TGI (PN)","Propriedade":"-","Tipo":"Restauração Ecológica","Ano de Implantação":"2016","Metodologia de Restauração":null,"Monitoramento":null,"Município":"Joanópolis","UGRHI":"05 -  Piracicaba, Capivari e Jundiaí","Região Hidrográfica":"Paraná","Status do Projeto":null,"Fotos do Projeto":null},"geometry":{"type":"Polygon","coordinates":[[[-45.806018255961547,-23.583000470007779,0.0],[-45.80603449007986,-23.583000600726969,0.0],[-45.806109862171752,-23.582955383577179,0.0],[-45.806128440369108,-23.582950270819651,0.0],[-45.80614388827572,-23.58295650700817,0.0],[-45.806300014390558,-23.583037025898552,0.0],[-45.806381108037193,-23.583059380844411,0.0],[-45.806386657899161,-23.583070273319379,0.0],[-45.806373613607207,-23.583082709523481,0.0],[-45.806263569158553,-23.583087158829361,0.0],[-45.806251771987419,-23.583088738973871,0.0],[-45.806249215490489,-23.583102665605939,0.0],[-45.806257763325391,-23.583343680957299,0.0],[-45.80625318187019,-23.58335435213376,0.0],[-45.806240123315419,-23.583349955280671,0.0],[-45.806220713141499,-23.58323171018813,0.0],[-45.806191198220922,-23.583157508659049,0.0],[-45.806180825551927,-23.583149372541541,0.0],[-45.806094281710052,-23.583147713882571,0.0],[-45.80601395782756,-23.583179809770151,0.0],[-45.806001031567916,-23.583187128202479,0.0],[-45.805981112466966,-23.583236983144321,0.0],[-45.805969216933732,-23.58323745288676,0.0],[-45.805878417959889,-23.583141931278021,0.0],[-45.80587492005624,-23.58312787375348,0.0],[-45.805894528332487,-23.583066839009071,0.0],[-45.805895507342811,-23.5830519036029,0.0],[-45.805885394314991,-23.58304196378397,0.0],[-45.805817763273652,-23.58298966692,0.0],[-45.805751031250907,-23.58287118921762,0.0],[-45.805751588217042,-23.58285920197514,0.0],[-45.805760184250239,-23.582855277958849,0.0],[-45.806018255961547,-23.583000470007779,0.0]]]}},
{"type":"Feature","properties":{"Área (ha)":0.073,"Nome do Projeto":"Adelmo Fanti  -TGI (PN)","Propriedade":"-","Tipo":"Restauração Ecológica","Ano de Implantação":"2016","Metodologia de Restauração":null,"Monitoramento":null,"Município":"Joanópolis","UGRHI":"05 -  Piracicaba, Capivari e Jundiaí","Região Hidrográfica":"Paraná","Status do Projeto":null,"Fotos do Projeto":null},"geometry":{"type":"Polygon","coordinates":[[[-45.806041761501682,-23.58268779234654,0.0],[-45.806034145925487,-23.582707334046159,0.0],[-45.806016848666147,-23.582713456199649,0.0],[-45.805831859163277,-23.582705309151478,0.0],[-45.8058239819891,-23.58269609792189,0.0],[-45.805823112023347,-23.5826783986371,0.0],[-45.805830971309291,-23.582628050272991,0.0],[-45.805821315598592,-23.582562150780589,0.0],[-45.805785557538407,-23.582548683681129,0.0],[-45.805779857687853,-23.582533608915771,0.0],[-45.805788952274909,-23.582519866536892,0.0],[-45.80596467473859,-23.582410777264091,0.0],[-45.805973845446303,-23.58240024370707,0.0],[-45.805997247795418,-23.582349331843361,0.0],[-45.806008316057017,-23.58233811686479,0.0],[-45.80601657722184,-23.58235406569926,0.0],[-45.806030127849532,-23.582434185228689,0.0],[-45.806038330031903,-23.582447622657192,0.0],[-45.80605060883542,-23.58245582605667,0.0],[-45.806116267244597,-23.582477833648571,0.0],[-45.806125552393958,-23.582490134995659,0.0],[-45.806108399292867,-23.582501532697481,0.0],[-45.806033378352879,-23.582549187875198,0.0],[-45.806019653304851,-23.582561354076471,0.0],[-45.806017526699627,-23.582577111970419,0.0],[-45.806041761501682,-23.58268779234654,0.0]]]}}
]
}
