{
"type": "FeatureCollection",
"name": "Batazza - SABESP 2º Licitação",
"crs": { "type": "name", "properties": { "name": "urn:ogc:def:crs:OGC:1.3:CRS84" } },
"features": [
{"type":"Feature","properties":{"id":null,"Name":"1","description":null,"timestamp":null,"begin":null,"end":null,"altitudeMode":null,"tessellate":1,"extrude":0,"visibility":-1,"drawOrder":null,"icon":null},"geometry":{"type":"Polygon","coordinates":[[[-46.510508534130388,-22.910313071738241,0.0],[-46.510015626942369,-22.910342605859871,0.0],[-46.509813006903173,-22.910529559485049,0.0],[-46.509564040888101,-22.91065126840823,0.0],[-46.509470766916372,-22.910478314926898,0.0],[-46.509547978983662,-22.910352423367879,0.0],[-46.509648638582938,-22.910231814238749,0.0],[-46.509778802004412,-22.910096185237361,0.0],[-46.509868009528091,-22.909962494324539,0.0],[-46.509946922125067,-22.909882174109359,0.0],[-46.510075551340542,-22.909836699100431,0.0],[-46.510140366218373,-22.909829768456191,0.0],[-46.510270345222587,-22.909843191053579,0.0],[-46.510388532505999,-22.909920928832769,0.0],[-46.510477087552282,-22.909992582226991,0.0],[-46.510522839606907,-22.91002903356565,0.0],[-46.510508534130388,-22.910313071738241,0.0]]]}},
{"type":"Feature","properties":{"id":null,"Name":"2","description":null,"timestamp":null,"begin":null,"end":null,"altitudeMode":null,"tessellate":1,"extrude":0,"visibility":-1,"drawOrder":null,"icon":null},"geometry":{"type":"Polygon","coordinates":[[[-46.509278868423387,-22.910512221983289,0.0],[-46.509307178150941,-22.910587300541209,0.0],[-46.509246655715437,-22.910737123513851,0.0],[-46.509228267853622,-22.910757471999869,0.0],[-46.508872016605949,-22.910728667381012,0.0],[-46.508541281461,-22.91052116804703,0.0],[-46.508373403916423,-22.910350814070771,0.0],[-46.508210929247937,-22.909791910826549,0.0],[-46.508188837147877,-22.9097689713875,0.0],[-46.508112932643307,-22.909667285710871,0.0],[-46.507917213579468,-22.909417563889601,0.0],[-46.507474230066357,-22.90934383148554,0.0],[-46.507458139419057,-22.909323840966241,0.0],[-46.507608335337537,-22.909138603366031,0.0],[-46.507755346523894,-22.909141627354838,0.0],[-46.507816966044572,-22.909142295601129,0.0],[-46.507866459339567,-22.90913296990178,0.0],[-46.507946880555657,-22.909084378265749,0.0],[-46.508003314875872,-22.90903380386608,0.0],[-46.508004604226883,-22.909031874093749,0.0],[-46.508026755050082,-22.909013279077719,0.0],[-46.508068705981479,-22.908989516833369,0.0],[-46.508097227524459,-22.908952579484051,0.0],[-46.508099688607317,-22.90894885720418,0.0],[-46.508138632657079,-22.908889955152659,0.0],[-46.50817470285525,-22.908811770860432,0.0],[-46.508189056984477,-22.908796455630078,0.0],[-46.508232846808681,-22.908739311919931,0.0],[-46.508231657036042,-22.908735019691679,0.0],[-46.50833061509271,-22.90859873595236,0.0],[-46.508408803345603,-22.908521707037121,0.0],[-46.508413539300371,-22.90852068422716,0.0],[-46.508564573351499,-22.908507413830019,0.0],[-46.508571498344239,-22.90861351312136,0.0],[-46.50851144845052,-22.908739810656961,0.0],[-46.50851202275431,-22.90874187387136,0.0],[-46.508434223454572,-22.9088514436502,0.0],[-46.508386295903442,-22.908939451417851,0.0],[-46.508439698391982,-22.9090567322853,0.0],[-46.508418547534298,-22.909148240169099,0.0],[-46.508383098084892,-22.9091985142319,0.0],[-46.508348775265397,-22.90943791747117,0.0],[-46.508319764892143,-22.90953898759788,0.0],[-46.508285746142107,-22.909665177159312,0.0],[-46.508293711012243,-22.909812510896231,0.0],[-46.508303141667902,-22.909950647837672,0.0],[-46.508384463758297,-22.910205835095539,0.0],[-46.508406187338089,-22.91027935218041,0.0],[-46.508534442968767,-22.910375448854271,0.0],[-46.508598702759613,-22.910449225834711,0.0],[-46.50873418870011,-22.910506130085121,0.0],[-46.50886497471199,-22.910536936707519,0.0],[-46.5089445522867,-22.910565881005859,0.0],[-46.509040269465856,-22.91060503901608,0.0],[-46.509105015814782,-22.910642323853651,0.0],[-46.509165855313647,-22.910648678841341,0.0],[-46.509278868423387,-22.910512221983289,0.0]]]}},
{"type":"Feature","properties":{"id":null,"Name":"3","description":null,"timestamp":null,"begin":null,"end":null,"altitudeMode":null,"tessellate":1,"extrude":0,"visibility":-1,"drawOrder":null,"icon":null},"geometry":{"type":"Polygon","coordinates":[[[-46.506460093968776,-22.909871099581,0.0],[-46.50652164208487,-22.909659029225701,0.0],[-46.506537139371837,-22.90945755014479,0.0],[-46.506504101875777,-22.909331672466632,0.0],[-46.506370942733973,-22.909242912075641,0.0],[-46.50645118110527,-22.90910348274296,0.0],[-46.506573733148791,-22.90913482505988,0.0],[-46.506650249705316,-22.90914574794223,0.0],[-46.506751421162647,-22.90914048886988,0.0],[-46.506895239315163,-22.909167631940729,0.0],[-46.507067461012589,-22.909108360432029,0.0],[-46.507121458849397,-22.908986575641691,0.0],[-46.507103342411348,-22.908916693214039,0.0],[-46.507201629517233,-22.90893200537872,0.0],[-46.507305811192573,-22.908956382694541,0.0],[-46.507306716285711,-22.908959468677629,0.0],[-46.507313027436552,-22.908967950866788,0.0],[-46.507371390749462,-22.909044543398021,0.0],[-46.507480894997407,-22.909097022072849,0.0],[-46.507357558976217,-22.909318037916648,0.0],[-46.506817680627258,-22.909459155444839,0.0],[-46.506680710847782,-22.909963085217939,0.0],[-46.506437086505102,-22.909990394187691,0.0],[-46.506460093968776,-22.909871099581,0.0]]]}},
{"type":"Feature","properties":{"id":null,"Name":"Adensamento","description":null,"timestamp":null,"begin":null,"end":null,"altitudeMode":null,"tessellate":1,"extrude":0,"visibility":-1,"drawOrder":null,"icon":null},"geometry":{"type":"Polygon","coordinates":[[[-46.506495633325393,-22.908932947950621,0.0],[-46.506593837131319,-22.90879163151995,0.0],[-46.506733985803379,-22.908728012325611,0.0],[-46.506895095261761,-22.908734092145799,0.0],[-46.507016401242304,-22.90877494182255,0.0],[-46.507081440087653,-22.90888336605807,0.0],[-46.507111983054031,-22.908988815197159,0.0],[-46.507069227988133,-22.909096676331139,0.0],[-46.506899259415817,-22.9091649780847,0.0],[-46.506758954036812,-22.90913856226701,0.0],[-46.506638413388693,-22.909148899418291,0.0],[-46.506457033291333,-22.90909703995321,0.0],[-46.506495633325393,-22.908932947950621,0.0]]]}},
{"type":"Feature","properties":{"id":null,"Name":"Adensamento","description":null,"timestamp":null,"begin":null,"end":null,"altitudeMode":null,"tessellate":1,"extrude":0,"visibility":-1,"drawOrder":null,"icon":null},"geometry":{"type":"Polygon","coordinates":[[[-46.508578035606057,-22.908536701097979,0.0],[-46.50868875857865,-22.908514870853111,0.0],[-46.508726275072974,-22.908621849078958,0.0],[-46.508675789448461,-22.908793123673259,0.0],[-46.508614952624669,-22.909015814421071,0.0],[-46.508537363586633,-22.909200422081071,0.0],[-46.50849032738796,-22.909368567261659,0.0],[-46.508437500892342,-22.90954937512744,0.0],[-46.508420720175103,-22.90970298238409,0.0],[-46.508421634647164,-22.909717049753741,0.0],[-46.508476321005908,-22.909903884021201,0.0],[-46.508519264981039,-22.910062242524941,0.0],[-46.50857461550379,-22.910172362301712,0.0],[-46.5086747589976,-22.910225762216822,0.0],[-46.508696630437882,-22.910274661668819,0.0],[-46.508686413394472,-22.910330983037412,0.0],[-46.508694798882637,-22.910342880494539,0.0],[-46.508775712512282,-22.910393757275099,0.0],[-46.508933534194043,-22.910465736025309,0.0],[-46.509117588538643,-22.910532400492301,0.0],[-46.509241730392723,-22.91051139606969,0.0],[-46.509268659546443,-22.910544751341799,0.0],[-46.509158212287161,-22.910643021316272,0.0],[-46.509093986418492,-22.910631294413349,0.0],[-46.509030002929173,-22.91059914497929,0.0],[-46.508900222828629,-22.910554358450579,0.0],[-46.508863413061214,-22.910537876044319,0.0],[-46.508731716933191,-22.910504977678251,0.0],[-46.50860206867403,-22.910450410075359,0.0],[-46.50852767543801,-22.910372838586259,0.0],[-46.50841685645954,-22.910280251443531,0.0],[-46.508320926672312,-22.909970849931661,0.0],[-46.50829815623451,-22.909847719071891,0.0],[-46.508293786202671,-22.909669337160508,0.0],[-46.508351177314928,-22.909421361068599,0.0],[-46.508381503487513,-22.909215960847121,0.0],[-46.508434739633813,-22.90911994154018,0.0],[-46.508440943026443,-22.909048472225319,0.0],[-46.508390253264771,-22.908944534177301,0.0],[-46.508474101289153,-22.90879558925603,0.0],[-46.508541707919477,-22.90868710668321,0.0],[-46.508578035606057,-22.908536701097979,0.0]]]}}
]
}
