{
"type": "FeatureCollection",
"name": "Benedito - Salesopolis - Licitação Pref",
"crs": { "type": "name", "properties": { "name": "urn:ogc:def:crs:OGC:1.3:CRS84" } },
"xy_coordinate_resolution": 1e-15,
"features": [
{"type":"Feature","properties":{"Área (ha)":0.561,"Nome do Projeto":"Benedito - Licitação","Propriedade":"-","Tipo":"Restauração Ecológica","Ano de Implantação":"2016","Metodologia de Restauração":null,"Monitoramento":"-","Município":"Salesópolis","UGRHI":"05 -  Piracicaba, Capivari e Jundiaí","Região Hidrográfica":"Paraná","Status do Projeto":"Finalizado","Fotos do Projeto":null},"geometry":{"type":"Polygon","coordinates":[[[-45.782215443449971,-23.61092590780526,0.0],[-45.782212962965659,-23.610755075868209,0.0],[-45.782285075152089,-23.610465571902068,0.0],[-45.782338132567993,-23.610301952880668,0.0],[-45.782385418839169,-23.6101889823065,0.0],[-45.782329028754127,-23.610102075578158,0.0],[-45.78216368741456,-23.609901688413391,0.0],[-45.782099399439353,-23.609745761928,0.0],[-45.782034692263949,-23.609677709575429,0.0],[-45.78201359161266,-23.60962283572109,0.0],[-45.781998361157768,-23.60955396204514,0.0],[-45.782010879189883,-23.609358633876759,0.0],[-45.782032212957958,-23.609036316685941,0.0],[-45.782069921246773,-23.608995517952909,0.0],[-45.782126352725008,-23.608988727209859,0.0],[-45.782410586369508,-23.609114426995699,0.0],[-45.782477048281997,-23.60913558423243,0.0],[-45.782481562311048,-23.609181553933169,0.0],[-45.782268578843713,-23.609418559590878,0.0],[-45.78223217937601,-23.609543538598981,0.0],[-45.782246011528379,-23.609642176536401,0.0],[-45.78230148338114,-23.609713367294901,0.0],[-45.782687053108532,-23.61000561345973,0.0],[-45.782697280035528,-23.61003995721784,0.0],[-45.782493380122567,-23.610279586419029,0.0],[-45.782435517910884,-23.61061216970165,0.0],[-45.782448887991777,-23.610653090564401,0.0],[-45.782418008501637,-23.610701012142918,0.0],[-45.782357344751503,-23.61069633692285,0.0],[-45.782378273206987,-23.61088935075864,0.0],[-45.782345915860901,-23.610921783950349,0.0],[-45.782270978909018,-23.610929908809251,0.0],[-45.782215443449971,-23.61092590780526,0.0]]]}},
{"type":"Feature","properties":{"Área (ha)":0.226,"Nome do Projeto":"Benedito - Licitação","Propriedade":"-","Tipo":"Restauração Ecológica","Ano de Implantação":"2016","Metodologia de Restauração":null,"Monitoramento":"-","Município":"Salesópolis","UGRHI":"05 -  Piracicaba, Capivari e Jundiaí","Região Hidrográfica":"Paraná","Status do Projeto":"Finalizado","Fotos do Projeto":null},"geometry":{"type":"Polygon","coordinates":[[[-45.78157481094447,-23.611476861896801,0.0],[-45.78169032178328,-23.611345876875671,0.0],[-45.781879068504708,-23.611207382947331,0.0],[-45.782090693297803,-23.611095883501019,0.0],[-45.782222011369853,-23.611000442554211,0.0],[-45.782306967256041,-23.61097677812333,0.0],[-45.782321725535724,-23.611041850840142,0.0],[-45.782145934608543,-23.61142736589612,0.0],[-45.782097099701048,-23.611647908114371,0.0],[-45.782034927218923,-23.611852325915098,0.0],[-45.781969091226813,-23.61186188226284,0.0],[-45.781903206403591,-23.61180491569198,0.0],[-45.781985587924133,-23.611670702047949,0.0],[-45.782015515192057,-23.611554213362769,0.0],[-45.782016165750463,-23.61154116342831,0.0],[-45.782099767183681,-23.61123703890971,0.0],[-45.781764986174913,-23.61149185434806,0.0],[-45.781652441427383,-23.611582839968829,0.0],[-45.78157481094447,-23.611476861896801,0.0]]]}}
]
}
