{
"type": "FeatureCollection",
"name": "Boy - TNC - Salesópolis 2015",
"crs": { "type": "name", "properties": { "name": "urn:ogc:def:crs:OGC:1.3:CRS84" } },
"xy_coordinate_resolution": 1e-15,
"features": [
{"type":"Feature","properties":{"Área (ha)":1.018,"Nome do Projeto":"Boy TNC","Propriedade":"-","Tipo":"Recuperação Ambiental","Ano de Implantação":"2015","Metodologia de Restauração":null,"Monitoramento":"-","Município":"Salesópolis","UGRHI":"06 - Alto Tietê","Região Hidrográfica":"Paraná","Status do Projeto":"Finalizado","Fotos do Projeto":null},"geometry":{"type":"Polygon","coordinates":[[[-45.788525141761127,-23.528799207596411,0.0],[-45.788446070792418,-23.52898875089048,0.0],[-45.788602765279627,-23.528990100917859,0.0],[-45.788815257525357,-23.529082602265039,0.0],[-45.788913780367302,-23.528983212740069,0.0],[-45.788791907304287,-23.52888292042152,0.0],[-45.788848459826433,-23.528824425129969,0.0],[-45.789040406493903,-23.5288474569114,0.0],[-45.789188942967932,-23.528840523519531,0.0],[-45.789310221322992,-23.528862367505361,0.0],[-45.789468819317122,-23.528977947256291,0.0],[-45.789490966036247,-23.529038034103269,0.0],[-45.789279642136698,-23.529248087053841,0.0],[-45.788973301182558,-23.529554715293859,0.0],[-45.788806269714577,-23.529383579283589,0.0],[-45.788743825729263,-23.529256166203272,0.0],[-45.78856700351794,-23.529202212372869,0.0],[-45.788343909907979,-23.52914806323599,0.0],[-45.788293605482522,-23.52927955178879,0.0],[-45.788315141978977,-23.529452773325549,0.0],[-45.788361955065113,-23.52963760628991,0.0],[-45.788298092384657,-23.52975731985439,0.0],[-45.788329187110421,-23.52986281815804,0.0],[-45.788316642652902,-23.529928695811929,0.0],[-45.788260808987772,-23.52997230708079,0.0],[-45.788153515871159,-23.529985254687769,0.0],[-45.788115673329742,-23.529869730476751,0.0],[-45.788044458559128,-23.529713428368289,0.0],[-45.787938908832082,-23.529572137842951,0.0],[-45.788072140071137,-23.52929579826213,0.0],[-45.788137483079829,-23.529131814432521,0.0],[-45.788060529466406,-23.529081423287721,0.0],[-45.787917640167791,-23.529047911339351,0.0],[-45.78767499043267,-23.528947514077551,0.0],[-45.787773270650227,-23.528775687831931,0.0],[-45.78784095762304,-23.528707998791631,0.0],[-45.787880375414332,-23.528607321459159,0.0],[-45.78816076016993,-23.528706914212599,0.0],[-45.788525141761127,-23.528799207596411,0.0]]]}},
{"type":"Feature","properties":{"Área (ha)":0.455,"Nome do Projeto":"Boy TNC","Propriedade":"-","Tipo":"Recuperação Ambiental","Ano de Implantação":"2015","Metodologia de Restauração":null,"Monitoramento":"-","Município":"Salesópolis","UGRHI":"06 - Alto Tietê","Região Hidrográfica":"Paraná","Status do Projeto":"Finalizado","Fotos do Projeto":null},"geometry":{"type":"Polygon","coordinates":[[[-45.78890087523034,-23.530019728961879,0.0],[-45.788920790093499,-23.529987033297111,0.0],[-45.789038739439732,-23.530030640958429,0.0],[-45.789124694525093,-23.530025175966632,0.0],[-45.789045550884758,-23.52991950954943,0.0],[-45.789146178788798,-23.529837449030261,0.0],[-45.789566816683283,-23.530031897250161,0.0],[-45.790000139016207,-23.530178184520651,0.0],[-45.790158417169422,-23.53026705617205,0.0],[-45.790362756302088,-23.530221503295081,0.0],[-45.790567875557379,-23.53036193217272,0.0],[-45.790379086399923,-23.530528946487099,0.0],[-45.790132340523328,-23.530391859734561,0.0],[-45.790130443697237,-23.530391047652721,0.0],[-45.790012378730822,-23.530319007385401,0.0],[-45.789921954910618,-23.530261609909299,0.0],[-45.78985489099351,-23.530312806217399,0.0],[-45.789753841297397,-23.530587700792541,0.0],[-45.789658739408218,-23.530691580292441,0.0],[-45.789511842516077,-23.53026651592501,0.0],[-45.789493589603381,-23.530316767048529,0.0],[-45.789379910754121,-23.530230928986629,0.0],[-45.78890087523034,-23.530019728961879,0.0]]]}}
]
}
