{
"type": "FeatureCollection",
"name": "Cantinho do Bile - SABESP 2º Licitação",
"crs": { "type": "name", "properties": { "name": "urn:ogc:def:crs:OGC:1.3:CRS84" } },
"xy_coordinate_resolution": 1e-15,
"features": [
{"type":"Feature","properties":{"Área (ha)":0.5,"Nome do Projeto":"Cantinho do Bile - SABESP (2ª Licitação)","Propriedade":"-","Tipo":"Recuperação Ambiental","Ano de Implantação":"2016","Metodologia de Restauração":null,"Monitoramento":null,"Município":"Bragança Paulista","UGRHI":"05 -  Piracicaba, Capivari e Jundiaí","Região Hidrográfica":"Paraná","Status do Projeto":null,"Fotos do Projeto":null},"geometry":{"type":"Polygon","coordinates":[[[-46.516360395300083,-22.907079524990909,0.0],[-46.516434791465869,-22.907003432188262,0.0],[-46.516493936576524,-22.906899613525201,0.0],[-46.516664207966159,-22.90682702271242,0.0],[-46.516731396591631,-22.906804663488941,0.0],[-46.516802940954562,-22.90680222417102,0.0],[-46.516894019261777,-22.906834118348009,0.0],[-46.517049804858793,-22.906878601789469,0.0],[-46.517127992498509,-22.90691482389802,0.0],[-46.517185187955739,-22.907013122390829,0.0],[-46.517405648612787,-22.90703474065208,0.0],[-46.517491686730857,-22.90711231903795,0.0],[-46.517435725724077,-22.9071789985388,0.0],[-46.517318700001333,-22.90727144698543,0.0],[-46.517082165774987,-22.906980009314189,0.0],[-46.516954470650163,-22.907003423612089,0.0],[-46.51688338570154,-22.906984889482729,0.0],[-46.516746689826043,-22.90698666322271,0.0],[-46.516582581757007,-22.90700632568479,0.0],[-46.51640901040998,-22.907119511495981,0.0],[-46.516360395300083,-22.907079524990909,0.0]]]}},
{"type":"Feature","properties":{"Área (ha)":0.5,"Nome do Projeto":"Cantinho do Bile - SABESP (2ª Licitação)","Propriedade":"-","Tipo":"Recuperação Ambiental","Ano de Implantação":"2016","Metodologia de Restauração":null,"Monitoramento":null,"Município":"Bragança Paulista","UGRHI":"05 -  Piracicaba, Capivari e Jundiaí","Região Hidrográfica":"Paraná","Status do Projeto":null,"Fotos do Projeto":null},"geometry":{"type":"Polygon","coordinates":[[[-46.517486660857941,-22.907288588811031,0.0],[-46.517549427835547,-22.907401027204092,0.0],[-46.517625292696962,-22.907480684435299,0.0],[-46.517713325254952,-22.907583439947469,0.0],[-46.51780661855809,-22.907699456561271,0.0],[-46.517685144226583,-22.907795508605499,0.0],[-46.51736925531727,-22.907324759885078,0.0],[-46.517364870636712,-22.907306124335101,0.0],[-46.517513626880962,-22.90717070438442,0.0],[-46.517486660857941,-22.907288588811031,0.0]]]}},
{"type":"Feature","properties":{"Área (ha)":0.5,"Nome do Projeto":"Cantinho do Bile - SABESP (2ª Licitação)","Propriedade":"-","Tipo":"Recuperação Ambiental","Ano de Implantação":"2016","Metodologia de Restauração":null,"Monitoramento":null,"Município":"Bragança Paulista","UGRHI":"05 -  Piracicaba, Capivari e Jundiaí","Região Hidrográfica":"Paraná","Status do Projeto":null,"Fotos do Projeto":null},"geometry":{"type":"Polygon","coordinates":[[[-46.51780537485417,-22.90769555280627,0.0],[-46.517609409846841,-22.90745792608412,0.0],[-46.517550991536289,-22.907405195223301,0.0],[-46.51748857017602,-22.90728919709283,0.0],[-46.517510852133498,-22.907176060483259,0.0],[-46.517544149073373,-22.907224174324529,0.0],[-46.517597042246493,-22.907286134602149,0.0],[-46.51763029154435,-22.907350971785341,0.0],[-46.517663060486321,-22.907385557149791,0.0],[-46.517666549702952,-22.907387735271602,0.0],[-46.517686389335793,-22.907418645259771,0.0],[-46.51768884080839,-22.907444997902061,0.0],[-46.517734980214087,-22.90746883321755,0.0],[-46.517799176519937,-22.907525351983139,0.0],[-46.517805296692323,-22.907525537233841,0.0],[-46.51783415133297,-22.907555595894578,0.0],[-46.517854473940012,-22.90759422646364,0.0],[-46.517889023866552,-22.907630623894558,0.0],[-46.51780537485417,-22.90769555280627,0.0]]]}},
{"type":"Feature","properties":{"Área (ha)":0.5,"Nome do Projeto":"Cantinho do Bile - SABESP (2ª Licitação)","Propriedade":"-","Tipo":"Recuperação Ambiental","Ano de Implantação":"2016","Metodologia de Restauração":null,"Monitoramento":null,"Município":"Bragança Paulista","UGRHI":"05 -  Piracicaba, Capivari e Jundiaí","Região Hidrográfica":"Paraná","Status do Projeto":null,"Fotos do Projeto":null},"geometry":{"type":"Polygon","coordinates":[[[-46.516360458783197,-22.907077813067279,0.0],[-46.516278879879849,-22.907010234451281,0.0],[-46.516385586702668,-22.90688357112284,0.0],[-46.516436188725677,-22.906858576949581,0.0],[-46.516487382702479,-22.90684650800419,0.0],[-46.516635707116293,-22.906766814126328,0.0],[-46.516695611118827,-22.906752293515719,0.0],[-46.516748056106707,-22.906740452231059,0.0],[-46.516833011379383,-22.906749381093661,0.0],[-46.51688388897341,-22.906748459723271,0.0],[-46.516899336138962,-22.906801482824619,0.0],[-46.516925320772927,-22.906815521093129,0.0],[-46.51698353731696,-22.906769022023362,0.0],[-46.517069021120932,-22.90678533351149,0.0],[-46.517143197029917,-22.90682828543525,0.0],[-46.51724690248718,-22.906890913065599,0.0],[-46.517319098445959,-22.906960738522319,0.0],[-46.517373971850994,-22.907006803166588,0.0],[-46.517400153403401,-22.90703494752464,0.0],[-46.51718622044357,-22.907012714664148,0.0],[-46.517128822862666,-22.90691237291259,0.0],[-46.516984879438112,-22.90685248462626,0.0],[-46.516797799215119,-22.90680779977016,0.0],[-46.516753679348952,-22.90679995562024,0.0],[-46.516609545516097,-22.906852252145221,0.0],[-46.516490426636963,-22.906902261441111,0.0],[-46.516437794501861,-22.906998710644451,0.0],[-46.516360458783197,-22.907077813067279,0.0]]]}}
]
}
