{
"type": "FeatureCollection",
"name": "Cantareira I (4068)",
"crs": { "type": "name", "properties": { "name": "urn:ogc:def:crs:OGC:1.3:CRS84" } },
"xy_coordinate_resolution": 1e-15,
"features": [
{"type":"Feature","properties":{"Área (ha)":4.6251898309419452,"Nome do Projeto":"Cantareira I","Propriedade":"Rancho Alegre","Tipo":"Programa Nascentes","Ano de Implantação":"2020","Metodologia de Restauração":"","Monitoramento":"5 anos","Município":"Piracaia","UGRHI":"05 -  Piracicaba, Capivari e Jundiaí","Região Hidrográfica":"Paraná","Status do Projeto":"Em finalização","Fotos do Projeto":null},"geometry":{"type":"MultiPolygon","coordinates":[[[[-46.36129,-23.074318],[-46.361293,-23.074237],[-46.361321179447302,-23.0741517943319],[-46.361319825645701,-23.074101492951002],[-46.361348125536999,-23.074026051900798],[-46.361360081579903,-23.073937045847799],[-46.361365943218303,-23.073822438518501],[-46.361359730153502,-23.073600098098701],[-46.361327538818401,-23.073452246876698],[-46.361383117815699,-23.073406701996099],[-46.361416181706602,-23.0733272008268],[-46.361301,-23.073147],[-46.361253849853398,-23.072886916062501],[-46.361156365024797,-23.072641272894],[-46.361128872005999,-23.072429705116001],[-46.3610560624887,-23.072143557216499],[-46.361116827009297,-23.071825023147099],[-46.361185020708398,-23.071567402505998],[-46.361190703516698,-23.071518151501099],[-46.361211704292202,-23.071137708444098],[-46.361264,-23.070859],[-46.361236749882202,-23.0708156567154],[-46.361199128278997,-23.070777251727399],[-46.3611922680956,-23.0708268456459],[-46.3611275880614,-23.071033507303198],[-46.361046917872699,-23.0711373477858],[-46.361077316097401,-23.071259705514699],[-46.361079635588801,-23.071259957209801],[-46.361086830961902,-23.071332571909],[-46.361035373424201,-23.071512468692799],[-46.360990097726699,-23.071635809623899],[-46.360925505797901,-23.071751146639802],[-46.360909607022997,-23.071826304484599],[-46.360638523980697,-23.071861961400799],[-46.360617,-23.072039],[-46.360627,-23.072155],[-46.360705,-23.07226],[-46.360779,-23.072442],[-46.360797,-23.072607],[-46.360896,-23.072835],[-46.360973,-23.072947],[-46.360983211256901,-23.073033],[-46.360992,-23.073159],[-46.361024,-23.073247],[-46.361048,-23.073358],[-46.361071,-23.073559],[-46.361053119151798,-23.073978807549899],[-46.360937892462097,-23.0743754085149],[-46.360889305352302,-23.0745678722582],[-46.360869151971798,-23.074669242677501],[-46.361375813031898,-23.074804663606098],[-46.361355960275098,-23.074682067304298],[-46.361331,-23.074568],[-46.36129,-23.074318]]],[[[-46.3579680630504,-23.070421147795098],[-46.357845151073299,-23.070370378116198],[-46.357733890381702,-23.070378551723],[-46.357945400540103,-23.071199411373101],[-46.358120473125801,-23.071066530303501],[-46.3582126386152,-23.070943127092001],[-46.358176751538998,-23.070761293818499],[-46.3579680630504,-23.070421147795098]]],[[[-46.361059042334503,-23.070604276387002],[-46.360957583121603,-23.070538515786101],[-46.360874912651703,-23.070448329819001],[-46.360826061919603,-23.0703543861033],[-46.360862413619003,-23.0702690994239],[-46.360718,-23.070296],[-46.36078,-23.070532],[-46.360795,-23.070635],[-46.361147,-23.070726],[-46.361213,-23.070734],[-46.361362,-23.070736],[-46.361328037842298,-23.0705740244235],[-46.361234918792697,-23.070648457489],[-46.361170912381198,-23.070645916609799],[-46.361059042334503,-23.070604276387002]]],[[[-46.360797015872002,-23.069912773159299],[-46.360741761664102,-23.0700463041617],[-46.360885726139998,-23.070008418773298],[-46.360892346424301,-23.069937714292202],[-46.360797015872002,-23.069912773159299]]],[[[-46.358851,-23.069964],[-46.359101,-23.069783],[-46.359174,-23.06946],[-46.359159,-23.069165],[-46.359069943428103,-23.0691555317892],[-46.358951926231398,-23.069229563358601],[-46.358906328678202,-23.069348013785401],[-46.358943879604503,-23.0694911412449],[-46.3589921593667,-23.0696342685521],[-46.3588982820512,-23.069760121748299],[-46.358825708145801,-23.069818991831301],[-46.358768880063103,-23.069847405872601],[-46.358699798583999,-23.0698711685883],[-46.358466446399703,-23.0698909102389],[-46.3583208853453,-23.0699392779395],[-46.3582792114181,-23.0698833969916],[-46.358214318752303,-23.069811943618301],[-46.358050704002402,-23.0699032487693],[-46.357905864715804,-23.0700488433414],[-46.357755661010899,-23.070224050159901],[-46.357780974871801,-23.070287828527601],[-46.3579568062259,-23.070277337813501],[-46.358123251610799,-23.069996007875499],[-46.358754,-23.070027],[-46.358851,-23.069964]]],[[[-46.360795944929102,-23.0688581712412],[-46.360585391521496,-23.068938372283601],[-46.360464692115798,-23.068987726747501],[-46.360373497009299,-23.0689729204102],[-46.360225975513501,-23.0690099362503],[-46.360132098197901,-23.0690148716949],[-46.360051631927398,-23.069069161573299],[-46.3599711656572,-23.069091371062701],[-46.359893381595597,-23.0690790324579],[-46.359799504280097,-23.069091371062701],[-46.359662711620302,-23.069239434231701],[-46.3595902919769,-23.0693085303214],[-46.359564,-23.069352],[-46.35959,-23.069423],[-46.359763,-23.069361],[-46.360032,-23.069259],[-46.360462,-23.06911],[-46.360706,-23.069074],[-46.360791012668997,-23.069334058859699],[-46.360800092729299,-23.0695964726009],[-46.360881052550901,-23.0697556478435],[-46.360884248829002,-23.0695967040987],[-46.360879788905102,-23.069169464543599],[-46.360864727493599,-23.0688570897569],[-46.360795944929102,-23.0688581712412]]],[[[-46.352914187910997,-23.064813490053201],[-46.3529021548947,-23.0648501907529],[-46.3529056577514,-23.064984175020999],[-46.352822539869301,-23.065033155201501],[-46.352820097222903,-23.065039372847],[-46.352820097222903,-23.065081476627501],[-46.352746690291099,-23.0653016974229],[-46.352862054707202,-23.065360715996999],[-46.352867057560097,-23.065240647525499],[-46.353029208502001,-23.064869045227599],[-46.352914187910997,-23.064813490053201]]],[[[-46.352791814909203,-23.064380807957399],[-46.352850487758602,-23.064429847950901],[-46.352763054900798,-23.064557880527701],[-46.352806702050103,-23.064545004364401],[-46.352895218423399,-23.0645609871417],[-46.352879898035503,-23.064520916725801],[-46.3528997962228,-23.0643575571066],[-46.352777690029001,-23.064364226576298],[-46.352791814909203,-23.064380807957399]]],[[[-46.3526543277844,-23.064616375069299],[-46.352688450349198,-23.064598481529199],[-46.3526490734994,-23.064552447934801],[-46.352588649221602,-23.064520922224698],[-46.352578914656803,-23.0643891311937],[-46.352337753793698,-23.0644246795455],[-46.352243490382698,-23.064230557822501],[-46.352216095035402,-23.064204467014399],[-46.351983843116997,-23.063900562909499],[-46.351942439340803,-23.063888795520501],[-46.3516812334869,-23.063937036241299],[-46.351852128274302,-23.064190117071501],[-46.352219973555698,-23.0646995679155],[-46.352428393528299,-23.064633013638598],[-46.352556580069702,-23.0646049609065],[-46.352627490871598,-23.064641068860901],[-46.3526543277844,-23.064616375069299]],[[-46.352135213532897,-23.064505815838999],[-46.352090859160597,-23.064443197901699],[-46.352109122725601,-23.0643127438655],[-46.352075204676197,-23.064247516847399],[-46.352025632142499,-23.0642266442016],[-46.351942141559299,-23.06418489891],[-46.351903005348497,-23.064119671891898],[-46.351780378554501,-23.063970954290699],[-46.351767333150804,-23.063939645322002],[-46.351910832590598,-23.0639265999184],[-46.3519812777702,-23.063973563371398],[-46.352017804900299,-23.064023135905099],[-46.352036068465402,-23.064101408326898],[-46.352098686402698,-23.064156199022101],[-46.352148258936502,-23.064229253282299],[-46.352195222389497,-23.064276216735301],[-46.352229140438901,-23.064375361802799],[-46.352234358600398,-23.064435370659499],[-46.352304803779901,-23.064469288708899],[-46.352372639878702,-23.064490161354701],[-46.352419603331803,-23.064471897789598],[-46.3524978757535,-23.0644327615788],[-46.352538733513803,-23.0644657522319],[-46.352556247797303,-23.064547193649801],[-46.352432648735402,-23.064557997453502],[-46.352343939990803,-23.064607569987199],[-46.352311655051899,-23.064596808340902],[-46.352299663545203,-23.064611120784299],[-46.352244493552497,-23.064633013638598],[-46.352203334986498,-23.064610245070099],[-46.352222600698198,-23.0645752165033],[-46.352224364057498,-23.0645605218428],[-46.352135213532897,-23.064505815838999]]],[[[-46.351555548614797,-23.0636026194985],[-46.3515612157736,-23.0634804471146],[-46.351554430785903,-23.063406575942398],[-46.351387711905502,-23.0634439199845],[-46.351343357533203,-23.063447833605601],[-46.351254648788597,-23.063437397282701],[-46.351250735167497,-23.063680041790001],[-46.351280739595801,-23.063895290949699],[-46.351428152656702,-23.063867895602101],[-46.351576870258,-23.063835282093098],[-46.351574323627297,-23.063763467214301],[-46.351555548614797,-23.0636026194985]]],[[[-46.3513504141307,-23.061889187696899],[-46.350803900640699,-23.061243929897699],[-46.350359481947997,-23.061131985025],[-46.3505645469372,-23.061481891280199],[-46.350706741836603,-23.061685399576699],[-46.350929170868,-23.0619953625562],[-46.3510250496849,-23.062028493691901],[-46.351105931187298,-23.062029798232199],[-46.351192030851202,-23.062010230126798],[-46.351293784999399,-23.061956743972001],[-46.3513930206189,-23.061942731469099],[-46.3513504141307,-23.061889187696899]]],[[[-46.352121017854301,-22.988019845838402],[-46.3521700578479,-22.987927020136301],[-46.3522299437398,-22.987876295892001],[-46.352273987308898,-22.987787763869299],[-46.352301631552002,-22.9874133001472],[-46.352373317332003,-22.9868023289029],[-46.352377062438897,-22.986688553878899],[-46.352249747837398,-22.986770201716698],[-46.352143786422801,-22.986817490281901],[-46.352085989287502,-22.986801727426901],[-46.352021186438797,-22.986813987425201],[-46.351985282157798,-22.986813111711101],[-46.351907588824801,-22.9868643562499],[-46.351950639756502,-22.986887221122199],[-46.351906318093597,-22.986998293917601],[-46.351997423733998,-22.987043629726202],[-46.351987574475601,-22.987145635239798],[-46.351930941239601,-22.987215905660001],[-46.351871845689097,-22.987258974609201],[-46.351866921059901,-22.987326978185099],[-46.351852147172202,-22.987381381021201],[-46.351765966160997,-22.987342845681201],[-46.351650237374599,-22.987340578896202],[-46.351549818413297,-22.987290694837299],[-46.351526407932397,-22.987391958777899],[-46.351458977941199,-22.987527694474402],[-46.351303100818797,-22.987780775869801],[-46.351269832610498,-22.987815430253399],[-46.351181776008403,-22.987998988826],[-46.3516744036272,-22.9883175886564],[-46.351847088493301,-22.9884688978558],[-46.351888077884901,-22.988406473644801],[-46.351966454303202,-22.988276430090401],[-46.352067599289903,-22.988089027257899],[-46.352121017854301,-22.988019845838402]]],[[[-46.350375173211397,-22.985530159961002],[-46.350325512116598,-22.985654080278401],[-46.350049732880699,-22.985654080278401],[-46.350026888737901,-22.985637903061399],[-46.349877209861297,-22.985831376868699],[-46.350180235554802,-22.986136910663099],[-46.350246295339502,-22.986215693170099],[-46.350328007151496,-22.9861057427172],[-46.350424004700798,-22.985715284225499],[-46.350441804076603,-22.985552683070299],[-46.350375173211397,-22.985530159961002]]]]}}
]
}
