{
"type": "FeatureCollection",
"name": "Cond",
"crs": { "type": "name", "properties": { "name": "urn:ogc:def:crs:OGC:1.3:CRS84" } },
"xy_coordinate_resolution": 1e-15,
"features": [
{"type":"Feature","properties":{"Área (ha)":2.7227924552309268,"Nome do Projeto":null,"Propriedade":null,"Tipo":null,"Ano de Implantação":null,"Metodologia de Restauração":null,"Monitoramento":null,"Município":null,"UGRHI":null,"Região Hidrográfica":null,"Status do Projeto":null,"Fotos do Projeto":null},"geometry":{"type":"MultiPolygon","coordinates":[[[[-46.368749128520818,-22.963080710601758,0.0],[-46.36848427872291,-22.963300755091019,0.0],[-46.368551389102507,-22.962495395656671,0.0],[-46.368573222941791,-22.96233846838313,0.0],[-46.368787118972428,-22.962417299953142,0.0],[-46.368749128520818,-22.963080710601758,0.0]]],[[[-46.368772912511261,-22.96171206443908,0.0],[-46.369340921601292,-22.960962429387148,0.0],[-46.369554003434217,-22.960589261335109,0.0],[-46.369610411235087,-22.96035119960916,0.0],[-46.369800897025748,-22.959548687907109,0.0],[-46.369990926640497,-22.959637877377379,0.0],[-46.369821719539672,-22.96029005698545,0.0],[-46.369690630951077,-22.960606200801731,0.0],[-46.369556010069019,-22.96088396264464,0.0],[-46.369289508935623,-22.961262632785861,0.0],[-46.369037270220993,-22.961647862190912,0.0],[-46.368784734534472,-22.962030365850602,0.0],[-46.36862504916126,-22.961950263415659,0.0],[-46.368772912511261,-22.96171206443908,0.0]]],[[[-46.370220590959519,-22.963540153156771,0.0],[-46.370173648110871,-22.96340756242687,0.0],[-46.370172050705833,-22.962814993496629,0.0],[-46.370384835117413,-22.962878105800169,0.0],[-46.370747121015178,-22.962741119076991,0.0],[-46.371928995205288,-22.962316055743759,0.0],[-46.372110130329219,-22.96214436281576,0.0],[-46.372147475586928,-22.962128375782449,0.0],[-46.372270691987559,-22.962408483570151,0.0],[-46.372361088696557,-22.96236965424341,0.0],[-46.372410962274778,-22.96235532659222,0.0],[-46.372386888669652,-22.962267007129991,0.0],[-46.372903404154343,-22.962077583334231,0.0],[-46.373151955727153,-22.962507497398121,0.0],[-46.371454610149797,-22.963144913158882,0.0],[-46.370833878915683,-22.963354040972149,0.0],[-46.370220590959519,-22.963540153156771,0.0]]]]}}
]
}
