{
"type": "FeatureCollection",
"name": "Condominio Arco Iris - Atibaia - 2013",
"crs": { "type": "name", "properties": { "name": "urn:ogc:def:crs:OGC:1.3:CRS84" } },
"features": [
{"type":"Feature","properties":{"id":null,"Name":"Condominio Arco Iris - Atibaia - 2013","description":null,"timestamp":null,"begin":null,"end":null,"altitudeMode":null,"tessellate":1,"extrude":0,"visibility":-1,"drawOrder":null,"icon":null},"geometry":{"type":"Polygon","coordinates":[[[-46.541441475778861,-23.15003547373135,0.0],[-46.54137850814147,-23.15021400475716,0.0],[-46.541036196635311,-23.150091587480489,0.0],[-46.541112482071163,-23.14991817604778,0.0],[-46.541441475778861,-23.15003547373135,0.0]]]}}
]
}
