{
"type": "FeatureCollection",
"name": "Crippa Pinhalzinho - 2015",
"crs": { "type": "name", "properties": { "name": "urn:ogc:def:crs:OGC:1.3:CRS84" } },
"features": [
{"type":"Feature","properties":{"id":null,"Name":"Crippa Pinhalzinho p1","description":null,"timestamp":null,"begin":null,"end":null,"altitudeMode":null,"tessellate":1,"extrude":0,"visibility":-1,"drawOrder":null,"icon":null},"geometry":{"type":"Polygon","coordinates":[[[-46.551167259483911,-22.735778045085219,0.0],[-46.551404256772337,-22.73585172258263,0.0],[-46.551486170522949,-22.73592411654359,0.0],[-46.551549076658112,-22.736015277310379,0.0],[-46.551606258395601,-22.736109260122252,0.0],[-46.551656881805862,-22.736202784032209,0.0],[-46.551710625525473,-22.73631166155382,0.0],[-46.551801561895587,-22.736401305675621,0.0],[-46.551766882059802,-22.736499453251529,0.0],[-46.551828480406797,-22.73659233102935,0.0],[-46.551988878577383,-22.736712965165761,0.0],[-46.551981048662689,-22.736794668812141,0.0],[-46.551902749472347,-22.7368672597885,0.0],[-46.55184875370513,-22.736933472169731,0.0],[-46.551696703847639,-22.73685160956369,0.0],[-46.551419847325057,-22.736713989679419,0.0],[-46.551310934412207,-22.736661882521531,0.0],[-46.551243615376471,-22.736597481620969,0.0],[-46.551191724940693,-22.736538495093331,0.0],[-46.55110069602383,-22.736490065242009,0.0],[-46.551013017079683,-22.73632540768951,0.0],[-46.551086458960718,-22.736235697749049,0.0],[-46.550993059228567,-22.736107887890238,0.0],[-46.55096789074657,-22.735949230598688,0.0],[-46.551034894770588,-22.735730558388671,0.0],[-46.551167259483911,-22.735778045085219,0.0]]]}},
{"type":"Feature","properties":{"id":null,"Name":"Crippa Pinhalzinho p2","description":null,"timestamp":null,"begin":null,"end":null,"altitudeMode":null,"tessellate":1,"extrude":0,"visibility":-1,"drawOrder":null,"icon":null},"geometry":{"type":"Polygon","coordinates":[[[-46.548723736657657,-22.734593860642139,0.0],[-46.548605897402823,-22.7346768724145,0.0],[-46.548510098162623,-22.734791263944182,0.0],[-46.548416100386753,-22.734948416397831,0.0],[-46.548227645215597,-22.735225108375641,0.0],[-46.54811244459961,-22.735401887438051,0.0],[-46.548086709549871,-22.735503918813659,0.0],[-46.548094525884487,-22.735665730472149,0.0],[-46.548032385374022,-22.735684376628811,0.0],[-46.547926144453569,-22.735618473753512,0.0],[-46.547865699174352,-22.735561970287179,0.0],[-46.547771522936777,-22.735524365760199,0.0],[-46.547827229504342,-22.735308742194729,0.0],[-46.547946662801671,-22.734722776378359,0.0],[-46.548127767717219,-22.734611272454089,0.0],[-46.548306050489579,-22.734585962466909,0.0],[-46.548541122373422,-22.73451490505532,0.0],[-46.548692323671517,-22.734527059074608,0.0],[-46.548866294020421,-22.734545164581231,0.0],[-46.548912696674201,-22.734584816233479,0.0],[-46.548723736657657,-22.734593860642139,0.0]]]}}
]
}
