{
"type": "FeatureCollection",
"name": "Cummins TNC - DA SERRA",
"crs": { "type": "name", "properties": { "name": "urn:ogc:def:crs:OGC:1.3:CRS84" } },
"features": [
{"type":"Feature","properties":{"id":null,"Name":"Cummins TNC p3","description":null,"timestamp":null,"begin":null,"end":null,"altitudeMode":null,"tessellate":1,"extrude":0,"visibility":-1,"drawOrder":null,"icon":null},"geometry":{"type":"Polygon","coordinates":[[[-46.284613301707957,-22.900721787221659,0.0],[-46.284556754427207,-22.900824421735631,0.0],[-46.284517312686702,-22.90087153332825,0.0],[-46.28444431908818,-22.900924774203091,0.0],[-46.28439903236,-22.900972365110711,0.0],[-46.284347449824793,-22.90110668469443,0.0],[-46.284264170756032,-22.901029034900709,0.0],[-46.284420530362908,-22.900837629164251,0.0],[-46.284539645330661,-22.900674003517221,0.0],[-46.284613301707957,-22.900721787221659,0.0]]]}},
{"type":"Feature","properties":{"id":null,"Name":"Cummins TNC p2","description":null,"timestamp":null,"begin":null,"end":null,"altitudeMode":null,"tessellate":1,"extrude":0,"visibility":-1,"drawOrder":null,"icon":null},"geometry":{"type":"Polygon","coordinates":[[[-46.284271163448537,-22.90111422640102,0.0],[-46.284307383719053,-22.90117356276583,0.0],[-46.284252957207897,-22.901205075621871,0.0],[-46.284206887917499,-22.901210628695409,0.0],[-46.284191539210191,-22.901212318883271,0.0],[-46.284108424304698,-22.901279873761339,0.0],[-46.284084153716186,-22.901295508705019,0.0],[-46.284077925595703,-22.901324932443249,0.0],[-46.284091602370751,-22.901356306922811,0.0],[-46.284108398433837,-22.90140301267509,0.0],[-46.284063623714268,-22.901434836975021,0.0],[-46.284027297900103,-22.901427245530279,0.0],[-46.283968178086887,-22.901424574643219,0.0],[-46.2839232886056,-22.90139232169965,0.0],[-46.283849784776628,-22.90131348302268,0.0],[-46.284007785681908,-22.901298696951539,0.0],[-46.284083807266107,-22.90125683492542,0.0],[-46.28416882427269,-22.90118334087823,0.0],[-46.284271163448537,-22.90111422640102,0.0]]]}},
{"type":"Feature","properties":{"id":null,"Name":"Cummins TNC","description":null,"timestamp":null,"begin":null,"end":null,"altitudeMode":null,"tessellate":1,"extrude":0,"visibility":-1,"drawOrder":null,"icon":null},"geometry":{"type":"Polygon","coordinates":[[[-46.285005846900702,-22.901292219939631,0.0],[-46.284913659403891,-22.901418738567209,0.0],[-46.284699747879102,-22.90153471520523,0.0],[-46.284625561255822,-22.901532007638551,0.0],[-46.284466348029042,-22.901508904393509,0.0],[-46.283886562141028,-22.902038323169279,0.0],[-46.283800049618208,-22.902093127379121,0.0],[-46.283719444192357,-22.902163275282959,0.0],[-46.283625139529612,-22.90222740277931,0.0],[-46.283509971563888,-22.902307637626819,0.0],[-46.283430334897631,-22.90230184010753,0.0],[-46.283478246661893,-22.902217143601419,0.0],[-46.283485648308421,-22.902123224831641,0.0],[-46.283509570943522,-22.90200603305188,0.0],[-46.283554767975168,-22.901836747156061,0.0],[-46.283685428336121,-22.901738290857718,0.0],[-46.283777902461182,-22.901706345635091,0.0],[-46.283925254270912,-22.901671985464819,0.0],[-46.284047078161947,-22.901584215271569,0.0],[-46.284147261070679,-22.90155713633591,0.0],[-46.284190926780163,-22.90155090132377,0.0],[-46.284308638765417,-22.901483569792969,0.0],[-46.284352387891587,-22.9014773377579,0.0],[-46.28439548898762,-22.901459064177171,0.0],[-46.284508714110103,-22.901447528842141,0.0],[-46.284572092546711,-22.901434495650971,0.0],[-46.284621629188898,-22.901430798224641,0.0],[-46.284670094146954,-22.90141901743613,0.0],[-46.284712232838189,-22.901409882954919,0.0],[-46.284738158386062,-22.901397260784769,0.0],[-46.28480181619382,-22.901347860589809,0.0],[-46.284797048934252,-22.901308237500221,0.0],[-46.284861821494587,-22.901296321772421,0.0],[-46.284906165094981,-22.90130335535985,0.0],[-46.285005846900702,-22.901292219939631,0.0]]]}}
]
}
