{
"type": "FeatureCollection",
"name": "Curitibanos - SABESP 2º Licitação",
"crs": { "type": "name", "properties": { "name": "urn:ogc:def:crs:OGC:1.3:CRS84" } },
"xy_coordinate_resolution": 1e-15,
"features": [
{"type":"Feature","properties":{"Área (ha)":3.1,"Nome do Projeto":"Curitibanos - SABESP (2º Licitação)","Propriedade":"-","Tipo":"Recuperação Ambiental","Ano de Implantação":"2014","Metodologia de Restauração":null,"Monitoramento":null,"Município":"Bragança Paulista","UGRHI":"05 -  Piracicaba, Capivari e Jundiaí","Região Hidrográfica":"Paraná","Status do Projeto":null,"Fotos do Projeto":null},"geometry":{"type":"Polygon","coordinates":[[[-46.541432389911222,-22.905985321256392,0.0],[-46.541478259326823,-22.905867351040619,0.0],[-46.54160540770561,-22.905623362313019,0.0],[-46.541380175771486,-22.90558864965611,0.0],[-46.541149757554081,-22.905495641448219,0.0],[-46.541014658702203,-22.905384272218981,0.0],[-46.540806128869342,-22.905280880926519,0.0],[-46.540585035305973,-22.905249847378041,0.0],[-46.540407949488447,-22.905104702203019,0.0],[-46.540373181390017,-22.905027959111639,0.0],[-46.540257334105682,-22.905048475376709,0.0],[-46.540146185084907,-22.905071313899612,0.0],[-46.539980437755979,-22.90509000718064,0.0],[-46.539836709382833,-22.905083438485821,0.0],[-46.539699768502331,-22.905126813948861,0.0],[-46.539700875849157,-22.9051301894992,0.0],[-46.539763784164563,-22.905312514798361,0.0],[-46.539764952353082,-22.905400695714551,0.0],[-46.539593371157643,-22.905418513637748,0.0],[-46.539516138244593,-22.90536194994861,0.0],[-46.539428440209001,-22.905119801137179,0.0],[-46.539389429283091,-22.904808962900479,0.0],[-46.539676378361087,-22.904688101627851,0.0],[-46.540183270683549,-22.904781111012419,0.0],[-46.541712648199358,-22.905333301913171,0.0],[-46.541753690410879,-22.906121571592251,0.0],[-46.541797421753436,-22.90620396038393,0.0],[-46.540712229804512,-22.90630193287565,0.0],[-46.540425692933297,-22.906361223999969,0.0],[-46.540195435403227,-22.906309454722511,0.0],[-46.540051680395983,-22.90608160206035,0.0],[-46.539814446943844,-22.905871929707391,0.0],[-46.539646771742973,-22.905680535941869,0.0],[-46.539576424957033,-22.905497321192922,0.0],[-46.539657048630943,-22.905495180581671,0.0],[-46.539770308005522,-22.90564595460744,0.0],[-46.539902116295167,-22.905786713235731,0.0],[-46.539904152904533,-22.905793170979521,0.0],[-46.540115335090697,-22.905947128541481,0.0],[-46.540229216899178,-22.906166529221579,0.0],[-46.540342934667827,-22.906229683961421,0.0],[-46.540529304985142,-22.906129339396038,0.0],[-46.540698252174337,-22.906081701434569,0.0],[-46.541432389911222,-22.905985321256392,0.0]]]}},
{"type":"Feature","properties":{"Área (ha)":3.1,"Nome do Projeto":"Curitibanos - SABESP (2º Licitação)","Propriedade":"-","Tipo":"Recuperação Ambiental","Ano de Implantação":"2014","Metodologia de Restauração":null,"Monitoramento":null,"Município":"Bragança Paulista","UGRHI":"05 -  Piracicaba, Capivari e Jundiaí","Região Hidrográfica":"Paraná","Status do Projeto":null,"Fotos do Projeto":null},"geometry":{"type":"Polygon","coordinates":[[[-46.541424498894841,-22.905997567874469,0.0],[-46.54094450605718,-22.90604146789833,0.0],[-46.540549120152228,-22.90612068839954,0.0],[-46.540360272150991,-22.906225147499889,0.0],[-46.540249040791849,-22.90615790208242,0.0],[-46.540099835777042,-22.905933809802509,0.0],[-46.539911168667892,-22.905791348052279,0.0],[-46.539656000337281,-22.905491911523189,0.0],[-46.539584006349401,-22.90548482888132,0.0],[-46.539600575324442,-22.90541676684542,0.0],[-46.539793243975033,-22.90539346956314,0.0],[-46.539718680047613,-22.90513696517904,0.0],[-46.539836401687893,-22.905094425618639,0.0],[-46.540087329151127,-22.905090443460619,0.0],[-46.540375212838853,-22.90503470149039,0.0],[-46.540406944027367,-22.905101395844731,0.0],[-46.540598567552763,-22.905256914301471,0.0],[-46.540812573371667,-22.905289729933241,0.0],[-46.54100722072306,-22.905396567532609,0.0],[-46.541168036127942,-22.905518718538911,0.0],[-46.541374168159152,-22.905593690790379,0.0],[-46.541585180128983,-22.90563214491522,0.0],[-46.541424498894841,-22.905997567874469,0.0]]]}}
]
}
