{
"type": "FeatureCollection",
"name": "Eldorado - Joanópolis - 2020",
"crs": { "type": "name", "properties": { "name": "urn:ogc:def:crs:OGC:1.3:CRS84" } },
"features": [
{"type":"Feature","properties":{"id":null,"Name":"44644","description":null,"timestamp":null,"begin":null,"end":null,"altitudeMode":null,"tessellate":-1,"extrude":0,"visibility":-1,"drawOrder":null,"icon":null},"geometry":{"type":"Polygon","coordinates":[[[-46.3116769202258,-22.939894716185499,0.0],[-46.311193913606999,-22.9398330897783,0.0],[-46.31121707830939,-22.9396773509357,0.0],[-46.311288151328597,-22.9396763706572,0.0],[-46.311523433436399,-22.9396652598891,0.0],[-46.311840380020797,-22.9396861395747,0.0],[-46.3116769202258,-22.939894716185499,0.0]]]}},
{"type":"Feature","properties":{"id":null,"Name":"44645","description":null,"timestamp":null,"begin":null,"end":null,"altitudeMode":null,"tessellate":-1,"extrude":0,"visibility":-1,"drawOrder":null,"icon":null},"geometry":{"type":"Polygon","coordinates":[[[-46.309618303055601,-22.9394555676161,0.0],[-46.30844847023171,-22.939306290765501,0.0],[-46.308447942689099,-22.939260753154102,0.0],[-46.308499841010999,-22.9392003501479,0.0],[-46.308673463031703,-22.9392043243997,0.0],[-46.308779677855192,-22.939233795303501,0.0],[-46.308903013575801,-22.939247302299801,0.0],[-46.309011688986899,-22.9392690641698,0.0],[-46.309174808082197,-22.939292470225901,0.0],[-46.309330479154298,-22.939339975105199,0.0],[-46.309618303055601,-22.9394555676161,0.0]]]}},
{"type":"Feature","properties":{"id":null,"Name":"44647","description":null,"timestamp":null,"begin":null,"end":null,"altitudeMode":null,"tessellate":-1,"extrude":0,"visibility":-1,"drawOrder":null,"icon":null},"geometry":{"type":"Polygon","coordinates":[[[-46.308301830958101,-22.938548884075001,0.0],[-46.307906875786003,-22.938465314804098,0.0],[-46.307948843407203,-22.938389457172601,0.0],[-46.307998641555201,-22.938270967434299,0.0],[-46.307993008310802,-22.938195030411102,0.0],[-46.307974536806,-22.938156969509102,0.0],[-46.307857571561613,-22.9380124999076,0.0],[-46.307794434368503,-22.9378790590394,0.0],[-46.307555105535599,-22.937069555822699,0.0],[-46.307763106657497,-22.936809894738701,0.0],[-46.307775014558999,-22.936796433037401,0.0],[-46.307784320771503,-22.936835910877299,0.0],[-46.307830335664093,-22.9368474557456,0.0],[-46.308021182410499,-22.937639020846198,0.0],[-46.308301830958101,-22.938548884075001,0.0]]]}},
{"type":"Feature","properties":{"id":null,"Name":"44648","description":null,"timestamp":null,"begin":null,"end":null,"altitudeMode":null,"tessellate":-1,"extrude":0,"visibility":-1,"drawOrder":null,"icon":null},"geometry":{"type":"Polygon","coordinates":[[[-46.307915992444507,-22.939314075081001,0.0],[-46.307573766653299,-22.939259195872701,0.0],[-46.307639751674003,-22.939109654659699,0.0],[-46.307695116588299,-22.938943854229699,0.0],[-46.307839321988702,-22.9385874199521,0.0],[-46.307905040823002,-22.938468631548009,0.0],[-46.308302829422502,-22.938552800347601,0.0],[-46.30833918836219,-22.938695410703101,0.0],[-46.308319721398412,-22.938730788391101,0.0],[-46.308356638848203,-22.938772870991599,0.0],[-46.308416424109502,-22.938971233418599,0.0],[-46.308417465950797,-22.9390225853668,0.0],[-46.308356605825907,-22.939068052175902,0.0],[-46.308114532481497,-22.939157623397598,0.0],[-46.307915992444507,-22.939314075081001,0.0]]]}},
{"type":"Feature","properties":{"id":null,"Name":"44649","description":null,"timestamp":null,"begin":null,"end":null,"altitudeMode":null,"tessellate":-1,"extrude":0,"visibility":-1,"drawOrder":null,"icon":null},"geometry":{"type":"Polygon","coordinates":[[[-46.305881607391797,-22.943591734888599,0.0],[-46.305515443946298,-22.943553929810601,0.0],[-46.305561022424691,-22.943553551210009,0.0],[-46.305685468208303,-22.943538106502299,0.0],[-46.305763452319802,-22.9435326299749,0.0],[-46.30591372899589,-22.943468795790199,0.0],[-46.306017107843601,-22.943395702503999,0.0],[-46.306187413188802,-22.943293342630199,0.0],[-46.306264828879499,-22.943210664922699,0.0],[-46.306336721068803,-22.943123459396698,0.0],[-46.306438731785107,-22.9429497899905,0.0],[-46.306510967119202,-22.942891270025399,0.0],[-46.306546932256794,-22.942832834145801,0.0],[-46.306673811821199,-22.942716735854201,0.0],[-46.306668456999809,-22.942590422891001,0.0],[-46.306808163275313,-22.9424135774976,0.0],[-46.307012150176007,-22.942175586056401,0.0],[-46.307011264691297,-22.941817462553601,0.0],[-46.307041515025396,-22.941538517508398,0.0],[-46.307061648550103,-22.941405282838701,0.0],[-46.307362827120897,-22.941424977314298,0.0],[-46.307360600933102,-22.941451634475001,0.0],[-46.307316815315403,-22.941517621609599,0.0],[-46.307200397535098,-22.9415798164694,0.0],[-46.307288101520001,-22.941720635591999,0.0],[-46.30714978309291,-22.941794530470599,0.0],[-46.307079601883601,-22.942532256218399,0.0],[-46.306664331683699,-22.94309764043,0.0],[-46.305881607391797,-22.943591734888599,0.0]]]}},
{"type":"Feature","properties":{"id":null,"Name":"45025","description":null,"timestamp":null,"begin":null,"end":null,"altitudeMode":null,"tessellate":-1,"extrude":0,"visibility":-1,"drawOrder":null,"icon":null},"geometry":{"type":"Polygon","coordinates":[[[-46.315653216853697,-22.941097994302901,0.0],[-46.315621030345497,-22.9410535331704,0.0],[-46.315808784976497,-22.940984371379599,0.0],[-46.315894615665002,-22.940915209553498,0.0],[-46.316028726115803,-22.9408608680939,0.0],[-46.316055548205902,-22.9409102694217,0.0],[-46.31596435309941,-22.940954730601302,0.0],[-46.315814149394591,-22.941023892407198,0.0],[-46.315653216853697,-22.941097994302901,0.0]]]}},
{"type":"Feature","properties":{"id":null,"Name":"45026","description":null,"timestamp":null,"begin":null,"end":null,"altitudeMode":null,"tessellate":-1,"extrude":0,"visibility":-1,"drawOrder":null,"icon":null},"geometry":{"type":"Polygon","coordinates":[[[-46.315261614337508,-22.9414586229496,0.0],[-46.315240156665404,-22.9413944014801,0.0],[-46.315427911296403,-22.941315359629701,0.0],[-46.315449368968501,-22.941384521251301,0.0],[-46.315261614337508,-22.9414586229496,0.0]]]}}
]
}
