{
"type": "FeatureCollection",
"name": "Fabrica de Blocos - Piracaia - 2012",
"crs": { "type": "name", "properties": { "name": "urn:ogc:def:crs:OGC:1.3:CRS84" } },
"features": [
{"type":"Feature","properties":{"id":null,"Name":"Fabrica de Blocos - Piracaia - 2012","description":null,"timestamp":null,"begin":null,"end":null,"altitudeMode":null,"tessellate":1,"extrude":0,"visibility":-1,"drawOrder":null,"icon":null},"geometry":{"type":"Polygon","coordinates":[[[-46.3543971098497,-23.05249447333572,0.0],[-46.35443508696072,-23.05251823545499,0.0],[-46.354395427270497,-23.052535230015721,0.0],[-46.354389544228731,-23.052581453519391,0.0],[-46.354339105209839,-23.0526089803788,0.0],[-46.354334196726469,-23.052592095345808,0.0],[-46.354333719046593,-23.052543335344819,0.0],[-46.354355648294558,-23.052515713217279,0.0],[-46.3543971098497,-23.05249447333572,0.0]]]}}
]
}
