{
"type": "FeatureCollection",
"name": "Faja Rodeio 2",
"crs": { "type": "name", "properties": { "name": "urn:ogc:def:crs:OGC:1.3:CRS84" } },
"xy_coordinate_resolution": 1e-15,
"features": [
{"type":"Feature","properties":{"Área (ha)":4.069,"Nome do Projeto":"Faja - Rodeio I","Propriedade":"Rodeio I - Faja","Tipo":"Restauração Ecológica","Ano de Implantação":"2022","Metodologia de Restauração":null,"Monitoramento":"-","Município":"Cajamar","UGRHI":"06 - Alto Tietê","Região Hidrográfica":"Paraná","Status do Projeto":"Finalizado","Fotos do Projeto":null},"geometry":{"type":"Polygon","coordinates":[[[-46.908329587488929,-23.344124487611111,0.0],[-46.908854547609643,-23.344147480673598,0.0],[-46.909200555578742,-23.344664273498282,0.0],[-46.909365474992747,-23.344735276382821,0.0],[-46.909440784027503,-23.344900479855799,0.0],[-46.908915593475527,-23.345213531198329,0.0],[-46.908305483905202,-23.345670409288999,0.0],[-46.907657626548257,-23.346236650538469,0.0],[-46.907294056672292,-23.346187785468711,0.0],[-46.90686817237011,-23.34594704324083,0.0],[-46.906450766645627,-23.345918865954769,0.0],[-46.906504615849613,-23.345774770887299,0.0],[-46.906943626038277,-23.34513675878372,0.0],[-46.90710860199674,-23.344846894678319,0.0],[-46.907339679075328,-23.34456637518073,0.0],[-46.907524132426232,-23.344366281505511,0.0],[-46.907796530862633,-23.34393921040472,0.0],[-46.908329587488929,-23.344124487611111,0.0]]]}}
]
}
