{
"type": "FeatureCollection",
"name": "Faja Rodeio 1",
"crs": { "type": "name", "properties": { "name": "urn:ogc:def:crs:OGC:1.3:CRS84" } },
"features": [
{"type":"Feature","properties":{"id":null,"Name":"Polígono sem título","description":null,"timestamp":null,"begin":null,"end":null,"altitudeMode":null,"tessellate":1,"extrude":0,"visibility":-1,"drawOrder":null,"icon":null},"geometry":{"type":"Polygon","coordinates":[[[-46.919118100634932,-23.341845179369869,0.0],[-46.91932345262007,-23.342133385654751,0.0],[-46.919761424528403,-23.342640139034991,0.0],[-46.919918585292351,-23.342818628294349,0.0],[-46.919841061338609,-23.343124368963782,0.0],[-46.919838084275348,-23.343323034399141,0.0],[-46.919836867242758,-23.343331447614581,0.0],[-46.919798749984658,-23.343488425902951,0.0],[-46.91945546286243,-23.343909497195789,0.0],[-46.919244040262662,-23.344044006302379,0.0],[-46.919019709872877,-23.344195719233451,0.0],[-46.918786496207723,-23.344355634835289,0.0],[-46.918545673525912,-23.344548795055498,0.0],[-46.918348416477542,-23.344624857532949,0.0],[-46.918154822690177,-23.344961481855162,0.0],[-46.91785339780845,-23.344680089425399,0.0],[-46.917588871726139,-23.344430620521511,0.0],[-46.917388618482413,-23.344267867909721,0.0],[-46.917180367740293,-23.344064750133931,0.0],[-46.917343080519927,-23.34386685405326,0.0],[-46.917536735735098,-23.343721140102861,0.0],[-46.917542324205229,-23.343718019359471,0.0],[-46.917780817268373,-23.3435307346519,0.0],[-46.917439081470867,-23.343455795193261,0.0],[-46.917447635638823,-23.343345495710171,0.0],[-46.917189892888253,-23.34327087012753,0.0],[-46.916984024751237,-23.34351058994595,0.0],[-46.916823663894249,-23.3436790605585,0.0],[-46.916518537983691,-23.343415401487569,0.0],[-46.916392996955203,-23.343287714878151,0.0],[-46.916283201197423,-23.343204996491259,0.0],[-46.916139796906613,-23.343117160507621,0.0],[-46.915925471750732,-23.34297833799026,0.0],[-46.915891958371851,-23.342924627712151,0.0],[-46.916035472060578,-23.342807998623051,0.0],[-46.91626972542592,-23.342896996567941,0.0],[-46.916615801583092,-23.34290147387366,0.0],[-46.916811486876362,-23.342900089306688,0.0],[-46.916821979991987,-23.34289432189329,0.0],[-46.917138731490553,-23.342746090117981,0.0],[-46.917339792942251,-23.342716622839369,0.0],[-46.917506652780538,-23.34270274344621,0.0],[-46.91760981213298,-23.342560234520629,0.0],[-46.917678231656993,-23.34248207416573,0.0],[-46.91778593813757,-23.34243862733344,0.0],[-46.91811588566037,-23.342549397793221,0.0],[-46.918350358491651,-23.342623280256099,0.0],[-46.918436968597241,-23.3426465781418,0.0],[-46.918773283133952,-23.342205514820471,0.0],[-46.918871281567313,-23.342075556673361,0.0],[-46.919118100634932,-23.341845179369869,0.0]]]}}
]
}
