{
"type": "FeatureCollection",
"name": "Faja - SP Perus - 2022",
"crs": { "type": "name", "properties": { "name": "urn:ogc:def:crs:OGC:1.3:CRS84" } },
"xy_coordinate_resolution": 1e-15,
"features": [
{"type":"Feature","properties":{"Área (ha)":1.9447654790761997,"Nome do Projeto":null,"Propriedade":null,"Tipo":null,"Ano de Implantação":null,"Metodologia de Restauração":null,"Monitoramento":null,"Município":null,"UGRHI":null,"Região Hidrográfica":null,"Status do Projeto":null,"Fotos do Projeto":null},"geometry":{"type":"Polygon","coordinates":[[[-46.758407838744503,-23.398864439411799,0.0],[-46.758432643331709,-23.398985820951001,0.0],[-46.7586749763245,-23.399150121547802,0.0],[-46.758819157662998,-23.399118059160099,0.0],[-46.758854813743902,-23.399064583603,0.0],[-46.758863629812403,-23.398963799437599,0.0],[-46.759112294254798,-23.399095246928301,0.0],[-46.7592723645066,-23.398921734173999,0.0],[-46.759402243363098,-23.398767293278599,0.0],[-46.759484113032997,-23.398563440646601,0.0],[-46.759451446668699,-23.3983952197473,0.0],[-46.7597539328994,-23.398248201117099,0.0],[-46.759935694763897,-23.397924586880109,0.0],[-46.759843471954298,-23.397856941197201,0.0],[-46.759607967310998,-23.397953253548799,0.0],[-46.759458745097099,-23.397923713593599,0.0],[-46.75951285662871,-23.3976670992582,0.0],[-46.759971780990497,-23.397583881088199,0.0],[-46.760077612208498,-23.397401612423799,0.0],[-46.76007653919941,-23.397320452179201,0.0],[-46.759956352750507,-23.397184437203901,0.0],[-46.7597530190884,-23.397155506881401,0.0],[-46.75950856497321,-23.3970864530997,0.0],[-46.759533352009001,-23.396914463279199,0.0],[-46.759396770596197,-23.396854342242602,0.0],[-46.758407838744503,-23.398864439411799,0.0]]]}}
]
}
