{
"type": "FeatureCollection",
"name": "Fase_II_IZ - SOS - Nova Odessa",
"crs": { "type": "name", "properties": { "name": "urn:ogc:def:crs:OGC:1.3:CRS84" } },
"xy_coordinate_resolution": 1e-15,
"features": [
{"type":"Feature","properties":{"Área (ha)":8.788,"Nome do Projeto":"IZ - SOS (1)","Propriedade":"-","Tipo":"Restauração Ecológica","Ano de Implantação":"2019","Metodologia de Restauração":null,"Monitoramento":null,"Município":"Nova Odessa","UGRHI":"05 -  Piracicaba, Capivari e Jundiaí","Região Hidrográfica":"Paraná","Status do Projeto":null,"Fotos do Projeto":null},"geometry":{"type":"MultiPolygon","coordinates":[[[[-47.287084996432,-22.759124031609399,0.0],[-47.28714360961191,-22.7591901060634,0.0],[-47.287251169624497,-22.7592745389755,0.0],[-47.287266811236996,-22.759348333574,0.0],[-47.287289044757102,-22.759453227554001,0.0],[-47.287726381364998,-22.759334643276699,0.0],[-47.287725024051902,-22.759278494386798,0.0],[-47.28772159516739,-22.7591366487909,0.0],[-47.287726725802798,-22.758990590447102,0.0],[-47.287730918807597,-22.758871224542101,0.0],[-47.287740967072303,-22.758781928965998,0.0],[-47.287747806342907,-22.758721150609801,0.0],[-47.287769531340601,-22.758528087469099,0.0],[-47.287818268681399,-22.758438081553599,0.0],[-47.2878819717113,-22.758320437680599,0.0],[-47.287845623191707,-22.7579722461975,0.0],[-47.287656051234713,-22.757306479073598,0.0],[-47.288658006345102,-22.756442542730401,0.0],[-47.2883526553872,-22.756072561938499,0.0],[-47.288249219797599,-22.755947232796,0.0],[-47.288150827613698,-22.7558280142689,0.0],[-47.288146741012312,-22.755823062664099,0.0],[-47.288011910770301,-22.755659692872499,0.0],[-47.2874715724301,-22.755738518011501,0.0],[-47.287228377118602,-22.7557824867086,0.0],[-47.286932432242608,-22.7558179771301,0.0],[-47.286508267984701,-22.7558436321345,0.0],[-47.286050989200298,-22.755842015071799,0.0],[-47.2858367596737,-22.755809418516709,0.0],[-47.285619160981398,-22.755788829237702,0.0],[-47.285444282870408,-22.755775529719401,0.0],[-47.285307734923492,-22.755761681259099,0.0],[-47.285179967757898,-22.7557635103813,0.0],[-47.285001422371401,-22.755785820532701,0.0],[-47.284925024968999,-22.755802717514602,0.0],[-47.284789463188297,-22.755840320833499,0.0],[-47.284565830745102,-22.7558886191621,0.0],[-47.284493578350109,-22.7559606415888,0.0],[-47.284392611695303,-22.756273977361701,0.0],[-47.284266584589503,-22.756665082918499,0.0],[-47.284094164539702,-22.757200158551498,0.0],[-47.284476063472702,-22.756966392230598,0.0],[-47.284586692446901,-22.756673667733299,0.0],[-47.284616791606403,-22.756594025093801,0.0],[-47.284843625442903,-22.756311558396099,0.0],[-47.28512541127391,-22.755960660343,0.0],[-47.285302504230387,-22.7559592986774,0.0],[-47.2853922700941,-22.755977767769402,0.0],[-47.285460412680202,-22.755976792150999,0.0],[-47.2855238361077,-22.755948228120701,0.0],[-47.285578610187002,-22.755911886210299,0.0],[-47.285604163641693,-22.755911520327999,0.0],[-47.285676499340298,-22.755906533730801,0.0],[-47.285821302227497,-22.755904460255401,0.0],[-47.285937362838503,-22.755936133997,0.0],[-47.285982630612303,-22.7559643208231,0.0],[-47.285962995260398,-22.756038330481601,0.0],[-47.285884709040602,-22.756115045645409,0.0],[-47.285893253200697,-22.756265506354701,0.0],[-47.285915050959296,-22.7564506581705,0.0],[-47.285996209086697,-22.756707042093591,0.0],[-47.286097519002297,-22.7570451024859,0.0],[-47.286571670805799,-22.757007664285702,0.0],[-47.286887734692591,-22.757138616427401,0.0],[-47.287083899075697,-22.757492310035701,0.0],[-47.287396270535098,-22.757843489821099,0.0],[-47.28755013557921,-22.758351318901401,0.0],[-47.287529029858497,-22.758439455868999,0.0],[-47.287519891460498,-22.758477617592899,0.0],[-47.287403657063798,-22.758602263163201,0.0],[-47.287239838596399,-22.758592813388599,0.0],[-47.287065669550699,-22.758707218526499,0.0],[-47.287062508578799,-22.758773521630701,0.0],[-47.287054045393603,-22.758951041534299,0.0],[-47.287055753939399,-22.7589885184384,0.0],[-47.287060682332701,-22.759096622374599,0.0],[-47.287084996432,-22.759124031609399,0.0]]],[[[-47.289438300583093,-22.760577134826601,0.0],[-47.28970567251811,-22.760389764525701,0.0],[-47.289727661482488,-22.7602296613479,0.0],[-47.289652520202701,-22.760190912856,0.0],[-47.289311231629199,-22.760151117752201,0.0],[-47.289254393527401,-22.760083529227401,0.0],[-47.289225977564797,-22.760049738602401,0.0],[-47.2892012428632,-22.759908115089601,0.0],[-47.289123065109898,-22.759724285120399,0.0],[-47.288425812372502,-22.760031365677701,0.0],[-47.2882864705619,-22.760054333756401,0.0],[-47.288215651236101,-22.760042574023,0.0],[-47.288142302682999,-22.760030394268991,0.0],[-47.287919632076608,-22.759951112326199,0.0],[-47.287777667385512,-22.7598556510153,0.0],[-47.287276853473301,-22.759972520238101,0.0],[-47.2872315578647,-22.760561454963302,0.0],[-47.287093832050601,-22.760781963183199,0.0],[-47.286966820804203,-22.760983659255601,0.0],[-47.2869720438743,-22.761057474463001,0.0],[-47.286980357346302,-22.7611749645983,0.0],[-47.287023393317497,-22.761220136976998,0.0],[-47.287264655710899,-22.761473375387599,0.0],[-47.287708573255891,-22.7613583449054,0.0],[-47.288090479563003,-22.7611914411257,0.0],[-47.288313808663197,-22.761092778094699,0.0],[-47.288576432158109,-22.7609767548999,0.0],[-47.2886510423657,-22.760946457127201,0.0],[-47.288919651587896,-22.760826787145799,0.0],[-47.289170317990902,-22.760715110419099,0.0],[-47.289365498291303,-22.760628153437899,0.0],[-47.289438300583093,-22.760577134826601,0.0]]],[[[-47.289548954471996,-22.755176521270101,0.0],[-47.28962727982249,-22.7551735875311,0.0],[-47.289535811343001,-22.7549853721892,0.0],[-47.289321037386998,-22.7549380457349,0.0],[-47.289142725083401,-22.755106562172301,0.0],[-47.289548954471996,-22.755176521270101,0.0]]]]}}
]
}
