{
"type": "FeatureCollection",
"name": "Fase_I_IZ - SOS - Nova Odessa_corrigido",
"crs": { "type": "name", "properties": { "name": "urn:ogc:def:crs:OGC:1.3:CRS84" } },
"xy_coordinate_resolution": 1e-15,
"features": [
{"type":"Feature","properties":{"Área (ha)":1.726,"Nome do Projeto":"IZ - SOS (1)","Propriedade":"-","Tipo":"Restauração Ecológica","Ano de Implantação":"2019","Metodologia de Restauração":null,"Monitoramento":"-","Município":"Nova Odessa","UGRHI":"05 -  Piracicaba, Capivari e Jundiaí","Região Hidrográfica":"Paraná","Status do Projeto":"Finalizado","Fotos do Projeto":null},"geometry":{"type":"Polygon","coordinates":[[[-47.28408134894034,-22.757251522912131,0.0],[-47.284588239350683,-22.756894875079919,0.0],[-47.284769165766797,-22.757011518983401,0.0],[-47.284884792413791,-22.75711574068071,0.0],[-47.285058284835031,-22.75706768007387,0.0],[-47.285209198792153,-22.756830340427779,0.0],[-47.285196981554819,-22.75651388862978,0.0],[-47.285360534897279,-22.756627839738371,0.0],[-47.285362976914357,-22.756729247158841,0.0],[-47.285360920037711,-22.756838413799699,0.0],[-47.285375120658443,-22.757003487529339,0.0],[-47.285448873266738,-22.757207657391529,0.0],[-47.285516790806867,-22.757259495205641,0.0],[-47.28536221249086,-22.7576790942448,0.0],[-47.285170921337937,-22.757855582977211,0.0],[-47.285022514008617,-22.758085514645469,0.0],[-47.284099225739197,-22.758383119160911,0.0],[-47.28408134894034,-22.757251522912131,0.0]]]}},
{"type":"Feature","properties":{"Área (ha)":11.821,"Nome do Projeto":"IZ - SOS (1)","Propriedade":"-","Tipo":"Restauração Ecológica","Ano de Implantação":"2019","Metodologia de Restauração":null,"Monitoramento":"-","Município":"Nova Odessa","UGRHI":"05 -  Piracicaba, Capivari e Jundiaí","Região Hidrográfica":"Paraná","Status do Projeto":"Finalizado","Fotos do Projeto":null},"geometry":{"type":"Polygon","coordinates":[[[-47.284299727405262,-22.763137513807681,0.0],[-47.283454535364612,-22.761808901686219,0.0],[-47.282654738878307,-22.76037119599809,0.0],[-47.282615040136683,-22.759884736655689,0.0],[-47.284106889316263,-22.7597069109008,0.0],[-47.284123911564883,-22.759105374621921,0.0],[-47.284435893297989,-22.759084453337479,0.0],[-47.284498289270907,-22.759136761163269,0.0],[-47.284662787246759,-22.759382607280561,0.0],[-47.284793251813532,-22.75951337629213,0.0],[-47.285014475259352,-22.75968076023668,0.0],[-47.285241372241742,-22.759706913609861,0.0],[-47.285354820750143,-22.75981152820107,0.0],[-47.285490959250033,-22.76004168037862,0.0],[-47.285593063553009,-22.760245678816599,0.0],[-47.285717858650941,-22.760522907467951,0.0],[-47.285746224845177,-22.760687089305751,0.0],[-47.285785932306979,-22.760833550400179,0.0],[-47.285842657356703,-22.760969549766632,0.0],[-47.285933417824673,-22.761063702681319,0.0],[-47.286092248676653,-22.761011393749421,0.0],[-47.286273770437731,-22.761131699519979,0.0],[-47.286392894727761,-22.761246774984279,0.0],[-47.286398567012441,-22.76121015961203,0.0],[-47.286563071798383,-22.761220619292459,0.0],[-47.28679564952045,-22.76137230869438,0.0],[-47.286909103070059,-22.76151353803829,0.0],[-47.287056593460044,-22.761686151679498,0.0],[-47.287056595866588,-22.761879690323202,0.0],[-47.287090633967694,-22.762015690087338,0.0],[-47.286971509609877,-22.762130768276471,0.0],[-47.286755950972449,-22.762292923843859,0.0],[-47.286568754750817,-22.762355694203041,0.0],[-47.286398576975472,-22.762444617949981,0.0],[-47.286205709548177,-22.762559695317542,0.0],[-47.286024187692618,-22.762716618397089,0.0],[-47.285888046896318,-22.762889233486479,0.0],[-47.285734887139483,-22.76293631032128,0.0],[-47.285553364457357,-22.762962463843351,0.0],[-47.285292426385112,-22.763108924470458,0.0],[-47.284957745130299,-22.763564000307209,0.0],[-47.284668442260603,-22.763702438163339,0.0],[-47.284299727405262,-22.763137513807681,0.0]]]}}
]
}
