{
"type": "FeatureCollection",
"name": "Faz_Boa_Esperanca - SOS - São Pedro",
"crs": { "type": "name", "properties": { "name": "urn:ogc:def:crs:OGC:1.3:CRS84" } },
"xy_coordinate_resolution": 1e-15,
"features": [
{"type":"Feature","properties":{"Área (ha)":0.137,"Nome do Projeto":"Fazenda Boa Esperanca - SOS","Propriedade":"-","Tipo":"Restauração Ecológica","Ano de Implantação":"2021","Metodologia de Restauração":null,"Monitoramento":"-","Município":"São Pedro","UGRHI":"05 -  Piracicaba, Capivari e Jundiaí","Região Hidrográfica":"Paraná","Status do Projeto":"Finalizado","Fotos do Projeto":null},"geometry":{"type":"Polygon","coordinates":[[[-47.828789657756907,-22.620386620667201,0.0],[-47.828612288052298,-22.620391444966199,0.0],[-47.828616733999901,-22.620419472999899,0.0],[-47.828616743999902,-22.62054087,0.0],[-47.828613284283897,-22.620636900928101,0.0],[-47.828610495999897,-22.6207142949999,0.0],[-47.828611019404008,-22.6207226900287,0.0],[-47.828612430698399,-22.6207268016169,0.0],[-47.82861405811451,-22.620732541153899,0.0],[-47.828633062245999,-22.620829727849401,0.0],[-47.828634356778601,-22.620841181507291,0.0],[-47.828636807915899,-22.620934960792098,0.0],[-47.828636728193501,-22.620940887663,0.0],[-47.828632165480798,-22.621049404826401,0.0],[-47.828621291600598,-22.621146124997502,0.0],[-47.828619130018602,-22.621157800525602,0.0],[-47.828603524905013,-22.6212195938894,0.0],[-47.828762730862003,-22.621222109474999,0.0],[-47.828764787463598,-22.6211287243068,0.0],[-47.828748251999812,-22.621045745999801,0.0],[-47.828727947999802,-22.620944049999899,0.0],[-47.828736637999803,-22.620858409999901,0.0],[-47.828761200999807,-22.620754857999799,0.0],[-47.828784110999898,-22.620700802999899,0.0],[-47.828799373999892,-22.6205480419999,0.0],[-47.8287942689999,-22.620402332,0.0],[-47.828789657756907,-22.620386620667201,0.0]]]}},
{"type":"Feature","properties":{"Área (ha)":0.129,"Nome do Projeto":"Fazenda Boa Esperanca - SOS","Propriedade":"-","Tipo":"Restauração Ecológica","Ano de Implantação":"2021","Metodologia de Restauração":null,"Monitoramento":"-","Município":"São Pedro","UGRHI":"05 -  Piracicaba, Capivari e Jundiaí","Região Hidrográfica":"Paraná","Status do Projeto":"Finalizado","Fotos do Projeto":null},"geometry":{"type":"Polygon","coordinates":[[[-47.828413411169997,-22.619868658476701,0.0],[-47.828479706499998,-22.619981932168901,0.0],[-47.828541156215699,-22.620156377396999,0.0],[-47.828572881999897,-22.620254721999899,0.0],[-47.828597935999802,-22.6203009669998,0.0],[-47.828612288052298,-22.620391444966199,0.0],[-47.828789657756907,-22.620386620667201,0.0],[-47.828761160999903,-22.620289527,0.0],[-47.828735686999899,-22.620125017999801,0.0],[-47.828707670999798,-22.620000461999801,0.0],[-47.828567621999902,-22.619772505999901,0.0],[-47.828413411169997,-22.619868658476701,0.0]]]}},
{"type":"Feature","properties":{"Área (ha)":0.099,"Nome do Projeto":"Fazenda Boa Esperanca - SOS","Propriedade":"-","Tipo":"Restauração Ecológica","Ano de Implantação":"2021","Metodologia de Restauração":null,"Monitoramento":"-","Município":"São Pedro","UGRHI":"05 -  Piracicaba, Capivari e Jundiaí","Região Hidrográfica":"Paraná","Status do Projeto":"Finalizado","Fotos do Projeto":null},"geometry":{"type":"Polygon","coordinates":[[[-47.828183851364606,-22.6192998654431,0.0],[-47.828106240352,-22.619344871096299,0.0],[-47.828143608883309,-22.619396792882799,0.0],[-47.828315771027597,-22.6197018278976,0.0],[-47.828407752746401,-22.619858990355802,0.0],[-47.828413411169997,-22.619868658476701,0.0],[-47.828567621999902,-22.619772505999901,0.0],[-47.828541109221199,-22.6197337661139,0.0],[-47.828456085995001,-22.6196015294326,0.0],[-47.828366506365811,-22.619498030921999,0.0],[-47.828251016854097,-22.6193854367821,0.0],[-47.828183851364606,-22.6192998654431,0.0]]]}},
{"type":"Feature","properties":{"Área (ha)":0.65,"Nome do Projeto":"Fazenda Boa Esperanca - SOS","Propriedade":"-","Tipo":"Restauração Ecológica","Ano de Implantação":"2021","Metodologia de Restauração":null,"Monitoramento":"-","Município":"São Pedro","UGRHI":"05 -  Piracicaba, Capivari e Jundiaí","Região Hidrográfica":"Paraná","Status do Projeto":"Finalizado","Fotos do Projeto":null},"geometry":{"type":"Polygon","coordinates":[[[-47.824344080358401,-22.620350475165491,0.0],[-47.824345081643798,-22.6202502093543,0.0],[-47.824355225866,-22.620148296047802,0.0],[-47.824699759999802,-22.619575723999901,0.0],[-47.824911294104403,-22.6194690707208,0.0],[-47.825118606792202,-22.619417654730601,0.0],[-47.825261114189701,-22.619390296339901,0.0],[-47.825349683290199,-22.619381571137499,0.0],[-47.825476897550601,-22.619375747100499,0.0],[-47.825596397397803,-22.619370058917301,0.0],[-47.825788598118798,-22.6193344314424,0.0],[-47.82596908067751,-22.619291845811301,0.0],[-47.826118852047998,-22.619256965794499,0.0],[-47.826237472867497,-22.619208305800601,0.0],[-47.826379602918188,-22.6191771424838,0.0],[-47.826494805830997,-22.619150035978201,0.0],[-47.826641012663799,-22.619129547276302,0.0],[-47.826771937201599,-22.6191164923505,0.0],[-47.8269025686878,-22.619089113546899,0.0],[-47.827022068103602,-22.6190834243307,0.0],[-47.827126285289303,-22.619085168963299,0.0],[-47.827230502469398,-22.619086913528299,0.0],[-47.827330496139503,-22.619070821331999,0.0],[-47.827476849212097,-22.619057493771301,0.0],[-47.82761199706119,-22.619062274858901,0.0],[-47.827720657570303,-22.6190925986085,0.0],[-47.827856684778403,-22.619140350770898,0.0],[-47.827969715537897,-22.619195672889791,0.0],[-47.828044321110113,-22.619258837156,0.0],[-47.828106240352,-22.619344871096299,0.0],[-47.828183851364606,-22.6192998654431,0.0],[-47.828140084154398,-22.619244104305501,0.0],[-47.8280352717032,-22.6191504268789,0.0],[-47.827920271289699,-22.6190617053736,0.0],[-47.827795473724798,-22.6189970381172,0.0],[-47.827655540653403,-22.618946966616299,0.0],[-47.827516486897792,-22.618939866281501,0.0],[-47.827347357212197,-22.618971506683501,0.0],[-47.827209084867597,-22.6190026028018,0.0],[-47.8270240378965,-22.619010641981799,0.0],[-47.826874893568302,-22.619013271635399,0.0],[-47.8267563136734,-22.619001033348798,0.0],[-47.826632200234798,-22.618969787270299,0.0],[-47.826492755776897,-22.6189435876719,0.0],[-47.826389799971302,-22.618940626301899,0.0],[-47.826256279658601,-22.618952532581201,0.0],[-47.826118592838988,-22.619012275347401,0.0],[-47.825996725192603,-22.6190908444452,0.0],[-47.82585369991439,-22.619141128465099,0.0],[-47.825761420291201,-22.619157083801401,0.0],[-47.825648568962002,-22.619173401634701,0.0],[-47.825494867099898,-22.619204768241001,0.0],[-47.825346210456402,-22.619231269482299,0.0],[-47.825187365503503,-22.619262726434201,0.0],[-47.825048994559403,-22.619289046166799,0.0],[-47.824835041243198,-22.619393118562702,0.0],[-47.824651847601601,-22.6194918724715,0.0],[-47.824526592311699,-22.619656473991899,0.0],[-47.824442382738397,-22.6198155760428,0.0],[-47.82436884925071,-22.619993595274099,0.0],[-47.824320835235092,-22.620161612297501,0.0],[-47.824296588787803,-22.620217318004698,0.0],[-47.82427757374699,-22.6203104403133,0.0],[-47.824344080358401,-22.620350475165491,0.0]]]}},
{"type":"Feature","properties":{"Área (ha)":0.596,"Nome do Projeto":"Fazenda Boa Esperanca - SOS","Propriedade":"-","Tipo":"Restauração Ecológica","Ano de Implantação":"2021","Metodologia de Restauração":null,"Monitoramento":"-","Município":"São Pedro","UGRHI":"05 -  Piracicaba, Capivari e Jundiaí","Região Hidrográfica":"Paraná","Status do Projeto":"Finalizado","Fotos do Projeto":null},"geometry":{"type":"Polygon","coordinates":[[[-47.823077759065498,-22.6224549621294,0.0],[-47.823158983204799,-22.6223956676487,0.0],[-47.823244268724309,-22.6222890866553,0.0],[-47.823291442314002,-22.622226206109101,0.0],[-47.823335856428997,-22.622211171390401,0.0],[-47.823377773829598,-22.622189147892598,0.0],[-47.823393036223997,-22.622178814682499,0.0],[-47.823463658185602,-22.622127671137001,0.0],[-47.82347714801611,-22.622117282168801,0.0],[-47.823542616862603,-22.6220636906687,0.0],[-47.823600246746892,-22.622016154999699,0.0],[-47.823607764650902,-22.6220092987719,0.0],[-47.823686401370701,-22.6219387604473,0.0],[-47.823756370424498,-22.621882780347999,0.0],[-47.823801795180998,-22.621849049476001,0.0],[-47.823837132242097,-22.621823459266999,0.0],[-47.823844749499997,-22.6218195535115,0.0],[-47.823872105077903,-22.621815194497309,0.0],[-47.82395362052759,-22.6218104155001,0.0],[-47.823983086795501,-22.6218312788601,0.0],[-47.823997761470807,-22.621823401309499,0.0],[-47.824057876623201,-22.621808662272802,0.0],[-47.824104608629192,-22.621797204499501,0.0],[-47.8241551775725,-22.621784805967099,0.0],[-47.824248044768197,-22.621797498966501,0.0],[-47.824310639403393,-22.621839383137299,0.0],[-47.8244640008879,-22.621979970892799,0.0],[-47.824469732040903,-22.6219853067151,0.0],[-47.824611301999909,-22.621898234999801,0.0],[-47.824588216295687,-22.621827328391898,0.0],[-47.82455486927369,-22.6217061197829,0.0],[-47.824518543471498,-22.621627950512799,0.0],[-47.824412055054999,-22.621515194925198,0.0],[-47.8243369372342,-22.6214269622849,0.0],[-47.824281105785907,-22.621338389846301,0.0],[-47.8242320374206,-22.6212031291223,0.0],[-47.824206112650103,-22.621067460683999,0.0],[-47.824207115461,-22.620927735650898,0.0],[-47.824231627676703,-22.620805507684398,0.0],[-47.8242553347634,-22.620643889257199,0.0],[-47.824302697540503,-22.620506929793599,0.0],[-47.824350553222708,-22.620371351751501,0.0],[-47.824344080358401,-22.620350475165491,0.0],[-47.82427757374699,-22.6203104403133,0.0],[-47.824219176017799,-22.6204738639168,0.0],[-47.824175133682402,-22.620584495108702,0.0],[-47.8241367221869,-22.620718908708799,0.0],[-47.824082198586503,-22.620820171871902,0.0],[-47.824063773437587,-22.620925575482101,0.0],[-47.824040550799701,-22.620997629352701,0.0],[-47.823949147836409,-22.621056555208899,0.0],[-47.823893648213001,-22.6211100723078,0.0],[-47.823875515636203,-22.621229799719,0.0],[-47.823902987065601,-22.621315289620199,0.0],[-47.823955783262207,-22.621381228152501,0.0],[-47.824028956390002,-22.621437255086601,0.0],[-47.824066421240502,-22.621508239951901,0.0],[-47.824063229930999,-22.621603822575899,0.0],[-47.823961540568298,-22.621662929665291,0.0],[-47.823849272333298,-22.6217078940692,0.0],[-47.823676361028703,-22.621806466043498,0.0],[-47.823534697922398,-22.621923592796399,0.0],[-47.823368002335997,-22.622074594549201,0.0],[-47.823162600969987,-22.6223456858344,0.0],[-47.823077759065498,-22.6224549621294,0.0]]]}},
{"type":"Feature","properties":{"Área (ha)":0.2,"Nome do Projeto":"Fazenda Boa Esperanca - SOS","Propriedade":"-","Tipo":"Restauração Ecológica","Ano de Implantação":"2021","Metodologia de Restauração":null,"Monitoramento":"-","Município":"São Pedro","UGRHI":"05 -  Piracicaba, Capivari e Jundiaí","Região Hidrográfica":"Paraná","Status do Projeto":"Finalizado","Fotos do Projeto":null},"geometry":{"type":"Polygon","coordinates":[[[-47.823379551122599,-22.623485221174899,0.0],[-47.823355155231113,-22.623421652437301,0.0],[-47.82334332312621,-22.623386914084101,0.0],[-47.823257057432897,-22.623334994289401,0.0],[-47.8231188871436,-22.623251835051299,0.0],[-47.823091879007201,-22.623416827507501,0.0],[-47.822970200885713,-22.623504944044701,0.0],[-47.822822807121497,-22.6235935133205,0.0],[-47.822744492084396,-22.623687249806,0.0],[-47.822802820993203,-22.623706906896601,0.0],[-47.822894891330797,-22.623762311099291,0.0],[-47.823035084999802,-22.6238467,0.0],[-47.823061036698903,-22.623872067531,0.0],[-47.823379551122599,-22.623485221174899,0.0]]]}},
{"type":"Feature","properties":{"Área (ha)":1.73,"Nome do Projeto":"Fazenda Boa Esperanca - SOS","Propriedade":"-","Tipo":"Restauração Ecológica","Ano de Implantação":"2021","Metodologia de Restauração":null,"Monitoramento":"-","Município":"São Pedro","UGRHI":"05 -  Piracicaba, Capivari e Jundiaí","Região Hidrográfica":"Paraná","Status do Projeto":"Finalizado","Fotos do Projeto":null},"geometry":{"type":"Polygon","coordinates":[[[-47.8218723522929,-22.6280007223464,0.0],[-47.822059112718001,-22.6283698233594,0.0],[-47.822132168595097,-22.628343695333498,0.0],[-47.822232169816601,-22.628327605594801,0.0],[-47.822313542240401,-22.628344083994499,0.0],[-47.822399211157602,-22.628381980144699,0.0],[-47.822543034687001,-22.628433181130099,0.0],[-47.822628045122002,-22.628438848572902,0.0],[-47.823065526457299,-22.6283200943362,0.0],[-47.823222657360603,-22.628267175354701,0.0],[-47.823303590646297,-22.628262167539699,0.0],[-47.823446243130903,-22.628256072491801,0.0],[-47.823565677688599,-22.628246804088899,0.0],[-47.823588383183392,-22.628224910670799,0.0],[-47.823541288600197,-22.628186335660398,0.0],[-47.823431084157399,-22.628080809787399,0.0],[-47.823312506265196,-22.627943191157801,0.0],[-47.8231001480735,-22.6277157879091,0.0],[-47.823062382297699,-22.627675346454101,0.0],[-47.823019403085098,-22.6276245713332,0.0],[-47.822927936322714,-22.627516513504698,0.0],[-47.822824423281197,-22.627360717896,0.0],[-47.822783214652908,-22.6272324829296,0.0],[-47.822785096323003,-22.627135729279299,0.0],[-47.822818495918192,-22.627070660755301,0.0],[-47.822378144368002,-22.6268598982745,0.0],[-47.822330778177097,-22.6269968574899,0.0],[-47.822332826763898,-22.627097124202098,0.0],[-47.822334875362301,-22.627197390912901,0.0],[-47.822309192230797,-22.6272502953782,0.0],[-47.82230154864979,-22.627266040320691,0.0],[-47.822175143953203,-22.6273147894719,0.0],[-47.822175204667097,-22.627314834030798,0.0],[-47.82205926231601,-22.627306128641909,0.0],[-47.821911948480199,-22.627272899764598,0.0],[-47.82175306243461,-22.627239874459701,0.0],[-47.821690721826599,-22.627210522838599,0.0],[-47.8216283812528,-22.627181171172801,0.0],[-47.8215117075761,-22.6271366558069,0.0],[-47.821410829381101,-22.627109773536699,0.0],[-47.821301724405103,-22.627057960290198,0.0],[-47.821196038125301,-22.626984593322309,0.0],[-47.8211687214067,-22.626960178089899,0.0],[-47.821093843718998,-22.626893253593,0.0],[-47.820995068095897,-22.626780360147102,0.0],[-47.8209115029196,-22.626656452208099,0.0],[-47.820859235933113,-22.6265534868987,0.0],[-47.820841612588197,-22.6264463296651,0.0],[-47.820853605436596,-22.626277753066798,0.0],[-47.820904172271007,-22.626108497641201,0.0],[-47.820809910320598,-22.6261795043579,0.0],[-47.820754894992298,-22.6262568937337,0.0],[-47.820746850931798,-22.626366890829999,0.0],[-47.820760549677402,-22.6265338212378,0.0],[-47.820835772119402,-22.626690116301798,0.0],[-47.820846287939808,-22.626709352778001,0.0],[-47.820915942956503,-22.626836771578201,0.0],[-47.820938900401892,-22.6268637856871,0.0],[-47.820942007752699,-22.626867442117099,0.0],[-47.821000745954791,-22.626936559517802,0.0],[-47.821031921609112,-22.626973243941499,0.0],[-47.821118145928409,-22.627021377871301,0.0],[-47.821297346814603,-22.627121414815701,0.0],[-47.821468243812497,-22.627175722634501,0.0],[-47.821597507391502,-22.627206881518909,0.0],[-47.821784126894499,-22.627275241187199,0.0],[-47.821939399422803,-22.627320270879601,0.0],[-47.822074001531092,-22.627360888018,0.0],[-47.822255185527403,-22.627415013827299,0.0],[-47.822333212127113,-22.6274566268694,0.0],[-47.822448021940097,-22.627535802750799,0.0],[-47.82257787137091,-22.6275956084101,0.0],[-47.822743235798001,-22.627630906910699,0.0],[-47.822846588597997,-22.6276529683823,0.0],[-47.822924713060409,-22.627699355705801,0.0],[-47.8229619843002,-22.627760791461199,0.0],[-47.822922497078601,-22.627842684361699,0.0],[-47.822876988385197,-22.6278816964142,0.0],[-47.822867872765897,-22.627939172806801,0.0],[-47.8229361011973,-22.628004839676809,0.0],[-47.822912336427599,-22.628100784637301,0.0],[-47.822825291233002,-22.628121422929901,0.0],[-47.822747068971488,-22.6280702609779,0.0],[-47.8227300780568,-22.627994139059101,0.0],[-47.822693197112713,-22.6279518016607,0.0],[-47.822600130613687,-22.6279295589671,0.0],[-47.822573828933102,-22.627901364202199,0.0],[-47.822583042240502,-22.627848662417801,0.0],[-47.822546063818898,-22.627801550371998,0.0],[-47.822427281167499,-22.627779760411801,0.0],[-47.822323538085698,-22.627738600252599,0.0],[-47.822250654570801,-22.627696896663199,0.0],[-47.822157490740999,-22.627669879081299,0.0],[-47.822038415599401,-22.627633764995899,0.0],[-47.821991053375001,-22.627582059294799,0.0],[-47.821902837827707,-22.627545401786801,0.0],[-47.821854792922203,-22.6274602737873,0.0],[-47.821740471132209,-22.6274049704768,0.0],[-47.821325598445398,-22.627245102022499,0.0],[-47.821169351012301,-22.6271523256049,0.0],[-47.821059977927803,-22.627087382008501,0.0],[-47.820920623072503,-22.6270659529184,0.0],[-47.820818538379399,-22.627105960076399,0.0],[-47.820783510711898,-22.627154339771799,0.0],[-47.820800597918598,-22.6272352366353,0.0],[-47.820895126318597,-22.627329099620798,0.0],[-47.8209529695756,-22.6273901738859,0.0],[-47.820940102948498,-22.627475117778701,0.0],[-47.821095604884597,-22.6275044233528,0.0],[-47.821118952718201,-22.6274802998329,0.0],[-47.821233871303903,-22.627438872497901,0.0],[-47.821303670825699,-22.627455555162001,0.0],[-47.821408991836591,-22.627511017229502,0.0],[-47.821522100946602,-22.627569924370999,0.0],[-47.821623637829703,-22.627629035136891,0.0],[-47.821728300731102,-22.6276522683659,0.0],[-47.8218559619906,-22.627667932151599,0.0],[-47.822049199734501,-22.6276824412897,0.0],[-47.822181084279102,-22.6277159416655,0.0],[-47.822249837434313,-22.627764729333499,0.0],[-47.822264431776688,-22.6278291058847,0.0],[-47.822219313086407,-22.62788721619,0.0],[-47.822204351398703,-22.627893808670699,0.0],[-47.8221007565595,-22.627939455018399,0.0],[-47.821939475378201,-22.627978117000598,0.0],[-47.8218723522929,-22.6280007223464,0.0]]]}},
{"type":"Feature","properties":{"Área (ha)":0.913,"Nome do Projeto":"Fazenda Boa Esperanca - SOS","Propriedade":"-","Tipo":"Restauração Ecológica","Ano de Implantação":"2021","Metodologia de Restauração":null,"Monitoramento":"-","Município":"São Pedro","UGRHI":"05 -  Piracicaba, Capivari e Jundiaí","Região Hidrográfica":"Paraná","Status do Projeto":"Finalizado","Fotos do Projeto":null},"geometry":{"type":"Polygon","coordinates":[[[-47.822600584351903,-22.6269061328221,0.0],[-47.822842232101003,-22.6270236736081,0.0],[-47.823127586480098,-22.626825207041101,0.0],[-47.823252905014101,-22.626726279333401,0.0],[-47.823304932662197,-22.626628642464699,0.0],[-47.823292043077998,-22.626564389169001,0.0],[-47.823229007281299,-22.6265010190995,0.0],[-47.823115971697007,-22.626445694093999,0.0],[-47.823014142500497,-22.626372260434501,0.0],[-47.822973958592399,-22.626294158824098,0.0],[-47.822994102676503,-22.6261469321771,0.0],[-47.823046276705199,-22.626056457294499,0.0],[-47.823133313520898,-22.625972532882201,0.0],[-47.823231128311001,-22.625917932038,0.0],[-47.823259216817497,-22.625902252853301,0.0],[-47.823282081768902,-22.62579141262,0.0],[-47.823268447092502,-22.625787458582899,0.0],[-47.823189982179798,-22.625724360210199,0.0],[-47.82304433199171,-22.625583635717302,0.0],[-47.822868332933901,-22.625383339668002,0.0],[-47.822708681178703,-22.625430202471001,0.0],[-47.822721988977499,-22.625458054526,0.0],[-47.8227712042627,-22.625600477553199,0.0],[-47.822881259702598,-22.625698842256298,0.0],[-47.823001016241498,-22.625768378093301,0.0],[-47.823069048391403,-22.625824495818499,0.0],[-47.822957166836702,-22.625888558364299,0.0],[-47.822912244132297,-22.625956217990201,0.0],[-47.822832197156004,-22.626067483051902,0.0],[-47.822773796021401,-22.626230906447201,0.0],[-47.822748860544799,-22.626269556133799,0.0],[-47.822681316067708,-22.626237311306198,0.0],[-47.822669858963302,-22.626180197188901,0.0],[-47.822642289390593,-22.626089932537699,0.0],[-47.822548541306503,-22.626034267446101,0.0],[-47.8225216547226,-22.625977424997998,0.0],[-47.822602872590998,-22.6259234553293,0.0],[-47.822626442272998,-22.625817961198599,0.0],[-47.822572083852712,-22.625675628685499,0.0],[-47.822471144379698,-22.625519787359899,0.0],[-47.822344781957703,-22.625378722536301,0.0],[-47.822162430256299,-22.625267301262902,0.0],[-47.822027245050997,-22.625198036338301,0.0],[-47.821924674435387,-22.625214170996401,0.0],[-47.821849965183389,-22.625334894289502,0.0],[-47.821826394933197,-22.625440388363501,0.0],[-47.822058383806997,-22.625546564260201,0.0],[-47.822102840937497,-22.625583113751809,0.0],[-47.82218389503489,-22.625670499975701,0.0],[-47.822187458883498,-22.625676605643299,0.0],[-47.822212893895902,-22.625684250017201,0.0],[-47.8222917241836,-22.6257652536904,0.0],[-47.822514761499598,-22.626105221858101,0.0],[-47.822712899449293,-22.626359654283199,0.0],[-47.822816704204399,-22.626529773876001,0.0],[-47.82281867992171,-22.626626459599301,0.0],[-47.822725098475303,-22.626767815,0.0],[-47.822600584351903,-22.6269061328221,0.0]]]}},
{"type":"Feature","properties":{"Área (ha)":0.29,"Nome do Projeto":"Fazenda Boa Esperanca - SOS","Propriedade":"-","Tipo":"Restauração Ecológica","Ano de Implantação":"2021","Metodologia de Restauração":null,"Monitoramento":"-","Município":"São Pedro","UGRHI":"05 -  Piracicaba, Capivari e Jundiaí","Região Hidrográfica":"Paraná","Status do Projeto":"Finalizado","Fotos do Projeto":null},"geometry":{"type":"Polygon","coordinates":[[[-47.824271331576,-22.624258087183701,0.0],[-47.824175606517002,-22.624159716473098,0.0],[-47.824067236547009,-22.624089735320201,0.0],[-47.823958060117,-22.6240343427745,0.0],[-47.8238375313544,-22.623989896840499,0.0],[-47.823736728441197,-22.6239665967897,0.0],[-47.823650623005598,-22.623907215387401,0.0],[-47.823533366290498,-22.623834053646199,0.0],[-47.8234993941659,-22.6237842628762,0.0],[-47.823465742668297,-22.623734941950609,0.0],[-47.8234163812254,-22.623585357208601,0.0],[-47.823379551122599,-22.623485221174899,0.0],[-47.823061036698903,-22.623872067531,0.0],[-47.823090139469087,-22.623859770882,0.0],[-47.823181910461201,-22.623818750066899,0.0],[-47.823278197292197,-22.623809889849191,0.0],[-47.823336862138802,-22.623848261315,0.0],[-47.823372685872997,-22.623901379144101,0.0],[-47.823408489449008,-22.623954467029399,0.0],[-47.8234919084247,-22.624071211736702,0.0],[-47.823594175113399,-22.6241661309659,0.0],[-47.823741851716797,-22.624217263357199,0.0],[-47.823881154995199,-22.624236302945999,0.0],[-47.8240433095269,-22.624240610891601,0.0],[-47.824128903731491,-22.624277029322201,0.0],[-47.824148409216797,-22.624285328465,0.0],[-47.824237786801703,-22.624315993998501,0.0],[-47.824279851495803,-22.624297341707202,0.0],[-47.824271331576,-22.624258087183701,0.0]]]}},
{"type":"Feature","properties":{"Área (ha)":0.042,"Nome do Projeto":"Fazenda Boa Esperanca - SOS","Propriedade":"-","Tipo":"Restauração Ecológica","Ano de Implantação":"2021","Metodologia de Restauração":null,"Monitoramento":"-","Município":"São Pedro","UGRHI":"05 -  Piracicaba, Capivari e Jundiaí","Região Hidrográfica":"Paraná","Status do Projeto":"Finalizado","Fotos do Projeto":null},"geometry":{"type":"Polygon","coordinates":[[[-47.821787600004399,-22.630355695450191,0.0],[-47.821795764576798,-22.6303537657802,0.0],[-47.821806879666987,-22.630352196425999,0.0],[-47.821812977230799,-22.630351925482302,0.0],[-47.821866477245102,-22.630363079135101,0.0],[-47.821873391999802,-22.630361657999899,0.0],[-47.8219388,-22.630320741999899,0.0],[-47.822121202999902,-22.6303280569999,0.0],[-47.822129190999902,-22.630234173999899,0.0],[-47.822058649999903,-22.630226942,0.0],[-47.821952838999898,-22.630226945999901,0.0],[-47.821850946999902,-22.630226949,0.0],[-47.821821967976099,-22.630217759752,0.0],[-47.821832484073298,-22.630308461830499,0.0],[-47.821575532831901,-22.630257829835301,0.0],[-47.821713042086301,-22.630295789784601,0.0],[-47.821787600004399,-22.630355695450191,0.0]]]}},
{"type":"Feature","properties":{"Área (ha)":0.575,"Nome do Projeto":"Fazenda Boa Esperanca - SOS","Propriedade":"-","Tipo":"Restauração Ecológica","Ano de Implantação":"2021","Metodologia de Restauração":null,"Monitoramento":"-","Município":"São Pedro","UGRHI":"05 -  Piracicaba, Capivari e Jundiaí","Região Hidrográfica":"Paraná","Status do Projeto":"Finalizado","Fotos do Projeto":null},"geometry":{"type":"Polygon","coordinates":[[[-47.822102041999898,-22.629734029999899,0.0],[-47.822067558076903,-22.629695338224199,0.0],[-47.821941923329398,-22.629590083034302,0.0],[-47.821849223757802,-22.6294914123566,0.0],[-47.821770171843497,-22.629399665824302,0.0],[-47.821725325331897,-22.629282241348701,0.0],[-47.821683751134202,-22.629136101305299,0.0],[-47.821673475779797,-22.629010903696201,0.0],[-47.821670622774597,-22.628871246448199,0.0],[-47.821386613373299,-22.628758032025509,0.0],[-47.821218694126102,-22.628660684951399,0.0],[-47.821197377819701,-22.6287506162565,0.0],[-47.821173374263303,-22.6288979107667,0.0],[-47.821168072947692,-22.629016218134591,0.0],[-47.821182717339802,-22.629166414615799,0.0],[-47.821248240524703,-22.629351537965899,0.0],[-47.821316231641902,-22.629468555194599,0.0],[-47.821340693235101,-22.629532604985801,0.0],[-47.8213065609662,-22.6295618637599,0.0],[-47.821215297697108,-22.629627950608501,0.0],[-47.821107434080197,-22.6296370137004,0.0],[-47.820983482207403,-22.629614119688799,0.0],[-47.820793075328197,-22.629549408233601,0.0],[-47.820728034576391,-22.6295262532641,0.0],[-47.820713156351189,-22.6295243395592,0.0],[-47.820679401197403,-22.629514938046601,0.0],[-47.820496944042908,-22.629475097180599,0.0],[-47.820489624242398,-22.629474091835199,0.0],[-47.820494140441802,-22.629477935765301,0.0],[-47.820519476725103,-22.629499500550999,0.0],[-47.820590819511601,-22.629560223361501,0.0],[-47.8207258136541,-22.629619939884101,0.0],[-47.820860222822397,-22.629651008621199,0.0],[-47.820984345376097,-22.6296822582933,0.0],[-47.821082556272891,-22.6297044112981,0.0],[-47.821201047946197,-22.6297118782797,0.0],[-47.821304236231313,-22.629672284779598,0.0],[-47.821318466797898,-22.629666824484701,0.0],[-47.8214044404099,-22.629593666208802,0.0],[-47.821490804068112,-22.629539606324801,0.0],[-47.821598716323003,-22.6295329302881,0.0],[-47.821671405629303,-22.6295650848744,0.0],[-47.821729250251302,-22.629626158713901,0.0],[-47.821807765783099,-22.629691644920999,0.0],[-47.821905976759297,-22.629713797406598,0.0],[-47.822019715300591,-22.629740452753399,0.0],[-47.822041021292208,-22.6297594949983,0.0],[-47.822062818999903,-22.629749022999899,0.0],[-47.822102041999898,-22.629734029999899,0.0]]]}},
{"type":"Feature","properties":{"Área (ha)":0.391,"Nome do Projeto":"Fazenda Boa Esperanca - SOS","Propriedade":"-","Tipo":"Restauração Ecológica","Ano de Implantação":"2021","Metodologia de Restauração":null,"Monitoramento":"-","Município":"São Pedro","UGRHI":"05 -  Piracicaba, Capivari e Jundiaí","Região Hidrográfica":"Paraná","Status do Projeto":"Finalizado","Fotos do Projeto":null},"geometry":{"type":"Polygon","coordinates":[[[-47.821682714036001,-22.6288208821829,0.0],[-47.821715602432199,-22.6287307471151,0.0],[-47.821775054129112,-22.628618650937899,0.0],[-47.8218422938195,-22.628509999877,0.0],[-47.822005750416892,-22.628388908061599,0.0],[-47.822059112718001,-22.6283698233594,0.0],[-47.8218723522929,-22.6280007223464,0.0],[-47.821782344167602,-22.628031034735901,0.0],[-47.821682928258902,-22.628075771827302,0.0],[-47.821580240030599,-22.628149224410102,0.0],[-47.821481921168498,-22.628247675727401,0.0],[-47.821354571070302,-22.6284361941131,0.0],[-47.821246288559401,-22.628613630067999,0.0],[-47.821414427181899,-22.628721719990999,0.0],[-47.821682714036001,-22.6288208821829,0.0]]]}},
{"type":"Feature","properties":{"Área (ha)":1.936,"Nome do Projeto":"Fazenda Boa Esperanca - SOS","Propriedade":"-","Tipo":"Restauração Ecológica","Ano de Implantação":"2021","Metodologia de Restauração":null,"Monitoramento":"-","Município":"São Pedro","UGRHI":"05 -  Piracicaba, Capivari e Jundiaí","Região Hidrográfica":"Paraná","Status do Projeto":"Finalizado","Fotos do Projeto":null},"geometry":{"type":"Polygon","coordinates":[[[-47.820470453781397,-22.637469748044499,0.0],[-47.820290755888102,-22.6373961990735,0.0],[-47.820251227815099,-22.637350325646,0.0],[-47.820238630618903,-22.637300395960501,0.0],[-47.820237460278399,-22.6372431006656,0.0],[-47.820262562448413,-22.6371495205202,0.0],[-47.820291376004391,-22.637048710562201,0.0],[-47.820347120302301,-22.6369438443459,0.0],[-47.820376299511203,-22.636860939159501,0.0],[-47.820371198291397,-22.6368001308131,0.0],[-47.820338508020413,-22.636711150118401,0.0],[-47.8203166594216,-22.636586156156099,0.0],[-47.820318176451693,-22.636471497665099,0.0],[-47.82036037081631,-22.636283380941201,0.0],[-47.82036415708,-22.636266500490301,0.0],[-47.820399149739799,-22.636090354656901,0.0],[-47.820381817235997,-22.635997521396298,0.0],[-47.82031389613649,-22.635884085056801,0.0],[-47.820211329257802,-22.635774840680298,0.0],[-47.82013671701641,-22.635711673421401,0.0],[-47.8200305121469,-22.635613239663201,0.0],[-47.819943376356008,-22.635503723512901,0.0],[-47.819902605778303,-22.635396973640798,0.0],[-47.819919846413597,-22.6352963673956,0.0],[-47.819964310018101,-22.635206028821599,0.0],[-47.820055138543601,-22.635118456546401,0.0],[-47.820165767161498,-22.635055611478698,0.0],[-47.820280472739803,-22.635003441321601,0.0],[-47.820315155013702,-22.634848655812799,0.0],[-47.820199736042092,-22.634829332271199,0.0],[-47.820095433360301,-22.6348240033754,0.0],[-47.820011003957603,-22.6348469826425,0.0],[-47.819892586987791,-22.6349063824042,0.0],[-47.819782470218399,-22.634994293993,0.0],[-47.819736105283198,-22.6349915276034,0.0],[-47.819641912962688,-22.634914375606801,0.0],[-47.8195519439926,-22.634855060463501,0.0],[-47.819446398277798,-22.634788854834198,0.0],[-47.819391806307301,-22.634761157364402,0.0],[-47.81933408784991,-22.6347693373421,0.0],[-47.8192607925738,-22.634770626852699,0.0],[-47.819206566193103,-22.6347608341162,0.0],[-47.819186546862298,-22.6347253638457,0.0],[-47.819165796450697,-22.6346540839676,0.0],[-47.819168630566502,-22.634603882655899,0.0],[-47.819186675916498,-22.634542667001298,0.0],[-47.819243809410203,-22.634505839403602,0.0],[-47.8193850066436,-22.634428128107199,0.0],[-47.819530280694011,-22.634361091706609,0.0],[-47.819624820422497,-22.634266289904701,0.0],[-47.819646357567102,-22.634187101549699,0.0],[-47.819652391066398,-22.634104603738098,0.0],[-47.819631567433497,-22.634029742970998,0.0],[-47.819557231377502,-22.633791040416,0.0],[-47.819510703159402,-22.633591253260299,0.0],[-47.819462145311313,-22.633481057942902,0.0],[-47.8194089988352,-22.633335120867098,0.0],[-47.8193867864113,-22.633192221790001,0.0],[-47.819395800379603,-22.633066684576299,0.0],[-47.819420171613991,-22.632937294935491,0.0],[-47.819453914345601,-22.632789518788499,0.0],[-47.819505881422607,-22.6325990558488,0.0],[-47.819553032450898,-22.632451354192199,0.0],[-47.819627844442998,-22.632335406082898,0.0],[-47.819695891653801,-22.6322661461707,0.0],[-47.819786060605303,-22.6321463455625,0.0],[-47.819961736174903,-22.6318674215625,0.0],[-47.820190173722402,-22.6315266708053,0.0],[-47.820272846084393,-22.6314177486429,0.0],[-47.820352903950003,-22.6313697706242,0.0],[-47.820426197353697,-22.6313684807977,0.0],[-47.820591004255903,-22.6313797263909,0.0],[-47.820690013421199,-22.631399660295099,0.0],[-47.820772338417903,-22.631462691747501,0.0],[-47.820836253431089,-22.631569034113799,0.0],[-47.820929804625202,-22.631803815575001,0.0],[-47.821049061767603,-22.632163522975901,0.0],[-47.821164169442298,-22.632508974297298,0.0],[-47.821178235444002,-22.6325389100205,0.0],[-47.821213723180101,-22.6326128301396,0.0],[-47.821329272232298,-22.632685652488291,0.0],[-47.821389026132202,-22.632748608323499,0.0],[-47.821429577307498,-22.6328446149477,0.0],[-47.821499180240302,-22.6330404128509,0.0],[-47.821553060353303,-22.6332221585611,0.0],[-47.821627042741802,-22.633331315493201,0.0],[-47.821664365621203,-22.633381399695299,0.0],[-47.821752086504603,-22.633519562554699,0.0],[-47.821844668972901,-22.633517932340499,0.0],[-47.821814153431099,-22.633346522092602,0.0],[-47.821811004851,-22.633288021111799,0.0],[-47.821814645080401,-22.633181730336801,0.0],[-47.821827294896003,-22.633045382427099,0.0],[-47.821882231797801,-22.632901125432401,0.0],[-47.821918905126097,-22.6328073413992,0.0],[-47.821944591065098,-22.6327424087638,0.0],[-47.821938757787798,-22.632645790967501,0.0],[-47.821910291283388,-22.6325746473942,0.0],[-47.82181187628381,-22.632479659769601,0.0],[-47.821725546306098,-22.632409534982902,0.0],[-47.821635651503698,-22.632353801873698,0.0],[-47.821560674910508,-22.632272730362999,0.0],[-47.821517925522308,-22.632192521914,0.0],[-47.821491804011302,-22.632112741983299,0.0],[-47.821518162744788,-22.631986958272101,0.0],[-47.821523449337,-22.631961730671701,0.0],[-47.821581878019302,-22.631799501088999,0.0],[-47.821633469429898,-22.631680378778501,0.0],[-47.821638989663597,-22.631572814322201,0.0],[-47.821618677656801,-22.631523020543,0.0],[-47.821566846855802,-22.631441541487199,0.0],[-47.821488452259707,-22.631382023521901,0.0],[-47.8214409251934,-22.631345636971901,0.0],[-47.82141689495031,-22.6312793982313,0.0],[-47.821390344859097,-22.631264768823101,0.0],[-47.82133621138,-22.631266347505001,0.0],[-47.821276574730803,-22.6312435157155,0.0],[-47.821201898067599,-22.631240053951501,0.0],[-47.821152305229496,-22.631240926854101,0.0],[-47.8211165292686,-22.6312077292358,0.0],[-47.821010693452898,-22.631127200342402,0.0],[-47.820980671385087,-22.631107170642,0.0],[-47.820942646820001,-22.631086662625901,0.0],[-47.8209673114455,-22.631115455741799,0.0],[-47.821113764442501,-22.631232285987409,0.0],[-47.821270602003501,-22.631353709595199,0.0],[-47.821369301843603,-22.631399735328401,0.0],[-47.821452571559803,-22.631446032640302,0.0],[-47.8215204111399,-22.6314926015562,0.0],[-47.8215280907203,-22.631616650761,0.0],[-47.821479778135,-22.631770343664101,0.0],[-47.821420983547711,-22.6319146684476,0.0],[-47.821402946021998,-22.632039170406099,0.0],[-47.821420717339713,-22.632153489304201,0.0],[-47.821479928743003,-22.632281407598999,0.0],[-47.82154835407529,-22.632356624088999,0.0],[-47.821673844995402,-22.632454717423201,0.0],[-47.821767792573098,-22.632519931788899,0.0],[-47.821816034679792,-22.632614608801902,0.0],[-47.821816802285497,-22.632758694577301,0.0],[-47.821785103744503,-22.632863522170101,0.0],[-47.821736791181998,-22.633017215145099,0.0],[-47.821712244630199,-22.633074963213101,0.0],[-47.821640431380402,-22.633085780288301,0.0],[-47.821530370209587,-22.632987415320802,0.0],[-47.821508040473397,-22.632901834652699,0.0],[-47.821521227133303,-22.632791747063791,0.0],[-47.821555280200293,-22.632695621065899,0.0],[-47.821532657865298,-22.632595716579399,0.0],[-47.8214490947447,-22.632535095571001,0.0],[-47.8213616563391,-22.632536634940301,0.0],[-47.821272559723504,-22.632457005951899,0.0],[-47.821209082825199,-22.6323721495767,0.0],[-47.82114977407651,-22.632239456554601,0.0],[-47.821105505583098,-22.632087393448298,0.0],[-47.821046489677002,-22.631969024184301,0.0],[-47.821002514002103,-22.631831284848499,0.0],[-47.820889041000399,-22.6315658079813,0.0],[-47.820792754007797,-22.631386002366899,0.0],[-47.820698612627687,-22.631311238076201,0.0],[-47.820574391091903,-22.631275213720599,0.0],[-47.820414263374502,-22.631244597477501,0.0],[-47.820334772427898,-22.631131364509201,0.0],[-47.82025033323179,-22.6310277712182,0.0],[-47.820200069351692,-22.631085971635098,0.0],[-47.820162919614603,-22.631282454771501,0.0],[-47.820145173443287,-22.6314212805392,0.0],[-47.8200858900287,-22.6315417319048,0.0],[-47.820050759446993,-22.631602639396501,0.0],[-47.820016124714101,-22.631652815040201,0.0],[-47.819975540209803,-22.631718391602,0.0],[-47.819911525289903,-22.6318218270114,0.0],[-47.819749665573802,-22.631958412111601,0.0],[-47.819584611731187,-22.632190579843101,0.0],[-47.819499317935403,-22.632297159680501,0.0],[-47.819394717442592,-22.632466171415899,0.0],[-47.819320197606501,-22.632596443285198,0.0],[-47.819261595361702,-22.632750316756901,0.0],[-47.819232976503997,-22.632860675791399,0.0],[-47.819227667349303,-22.632985933822798,0.0],[-47.819248332045198,-22.633108774782499,0.0],[-47.819292209106202,-22.633241740103198,0.0],[-47.819301978747198,-22.633387549781901,0.0],[-47.819256130070492,-22.6334907439293,0.0],[-47.819197040113899,-22.633620744336401,0.0],[-47.819138047531503,-22.6337555193459,0.0],[-47.819114377007388,-22.6338562386658,0.0],[-47.819141751545502,-22.633936954696001,0.0],[-47.819199304786387,-22.6339837055055,0.0],[-47.819206500977202,-22.6339889260924,0.0],[-47.819282868009097,-22.634044327689999,0.0],[-47.819360897868798,-22.634085941860999,0.0],[-47.819413405223898,-22.634137557683601,0.0],[-47.819476004655492,-22.634179443268302,0.0],[-47.819492605026802,-22.634236467134901,0.0],[-47.819447190838503,-22.634280253110902,0.0],[-47.8193599461448,-22.634291340727302,0.0],[-47.81927250647,-22.6342928790705,0.0],[-47.819200692277001,-22.634303695133401,0.0],[-47.819129950305602,-22.634367031921801,0.0],[-47.819126268935001,-22.634438741619601,0.0],[-47.8191272437005,-22.634486487761301,0.0],[-47.819123854763397,-22.634572521301301,0.0],[-47.81907834287199,-22.6346115325798,0.0],[-47.819007503223403,-22.634670094719102,0.0],[-47.819001516215494,-22.6347114141338,0.0],[-47.818998483323902,-22.634732345672401,0.0],[-47.819025663081398,-22.634803512475301,0.0],[-47.819109129299903,-22.634859360088399,0.0],[-47.819160857060702,-22.634872779058799,0.0],[-47.819217825844191,-22.634890882135199,0.0],[-47.819306630690797,-22.6349561883676,0.0],[-47.819344195220587,-22.635031948720101,0.0],[-47.819376226302403,-22.6350887011039,0.0],[-47.819480461976909,-22.6351537357293,0.0],[-47.819583820282503,-22.63517579877,0.0],[-47.8196190187724,-22.635169933834401,0.0],[-47.8196190187724,-22.635169933834401,0.0],[-47.819712018823502,-22.6351544377059,0.0],[-47.81981857061669,-22.635080917864801,0.0],[-47.8199091066531,-22.634979021838099,0.0],[-47.819965295484998,-22.634958927750599,0.0],[-47.820006833779402,-22.634977302073299,0.0],[-47.81998199369319,-22.635020726141502,0.0],[-47.819926487389303,-22.6350742425108,0.0],[-47.819841484872398,-22.635195146483699,0.0],[-47.819823348315097,-22.6353148737971,0.0],[-47.819833169169598,-22.635374584703499,0.0],[-47.819846847673197,-22.635457750071801,0.0],[-47.819936530760302,-22.635566027375599,0.0],[-47.820052029299298,-22.6356786266272,0.0],[-47.820146271151899,-22.635758165604301,0.0],[-47.820235954677493,-22.635866442692901,0.0],[-47.820294874461197,-22.6359800374983,0.0],[-47.8202982878231,-22.636147148791601,0.0],[-47.820270937254698,-22.636319577866701,0.0],[-47.820250581661703,-22.636432088918301,0.0],[-47.820243196543601,-22.6364729085074,0.0],[-47.8202408811796,-22.636611462677799,0.0],[-47.820279519553402,-22.636739743388102,0.0],[-47.820261578391687,-22.636869019929101,0.0],[-47.820227718756101,-22.636974695020299,0.0],[-47.820183850557399,-22.637036700892899,0.0],[-47.8201837259153,-22.6370590385187,0.0],[-47.820150174201203,-22.637179853177699,0.0],[-47.820163139589297,-22.637228945854901,0.0],[-47.820358432071103,-22.637582509320399,0.0],[-47.820470453781397,-22.637469748044499,0.0]]]}},
{"type":"Feature","properties":{"Área (ha)":0.296,"Nome do Projeto":"Fazenda Boa Esperanca - SOS","Propriedade":"-","Tipo":"Restauração Ecológica","Ano de Implantação":"2021","Metodologia de Restauração":null,"Monitoramento":"-","Município":"São Pedro","UGRHI":"05 -  Piracicaba, Capivari e Jundiaí","Região Hidrográfica":"Paraná","Status do Projeto":"Finalizado","Fotos do Projeto":null},"geometry":{"type":"Polygon","coordinates":[[[-47.820683990347298,-22.630102640597698,0.0],[-47.82073127858979,-22.630128337735201,0.0],[-47.820878445447903,-22.630230856851099,0.0],[-47.820898637925801,-22.630243729746802,0.0],[-47.820906605019999,-22.630248201175998,0.0],[-47.821051889501199,-22.630327066087499,0.0],[-47.821096330503998,-22.630321417735999,0.0],[-47.821162200854197,-22.630334587253401,0.0],[-47.821265413540402,-22.630395831676498,0.0],[-47.821278820684597,-22.630408857149199,0.0],[-47.821281910570796,-22.630411474037199,0.0],[-47.821388113694198,-22.630500982212201,0.0],[-47.821393902339501,-22.630506084838601,0.0],[-47.821443701602092,-22.630552344494198,0.0],[-47.821447569597602,-22.630555727047899,0.0],[-47.821486259713602,-22.630588003225199,0.0],[-47.821495736439601,-22.630593584292399,0.0],[-47.821504919635501,-22.630599607016801,0.0],[-47.821512660688001,-22.630607177137001,0.0],[-47.821518883010008,-22.630616537676399,0.0],[-47.821590751135197,-22.630584107368499,0.0],[-47.821588454944497,-22.630578171282998,0.0],[-47.821585735516003,-22.630569552572599,0.0],[-47.821579156581798,-22.630539501691398,0.0],[-47.821573693999902,-22.6305344599999,0.0],[-47.821557495999897,-22.630504561999899,0.0],[-47.82157773999991,-22.6304372879999,0.0],[-47.8216323879642,-22.630408462541101,0.0],[-47.82164334149499,-22.630397417140902,0.0],[-47.821655980455198,-22.630389187997601,0.0],[-47.821674998456992,-22.6303831319435,0.0],[-47.821604050999902,-22.6301292909999,0.0],[-47.821506078999903,-22.6301437629999,0.0],[-47.821439458999897,-22.630198022999899,0.0],[-47.821353243,-22.630212493999899,0.0],[-47.821317971,-22.630183556999899,0.0],[-47.821290537,-22.630122065999899,0.0],[-47.821270940999803,-22.630085893999901,0.0],[-47.821223912999798,-22.630064191999899,0.0],[-47.821048918729602,-22.630072780424001,0.0],[-47.820913826496103,-22.630008289626801,0.0],[-47.820815615392107,-22.629986136538399,0.0],[-47.820718574434402,-22.630021278709499,0.0],[-47.820683990347298,-22.630102640597698,0.0]]]}}
]
}
