{
"type": "FeatureCollection",
"name": "Fazenda Carmelina (1879)",
"crs": { "type": "name", "properties": { "name": "urn:ogc:def:crs:OGC:1.3:CRS84" } },
"xy_coordinate_resolution": 1e-15,
"features": [
{"type":"Feature","properties":{"Área (ha)":14.677677934422059,"Nome do Projeto":"Fazenda Carmelilna","Propriedade":"Fazenda Carmelilna","Tipo":"Programa Nascentes","Ano de Implantação":"2020","Metodologia de Restauração":null,"Monitoramento":"5 anos","Município":"Salesópolis","UGRHI":"05 - Piracicaba, Capivari e Jundiaí","Região Hidrográfica":"Paraná","Status do Projeto":"Ativo","Fotos do Projeto":null},"geometry":{"type":"MultiPolygon","coordinates":[[[[-45.7640770833125,-23.5999584323989],[-45.764233206093998,-23.599797861017301],[-45.764125165392997,-23.5997811969971],[-45.7640552056952,-23.599737238396401],[-45.764206570813599,-23.599486476586101],[-45.764165464769903,-23.599223001941301],[-45.764261726186703,-23.599072623615498],[-45.764054741853897,-23.598560728798599],[-45.764015066719601,-23.5985107584921],[-45.764012611548502,-23.5984765205739],[-45.764080708124702,-23.598203034650901],[-45.764446060701999,-23.597801215872099],[-45.764506362469497,-23.597592397147501],[-45.764478342263203,-23.597203378832599],[-45.764384516120899,-23.596874411747699],[-45.764383040862597,-23.5966994521233],[-45.7642315473731,-23.596386812889499],[-45.764201808186201,-23.596188216240101],[-45.764170262167198,-23.595925511641902],[-45.764140094440499,-23.5957121836882],[-45.764255312955903,-23.595653552889502],[-45.763623121340203,-23.5956096316383],[-45.763667597126002,-23.5956675150553],[-45.7636799355313,-23.595931353287401],[-45.763684899866298,-23.595970696384299],[-45.763701180200798,-23.596048276795099],[-45.763679283300903,-23.596155294784001],[-45.7636754893933,-23.596229246617199],[-45.763681839755002,-23.596265886530801],[-45.763720717796303,-23.5963510355013],[-45.763820854404898,-23.596442081195399],[-45.763850906581602,-23.5964833905003],[-45.763898402662697,-23.596595830160499],[-45.764097880543297,-23.597247347296999],[-45.764123457504503,-23.597430949884899],[-45.7641163301248,-23.5975158557053],[-45.764103731959302,-23.597576464749299],[-45.764045064618998,-23.597705491737401],[-45.7639828596838,-23.597794558995101],[-45.763891307390601,-23.597896117567],[-45.7637951096726,-23.598031351663899],[-45.7637553931214,-23.598100891770802],[-45.763742627891901,-23.598146661396399],[-45.763710565093298,-23.598322948552301],[-45.763807784301299,-23.5983671363451],[-45.763833049469802,-23.598646628895899],[-45.763808252532002,-23.598773816283799],[-45.764013878208402,-23.5990081111172],[-45.763963406322503,-23.599153010230999],[-45.764007146100397,-23.599325563637699],[-45.763879353375401,-23.599587626444102],[-45.763702613089997,-23.599670194273902],[-45.763804810699703,-23.599951569848699],[-45.763829585942403,-23.599988421406799],[-45.7638942390208,-23.600064612439599],[-45.7640770833125,-23.5999584323989]]],[[[-45.761706693352401,-23.595563179465898],[-45.762139769600097,-23.595461300780102],[-45.762561021279097,-23.5954713631752],[-45.763061560288598,-23.595535620442199],[-45.763405575828699,-23.595558727340499],[-45.763487806648897,-23.595389263678701],[-45.763517180457697,-23.595342689934299],[-45.763670706542598,-23.5953037233967],[-45.763656045224202,-23.595011264661899],[-45.7637889545178,-23.5949293825845],[-45.763787211726601,-23.5942583898198],[-45.763838889205701,-23.594214377784901],[-45.763887174101598,-23.594163033745701],[-45.763868325994203,-23.594127084643102],[-45.763853725470298,-23.594106513259799],[-45.7638598184733,-23.594051762709899],[-45.763859818188301,-23.59392394728],[-45.763857369147303,-23.5938890530715],[-45.763844623396999,-23.593837981361698],[-45.763821445158499,-23.593790127258899],[-45.763757072007799,-23.593686891733299],[-45.763709462706103,-23.5936263329192],[-45.763641879713298,-23.593405696104899],[-45.763531785752903,-23.5930117200894],[-45.763411388006197,-23.593181871938899],[-45.763235452685798,-23.5929220965319],[-45.763152412182002,-23.592188629744001],[-45.763228312449201,-23.591987487918001],[-45.763222704732598,-23.5917132656684],[-45.7632739130799,-23.591533391380999],[-45.763316301516603,-23.590977766822899],[-45.763374564111203,-23.590853944548002],[-45.763166577513097,-23.5910476826391],[-45.763105230965301,-23.591549165545501],[-45.763027014253304,-23.5915314046429],[-45.762864061768497,-23.591319308984001],[-45.762826445722901,-23.591106179908799],[-45.762863062528602,-23.5909478740443],[-45.762795747055002,-23.590923435356402],[-45.7628081622994,-23.590779779936799],[-45.763006108395899,-23.590424165910999],[-45.763132304402099,-23.590236826931601],[-45.763261103842503,-23.589936191518401],[-45.763389917365402,-23.589615436584001],[-45.7632095122339,-23.589289201818499],[-45.7630384495382,-23.5888476656555],[-45.7630086943281,-23.5887540172073],[-45.762856530264898,-23.588531479583999],[-45.762627124786398,-23.5885900003152],[-45.7624125480652,-23.5885900003152],[-45.762187242507899,-23.588688323884998],[-45.761961936950698,-23.588766982687901],[-45.761661529541001,-23.588914467816199],[-45.761479139328003,-23.5889537971557],[-45.761200189590497,-23.588894803142001],[-45.760996341705301,-23.5888554737848],[-45.760792493820198,-23.588845641443601],[-45.760567188262897,-23.5888554737848],[-45.760352611541698,-23.5889243001522],[-45.760180950164802,-23.589042288126599],[-45.759934186935403,-23.589199605260799],[-45.759687423706097,-23.589425748310699],[-45.759580135345502,-23.589602729556201],[-45.760717391967802,-23.590123839615],[-45.7607066631317,-23.590330316612899],[-45.7607710361481,-23.590566289927001],[-45.760824680328398,-23.590723605233901],[-45.760620832443202,-23.590930081288001],[-45.760459899902301,-23.591136557017201],[-45.760320425033598,-23.591352864575398],[-45.760245323181202,-23.591579003914099],[-45.760223865508998,-23.591864135568098],[-45.760256052017198,-23.592168930788901],[-45.760320425033598,-23.592483557370802],[-45.760277509689303,-23.5926801986013],[-45.760138034820599,-23.592876839537102],[-45.759987831115701,-23.593024320045501],[-45.759805440902703,-23.593171800388099],[-45.759623050689697,-23.593338944576001],[-45.759537220001199,-23.593574912478701],[-45.7596659660339,-23.593742056153001],[-45.759902000427203,-23.593850207828702],[-45.760148763656602,-23.594056678962101],[-45.760427713394201,-23.594164830378499],[-45.760717391967802,-23.5942336539606],[-45.760495402585597,-23.594577483220501],[-45.760352881609698,-23.594880698050801],[-45.760506032278997,-23.595038093428499],[-45.7605632895593,-23.595124836518401],[-45.760660996803203,-23.595235045417301],[-45.7607900774481,-23.595364812025199],[-45.760833186010302,-23.5954222189483],[-45.760878993954201,-23.5954541350015],[-45.760974884033203,-23.595531463321201],[-45.761098265647902,-23.595580622514301],[-45.761205554008498,-23.595629781688899],[-45.761302113532999,-23.5956592771849],[-45.761452317237897,-23.595629781688899],[-45.761706693352401,-23.595563179465898]],[[-45.763212900112102,-23.594735627320901],[-45.761876046614198,-23.594660666996099],[-45.761174901624599,-23.594825879321299],[-45.761162603678002,-23.594851200171],[-45.7610046373632,-23.594284598589802],[-45.761010428628197,-23.594211549337601],[-45.760989232668997,-23.5941304179395],[-45.760942252981202,-23.594059078375398],[-45.760873945557996,-23.5940042971026],[-45.760790789274502,-23.593971270041699],[-45.760521919121203,-23.593907390261698],[-45.760309150077397,-23.593824897755599],[-45.7600996353938,-23.5936495932676],[-45.760032894851904,-23.593607578713101],[-45.759863641743998,-23.593530026503199],[-45.7598797038832,-23.5934858677807],[-45.760006246816403,-23.5933699023653],[-45.760181739746798,-23.593227998963702],[-45.760352409737202,-23.5930622791861],[-45.760384134376103,-23.593025097090901],[-45.760523609021398,-23.592828455943302],[-45.760565750562598,-23.592733627648801],[-45.760608665489698,-23.592536986350598],[-45.760609346202898,-23.592433348743899],[-45.760547408198804,-23.592130626666599],[-45.760518867308498,-23.5918603598845],[-45.761064088479699,-23.591894367942398],[-45.761473089723602,-23.5918581018223],[-45.762792629568096,-23.5920287743862],[-45.762814774529097,-23.5922486090905],[-45.762894551773101,-23.592677520992599],[-45.762942132684202,-23.592992441686],[-45.763069499877901,-23.5935293252295],[-45.7631594174958,-23.593824711373902],[-45.763268022904398,-23.593692352979598],[-45.763473530921303,-23.593704441686501],[-45.7636119599834,-23.593976883755602],[-45.763610536266,-23.594292758754701],[-45.763669468712003,-23.594558710306099],[-45.763618595403898,-23.594812573150602],[-45.763507782257498,-23.594856898409098],[-45.763570240576399,-23.595040243796799],[-45.763429205662803,-23.595054347288201],[-45.763239815921601,-23.5949818150469],[-45.763212900112102,-23.594735627320901]],[[-45.761574836338497,-23.591236540818599],[-45.761464023193597,-23.591077372846801],[-45.761201591822598,-23.590999138123699],[-45.761184140971601,-23.590594149858099],[-45.7609953052444,-23.5899255098781],[-45.760834117206997,-23.589867002151301],[-45.760021023565102,-23.589502147787002],[-45.761468831841803,-23.589290684975101],[-45.762702837032002,-23.588945717184501],[-45.762677195373399,-23.589241322657699],[-45.7626254487963,-23.589580028576599],[-45.762547562384199,-23.589991320349601],[-45.762496282149499,-23.590410819067799],[-45.7625368815945,-23.591416345347501],[-45.7625056667557,-23.591389664436999],[-45.761574836338497,-23.591236540818599]]],[[[-45.764172077179097,-23.589396251413401],[-45.7643008232113,-23.589347089903001],[-45.764440298080402,-23.589347089903001],[-45.7645905017853,-23.589248766826199],[-45.764687061310099,-23.589238934514999],[-45.764815807342302,-23.589199605260799],[-45.764692018225098,-23.5893205939566],[-45.765215494262101,-23.589094382341901],[-45.765289695457902,-23.588945773670002],[-45.765293853267501,-23.5887382127843],[-45.765568952110797,-23.588099411761199],[-45.765562332723,-23.588098906328],[-45.765574227562297,-23.588084561447999],[-45.765599888068998,-23.587886777449999],[-45.765399547121,-23.5870080963921],[-45.765395164489803,-23.587006980698099],[-45.765084028243997,-23.587567430820901],[-45.7647836208344,-23.588039386962301],[-45.764921041290798,-23.588501434422501],[-45.7647920246906,-23.588649267575502],[-45.764768327616203,-23.5887235058184],[-45.7645304136948,-23.5889016665299],[-45.764212289953903,-23.589008380968401],[-45.7642226020143,-23.589085961380601],[-45.764312691622301,-23.589087819199801],[-45.764461100838702,-23.5890775878587],[-45.764379954632801,-23.589184977590602],[-45.764042637912198,-23.589270346944399],[-45.763930641589297,-23.589505971297999],[-45.764121263710898,-23.589430147037199],[-45.764172077179097,-23.589396251413401]]]]}}
]
}
