{
"type": "FeatureCollection",
"name": "Fazenda Carmelina (1881)",
"crs": { "type": "name", "properties": { "name": "urn:ogc:def:crs:OGC:1.3:CRS84" } },
"features": [
{"type":"Feature","properties":{"Nome do Projeto":"Fazenda Carmelilna","Tipo":"Programa Nascentes","Município":"Salesópolis","Região Hidrográfica":"Paraná","UGRHI":"05 - Piracicaba, Capivari e Jundiaí","Propriedade":"Fazenda Carmelilna","Área (ha)":8.1150085773835183,"Ano de Implantação":"2020","Metodologia de Restauração":null,"Monitoramento":"5 anos","Status do Projeto":"Ativo","Fotos do Projeto":null},"geometry":{"type":"MultiPolygon","coordinates":[[[[-45.7615823368997,-23.600362371814001],[-45.761586980509797,-23.600367052569901],[-45.761585786889498,-23.6003612843224],[-45.761246739169401,-23.600014693310499],[-45.761032261290701,-23.600015744563699],[-45.7610992448056,-23.600118951095801],[-45.760940369349498,-23.600020901005301],[-45.760909197487003,-23.600014815917],[-45.760918435229101,-23.600056812550498],[-45.7609325202748,-23.6000991721946],[-45.760951042979798,-23.600140055607799],[-45.7609738249636,-23.600179069058999],[-45.761015493444603,-23.6002332669824],[-45.761047879310198,-23.600266009989699],[-45.761083591873202,-23.600295670018301],[-45.761138079732,-23.6003311199743],[-45.761140478018802,-23.600184634789102],[-45.761299869986502,-23.6003720985603],[-45.761319659719703,-23.600392146532599],[-45.7613946887097,-23.600397338690801],[-45.761466555767299,-23.600392265763599],[-45.761536837229698,-23.6003775300175],[-45.7615823368997,-23.600362371814001]]],[[[-45.762621533918903,-23.6002158033785],[-45.7625329380012,-23.600206005433101],[-45.762498771312998,-23.600207008805199],[-45.762464962094498,-23.600211660966501],[-45.762415915978899,-23.600225329747701],[-45.762384975279502,-23.600238722898499],[-45.762342244269,-23.600264781238199],[-45.7623120436701,-23.600290122888399],[-45.762283043495302,-23.6002896860027],[-45.762244833614801,-23.600293468654002],[-45.7622155015166,-23.600248336051099],[-45.762156369653702,-23.600181007793001],[-45.762113651484803,-23.600103941557901],[-45.762091023361201,-23.600073343063301],[-45.761961152717703,-23.599941687931299],[-45.7618752591207,-23.5998656698217],[-45.761861702788202,-23.599813617683299],[-45.7618355729916,-23.599751713918401],[-45.761812790825402,-23.599712700591802],[-45.761771122179503,-23.5996585028795],[-45.761738736282503,-23.599625760021301],[-45.761684026315997,-23.599582516818099],[-45.761643977820498,-23.599558006940001],[-45.7615795057052,-23.599528310115499],[-45.761534195006298,-23.599513502266099],[-45.761487527508102,-23.5995028584897],[-45.761415967898103,-23.599494913473801],[-45.761343917788601,-23.599496730605299],[-45.761272936830899,-23.599508270549101],[-45.761204561533603,-23.599529283502701],[-45.761140272002599,-23.599559314603599],[-45.761081459902698,-23.599597713774799],[-45.761029398333399,-23.5996436497967],[-45.760999004219599,-23.599677975989898],[-45.7609724074496,-23.599714882296599],[-45.760940182013599,-23.599774296018701],[-45.7609241132552,-23.5998160517405],[-45.760912563091402,-23.599859057836898],[-45.760905642760797,-23.599902900136598],[-45.760903489425701,-23.599944166598299],[-45.760919535591803,-23.599950411169502],[-45.761118910807603,-23.5999870831225],[-45.761368618733201,-23.599896442594002],[-45.761799232290798,-23.600181404516999],[-45.761999967654198,-23.600453375012702],[-45.762163951031603,-23.600551398915901],[-45.762403554805999,-23.600479630821301],[-45.762626804284601,-23.600229109863701],[-45.762621533918903,-23.6002158033785]]],[[[-45.771798374381902,-23.5958353408314],[-45.771708244770799,-23.595599506594102],[-45.771432334290601,-23.595576520779801],[-45.771203908259103,-23.595553768325601],[-45.771164020037297,-23.595640834747702],[-45.771318066141603,-23.5957859595953],[-45.771278067644701,-23.595932048045501],[-45.771362520333,-23.596114470474301],[-45.7718116063675,-23.596152074954698],[-45.771886823591799,-23.596176889294199],[-45.771956865095802,-23.5961805569973],[-45.771953550592599,-23.596173410421599],[-45.771723099338097,-23.5960616087673],[-45.771798374381902,-23.5958353408314]]],[[[-45.767771635115302,-23.593596435339901],[-45.767815997088299,-23.593579365727201],[-45.7678583299598,-23.593558371026798],[-45.767917139191297,-23.5935199715964],[-45.767952668015603,-23.593490126580001],[-45.767984851518101,-23.593457215903701],[-45.768013379753597,-23.593421556518301],[-45.768037977980804,-23.593383491845199],[-45.768058409307898,-23.59334338847],[-45.768074476972799,-23.593301632611801],[-45.768086026238997,-23.593258626403699],[-45.768092945884803,-23.593214784019899],[-45.768093641986397,-23.593137917415302],[-45.768336534470102,-23.592942037777298],[-45.768368020835403,-23.592912067899402],[-45.7689567136485,-23.592193218352701],[-45.769410230206397,-23.591619300024899],[-45.7694364664776,-23.591578654313],[-45.769785396052001,-23.5909183462242],[-45.769979329081998,-23.590445094742002],[-45.770114263541501,-23.590177167952898],[-45.769968316738897,-23.590260606428],[-45.769902320222698,-23.590326819323899],[-45.7698009094931,-23.5904496812256],[-45.769678963802498,-23.5905538203051],[-45.769510293206899,-23.590526419201598],[-45.769441980880998,-23.590225281765299],[-45.7692448573601,-23.590704722346501],[-45.768971874284702,-23.591220693239201],[-45.7689770544022,-23.591226566806299],[-45.769044981441802,-23.5913818856768],[-45.769070289546903,-23.5915843591489],[-45.769009135246797,-23.591671137009001],[-45.768827157660802,-23.5917263936071],[-45.7687098070611,-23.591830744512201],[-45.768676108227297,-23.592028568622901],[-45.7686339782217,-23.592159725094],[-45.768327483746098,-23.592470081068601],[-45.7682039935871,-23.5924410432672],[-45.768243414518402,-23.5923049588719],[-45.7684385381827,-23.592205165001801],[-45.768550340605799,-23.592068722429001],[-45.7686690480243,-23.591737058980002],[-45.768597656826103,-23.5917273765094],[-45.768484964889801,-23.591869990972299],[-45.767925364153299,-23.592553759009199],[-45.767706561163202,-23.592730211323602],[-45.767651946180202,-23.592722395872801],[-45.7676039245748,-23.592720346677599],[-45.767555916260903,-23.592722645213701],[-45.767508383579802,-23.592729269345],[-45.767461784292998,-23.5927401552783],[-45.767394613642601,-23.592764234745001],[-45.7673522809528,-23.592785229321599],[-45.767312108814899,-23.592810146571701],[-45.767442361381299,-23.5928574179826],[-45.767641604933203,-23.5930046764237],[-45.767696199135301,-23.5931724153406],[-45.767504185524203,-23.593346314444201],[-45.767504961723098,-23.593479729314701],[-45.767489509152497,-23.593588517208101],[-45.767492551748603,-23.593611041633402],[-45.767558662927499,-23.593621204862501],[-45.767606684860603,-23.593623254072501],[-45.767654693502102,-23.593620955521899],[-45.767702226497697,-23.593614331347201],[-45.767771635115302,-23.593596435339901]],[[-45.769144170783903,-23.5913813945598],[-45.769090079646602,-23.591300128735298],[-45.769131805663399,-23.591099794070299],[-45.769241372220797,-23.591039954308901],[-45.769307253785499,-23.590844441406301],[-45.7693064614555,-23.5907085559016],[-45.769509537823602,-23.5905938970451],[-45.769598190803102,-23.590625577164602],[-45.769671004172899,-23.590699337902102],[-45.769546174816497,-23.590900084429801],[-45.769514567411001,-23.590996598967401],[-45.769478203584498,-23.591196907161901],[-45.769449190401303,-23.591278584533899],[-45.769366215555401,-23.5913012319842],[-45.769293992659101,-23.591328767574598],[-45.769294309594599,-23.591383121772498],[-45.769335068953303,-23.5914768071361],[-45.769280916284302,-23.591627819223799],[-45.769183848113997,-23.591749334874098],[-45.769103251265697,-23.591720085364098],[-45.769164290293098,-23.591613542305701],[-45.769144170783903,-23.5913813945598]]],[[[-45.768924072166399,-23.591335540629998],[-45.7689173981517,-23.591322733779698],[-45.768675240885997,-23.591629191718798],[-45.768738360145299,-23.591670006610599],[-45.768802540954702,-23.591642511077701],[-45.768890186575803,-23.5915012463959],[-45.768924072166399,-23.591335540629998]]],[[[-45.773186300708403,-23.5904258081416],[-45.773266814427103,-23.590223044002698],[-45.7732995027119,-23.590212575001299],[-45.7732580090928,-23.590185217921],[-45.773227963772598,-23.590171254708299],[-45.773212755806199,-23.590061419698898],[-45.773189200714697,-23.590049303723902],[-45.7728364583242,-23.589980467206001],[-45.772913850991699,-23.590116559772699],[-45.772786581403501,-23.590183078727399],[-45.772730330281497,-23.5901692401847],[-45.772694669413497,-23.590183535952001],[-45.772640761748796,-23.5902170461965],[-45.7726703020261,-23.590449969722499],[-45.772683306386099,-23.590493043241398],[-45.772703821662802,-23.590533558550799],[-45.772716728847399,-23.590552508376401],[-45.772747402606001,-23.590587146808399],[-45.772783841046298,-23.590616663256402],[-45.7728250514349,-23.590640253567901],[-45.772869911028799,-23.590657275043199],[-45.772917197662899,-23.590667263944798],[-45.772975123516503,-23.5906748475306],[-45.773099347686603,-23.5907832691856],[-45.773194652315098,-23.590942069271499],[-45.7732170404717,-23.5909741899093],[-45.773244106198199,-23.5910030907656],[-45.773373810814199,-23.591121955692302],[-45.773539483434,-23.591309506531399],[-45.773738520762599,-23.591571842592],[-45.7737971079993,-23.591630153342798],[-45.773805479256502,-23.591519251811199],[-45.773813897699398,-23.591213311836398],[-45.773186300708403,-23.5904258081416]]],[[[-45.772642863126102,-23.590056728260802],[-45.7726727563333,-23.589929514187101],[-45.772687523780696,-23.589835318223901],[-45.7728148482189,-23.589778211331399],[-45.772891413740098,-23.589773124273499],[-45.772937479863003,-23.589791719565799],[-45.772989120897499,-23.589890291230599],[-45.773152519614797,-23.589889478049098],[-45.773300213558699,-23.589822857128201],[-45.773473686657297,-23.589798462834501],[-45.773677382996297,-23.589703325952001],[-45.773758337099899,-23.5895758573681],[-45.773788725896999,-23.5895333508745],[-45.773788173934001,-23.589439231128399],[-45.773859246607202,-23.589368285212199],[-45.773951102796502,-23.589358415339099],[-45.774012295627401,-23.589370356588201],[-45.7740217920039,-23.589355851814101],[-45.773961273766801,-23.589351305477301],[-45.773843445042402,-23.589286006744899],[-45.773756501902298,-23.589262909207299],[-45.773582864023602,-23.5892590678727],[-45.773481016193699,-23.589306636279101],[-45.773406359277303,-23.5893238124928],[-45.773382645488503,-23.589386593972101],[-45.773341136571197,-23.5893973962798],[-45.773291132408403,-23.589419310867001],[-45.773268031272103,-23.589433424021401],[-45.7732363372509,-23.5894581923434],[-45.773199143721499,-23.589499003643098],[-45.773171358724397,-23.589499003642398],[-45.773007794999799,-23.589591359353001],[-45.772875281929601,-23.589634373838798],[-45.772655687753797,-23.589630760120301],[-45.772517462152003,-23.5895702679531],[-45.772302092830103,-23.5894160366928],[-45.772299654808002,-23.589406534204599],[-45.771813323449599,-23.589165117637101],[-45.771596431732199,-23.589120946717301],[-45.771596695418502,-23.589118409373601],[-45.7715677378865,-23.589122200491801],[-45.7715191867348,-23.589089653450699],[-45.771459623669998,-23.589062622229701],[-45.771394997148001,-23.589048601830701],[-45.771350722732102,-23.589046865104201],[-45.7712850372898,-23.5890557738323],[-45.771223197424497,-23.589078042851799],[-45.771010224315802,-23.589200727712601],[-45.770970673130101,-23.5892343029298],[-45.770938421101697,-23.589273957148599],[-45.7709145477886,-23.589318363049301],[-45.770891750965497,-23.589387639061201],[-45.770870762052098,-23.589401378318101],[-45.7707389580941,-23.589431919844301],[-45.770700201092602,-23.589445528091701],[-45.7706639083993,-23.5894640287074],[-45.770566549300199,-23.589527474969799],[-45.770358172081501,-23.589547426669199],[-45.770423920283797,-23.589580665146901],[-45.770582404903401,-23.589612821939099],[-45.7706439541912,-23.589659577875899],[-45.7707472878297,-23.589866134786899],[-45.770856853968503,-23.590001927373098],[-45.770948810914597,-23.589941732694001],[-45.771093760899397,-23.589907217402601],[-45.7711193717996,-23.589897582855102],[-45.771155664361999,-23.589879082296701],[-45.771317291481502,-23.589773566247601],[-45.771345891959001,-23.589751995259402],[-45.771382733611198,-23.5897138767074],[-45.771412353337404,-23.5896674847152],[-45.771444306910702,-23.589673787924301],[-45.7714876061696,-23.589676954659701],[-45.771516549627897,-23.589675778172499],[-45.771585035807398,-23.5896671232138],[-45.772271227444499,-23.5900077503902],[-45.772442419522001,-23.590079879444801],[-45.772468783367302,-23.5899775898929],[-45.772586612071798,-23.590042889664002],[-45.772642863126102,-23.590056728260802]],[[-45.771618729874199,-23.5895676756098],[-45.771394414770398,-23.5896299693263],[-45.771332590133298,-23.589536153793301],[-45.771260910799697,-23.589503566808201],[-45.771280730397301,-23.5893999336161],[-45.7713926539558,-23.589328785967901],[-45.7715208040173,-23.589412859828698],[-45.771791129458798,-23.589359749601499],[-45.772164322020402,-23.589433193020401],[-45.7723690931508,-23.589521591408602],[-45.772422327781101,-23.589676972242799],[-45.772421918291599,-23.589822520793099],[-45.772257039231803,-23.589893939452999],[-45.772156533163198,-23.589847370818099],[-45.771889743849798,-23.589632214940099],[-45.771618729874199,-23.5895676756098]]],[[[-45.767757222070003,-23.588499692826002],[-45.767567801302597,-23.5884159185313],[-45.767543006669896,-23.588391804000199],[-45.767495206312397,-23.588424886534401],[-45.767447659788502,-23.588397158865799],[-45.767275998649403,-23.588318500130701],[-45.767228853906701,-23.588301173013999],[-45.7671791775633,-23.588291579647301],[-45.766947772133101,-23.588266131296301],[-45.766683331065202,-23.588170924230599],[-45.766633028442399,-23.5881572451535],[-45.766598370885703,-23.5881528085546],[-45.766563386849398,-23.588152199349601],[-45.766256146748802,-23.588179891631999],[-45.7656332183007,-23.5881122878239],[-45.765403777481701,-23.588792025403102],[-45.765521775527702,-23.588659269416802],[-45.766234720787097,-23.588722670082099],[-45.766282879930799,-23.588721862470301],[-45.766534163196503,-23.5886988338364],[-45.7667677493341,-23.588782932108401],[-45.766803548500199,-23.588793581610499],[-45.766840530385302,-23.588799929643098],[-45.767058658095898,-23.588823917866499],[-45.767148001646397,-23.588864856987598],[-45.7672451621279,-23.5889464788231],[-45.767276347586296,-23.588969562653599],[-45.767328764258998,-23.588996357644799],[-45.767366523914902,-23.5890085180142],[-45.767425640652199,-23.589017641980099],[-45.767465638890499,-23.5890174826174],[-45.767505243240699,-23.589012319552001],[-45.767543720178502,-23.589002248410502],[-45.7676939241382,-23.588953086561698],[-45.767733693337298,-23.588936586239399],[-45.767934610573,-23.589028650584101],[-45.767979400258199,-23.589045312869501],[-45.768010646767699,-23.589052560118699],[-45.7680586587486,-23.589057422054999],[-45.768344680492497,-23.5890739054826],[-45.768469769839498,-23.589149382579599],[-45.768527246540202,-23.588975706274802],[-45.768464544635499,-23.5889550430621],[-45.768321681222702,-23.588974574239199],[-45.768245170717996,-23.5889890710251],[-45.768214643227601,-23.589008046511701],[-45.768020498753003,-23.588990181968299],[-45.767995022628803,-23.588999720179299],[-45.767789734787598,-23.588821902028702],[-45.767861221236103,-23.5888215486906],[-45.7679275193438,-23.588807102578802],[-45.767932187304098,-23.5887317814291],[-45.767840029754801,-23.588689881805902],[-45.767834485429297,-23.588614611133799],[-45.767957006043098,-23.588609299366599],[-45.768023879253697,-23.588693679095101],[-45.768085454620902,-23.588745142080199],[-45.768167317746297,-23.588772974072199],[-45.768294944657697,-23.588767636785398],[-45.768361598933197,-23.588814368409199],[-45.768463722411099,-23.5888138632546],[-45.768463557967003,-23.5887856272928],[-45.768422516744003,-23.5887528874065],[-45.768406841961401,-23.588691785260998],[-45.768421941223302,-23.588654061538001],[-45.768560328550898,-23.588742793392498],[-45.768698249995502,-23.5887515232303],[-45.768764739891701,-23.588770018717799],[-45.768821373922698,-23.588849742630799],[-45.7689489185912,-23.588830286826099],[-45.769010850924502,-23.588942927341002],[-45.769139163736902,-23.589055239177],[-45.769374487161002,-23.5891293719136],[-45.769428070107097,-23.589256567999701],[-45.769406551230702,-23.589373931773199],[-45.769805410945601,-23.589470784395001],[-45.770005211766303,-23.589582741200601],[-45.770029890967102,-23.589569455576399],[-45.768662904787298,-23.588596090438902],[-45.768058595216203,-23.588517027594701],[-45.767757222070003,-23.588499692826002]]],[[[-45.774499015127901,-23.5890766354118],[-45.774621463320798,-23.589008435941],[-45.774726137936099,-23.588980941985099],[-45.774763970102597,-23.588964811976702],[-45.774787649369699,-23.588951384342899],[-45.7749276918872,-23.5888554202214],[-45.775057848064002,-23.588749468014498],[-45.775095630512503,-23.588705345064799],[-45.775187807271401,-23.588568653721399],[-45.775201040711103,-23.588538435297099],[-45.775210226077398,-23.588507029064498],[-45.774675385396101,-23.588077577675801],[-45.7746532247453,-23.5881758704252],[-45.774635569682303,-23.588362863983399],[-45.774621853656903,-23.5883826167134],[-45.774565218889798,-23.588428752204599],[-45.774491083689703,-23.588479707623399],[-45.774426206892002,-23.588495922821799],[-45.774386540313699,-23.588508826324201],[-45.7743492787124,-23.588526816493399],[-45.774230712234598,-23.588593683652299],[-45.774122139299003,-23.58863514223],[-45.773974945384403,-23.588701961605],[-45.773829517256203,-23.5887791516341],[-45.773683286819796,-23.588873144158299],[-45.7736353411346,-23.588919679713001],[-45.7735541714951,-23.5890214900197],[-45.773475626212502,-23.589144518787698],[-45.773439764378701,-23.589235373477202],[-45.773582477757003,-23.589193184045001],[-45.773817389735697,-23.589196720165301],[-45.7739454307358,-23.589261968040901],[-45.774077129088496,-23.589279504088999],[-45.774136182190801,-23.589241495040699],[-45.7742462723294,-23.589182641936301],[-45.774357532556003,-23.5891316602447],[-45.774499015127901,-23.5890766354118]]]]}}
]
}
