{
"type": "FeatureCollection",
"name": "Fazenda Modelo",
"crs": { "type": "name", "properties": { "name": "urn:ogc:def:crs:OGC:1.3:CRS84" } },
"features": [
{"type":"Feature","properties":{"Nome do Projeto":"Fazenda Modelo","Tipo":"Programa Nascentes","Município":"Joanópolis","Região Hidrográfica":"Paraná","UGRHI":"05 -  Piracicaba, Capivari e Jundiaí","Propriedade":"Fazenda Modelo","Área (ha)":68.354889747792683,"Ano de Implantação":"2019","Metodologia de Restauração":null,"Monitoramento":"5 anos","Status do Projeto":"Ativo","Fotos do Projeto":null},"geometry":{"type":"MultiPolygon","coordinates":[[[[-46.18344,-22.891664],[-46.183233,-22.891635],[-46.183070610236598,-22.8916472766246],[-46.183056858973899,-22.891670195395701],[-46.182925458019803,-22.891760342561899],[-46.182708279913498,-22.891781000003199],[-46.182438,-22.891892],[-46.18237,-22.892133],[-46.182299,-22.892248],[-46.182798,-22.892219],[-46.182888,-22.89238],[-46.182981,-22.892515],[-46.183162,-22.892372],[-46.183273,-22.892268],[-46.183506344625897,-22.892095235529201],[-46.183704146521201,-22.891671853237501],[-46.18344,-22.891664]]],[[[-46.189161,-22.891371],[-46.189314,-22.891092],[-46.189115,-22.890798],[-46.188986,-22.890719],[-46.188866,-22.890627],[-46.188838615543197,-22.890647656379102],[-46.188845413112603,-22.890670962331399],[-46.188829686877597,-22.8907142094777],[-46.18875891882,-22.890741730388999],[-46.188713900284299,-22.890741730388999],[-46.188589940175902,-22.8908352347811],[-46.188625245822401,-22.890859677151699],[-46.188698260487101,-22.8908998352195],[-46.1887235347915,-22.890904890077501],[-46.188554477765003,-22.891101468015201],[-46.188538751529997,-22.8911879623078],[-46.1884679834724,-22.891321635305498],[-46.1883696945035,-22.891349156216801],[-46.188318584239703,-22.8912272778954],[-46.188196025029399,-22.8911323690511],[-46.18817,-22.891152],[-46.187961,-22.891425],[-46.187591245869697,-22.891858293075501],[-46.187522,-22.892101],[-46.187408,-22.892523],[-46.187427,-22.892517],[-46.1876580823685,-22.8925659736515],[-46.187946,-22.892507],[-46.188048,-22.892574],[-46.188058,-22.892571],[-46.188074827596601,-22.8925463158577],[-46.18844,-22.892309],[-46.188875,-22.891831],[-46.189047,-22.891564],[-46.189161,-22.891371]],[[-46.188090553831898,-22.891675475593502],[-46.188122006301903,-22.891628296888399],[-46.188298926445903,-22.891683338711001],[-46.1884876412661,-22.891659749358499],[-46.188593793352503,-22.891687270269799],[-46.188570204,-22.89187598509],[-46.188365762944699,-22.891962479382599],[-46.1881927743595,-22.892041110557699],[-46.188145595654397,-22.892088289262801],[-46.188019785774301,-22.892131536409099],[-46.187964743951703,-22.892198372907998],[-46.187913633687899,-22.892253414730501],[-46.1878389340715,-22.892273072524301],[-46.1878585918653,-22.892084357704],[-46.187964743951703,-22.8919860687352],[-46.187984401745503,-22.891852395737502],[-46.188019785774301,-22.891840601061201],[-46.1880551698031,-22.891738380533599],[-46.188090553831898,-22.891675475593502]]],[[[-46.181622,-22.891013],[-46.181265485048002,-22.891712329735601],[-46.181198,-22.891988],[-46.181394,-22.892051],[-46.181662,-22.892116],[-46.181815,-22.891871],[-46.182041,-22.891826],[-46.182284,-22.891444],[-46.182036,-22.891333],[-46.181753,-22.891148],[-46.181622,-22.891013]]],[[[-46.189248057719702,-22.891216234777101],[-46.189320162566602,-22.891096660192101],[-46.189301473928303,-22.8910090763844],[-46.189285151190703,-22.891045980074701],[-46.189315906254102,-22.8910923771423],[-46.189248057719702,-22.891216234777101]]],[[[-46.183893,-22.889835],[-46.183787,-22.889876],[-46.183413,-22.889923],[-46.18329,-22.889936],[-46.1831910839093,-22.890065417927801],[-46.18337,-22.890781],[-46.183278,-22.890934],[-46.183077,-22.891201],[-46.183136,-22.891342],[-46.183141,-22.89137],[-46.18323,-22.891495],[-46.183412,-22.891571],[-46.183705,-22.891601],[-46.183870025476203,-22.891392403358299],[-46.184042,-22.891107],[-46.184094146720703,-22.8908974266398],[-46.184053,-22.890371],[-46.184111,-22.889817],[-46.183893,-22.889835]]],[[[-46.194266498056201,-22.889246253736101],[-46.194306348223797,-22.889196627798199],[-46.194344758987398,-22.8890497720848],[-46.1944518158977,-22.888693388277499],[-46.194606399503897,-22.888409700758999],[-46.194731238906101,-22.888085700910398],[-46.1947663405982,-22.8878087875575],[-46.194945573806798,-22.8872755744278],[-46.194919671389599,-22.886998886453998],[-46.1950022341235,-22.886475989139502],[-46.194966850094701,-22.886464194463201],[-46.194699504099297,-22.886613593695898],[-46.194565831101698,-22.886818034751201],[-46.194495063044101,-22.887085380746601],[-46.1944714736915,-22.8873370005069],[-46.194416431869001,-22.887502125974599],[-46.1943142113413,-22.887627935854798],[-46.1941962645787,-22.887627935854798],[-46.194023275993402,-22.887250506214301],[-46.193944644818302,-22.887085380746601],[-46.193818834938099,-22.887030338923999],[-46.193480720885198,-22.8879975023778],[-46.193331321652501,-22.888327753313199],[-46.193158333067203,-22.888807403481401],[-46.192953892012,-22.8896998673189],[-46.192953892012,-22.8897588407002],[-46.193472857767702,-22.889900376815401],[-46.193511622926501,-22.889861452818],[-46.193703669147403,-22.8894295452791],[-46.193798569821098,-22.889200860738601],[-46.193892558533499,-22.8890177281374],[-46.194058193956103,-22.889136348119202],[-46.194266498056201,-22.889246253736101]]],[[[-46.1853836756286,-22.8888919319946],[-46.185257865748397,-22.888864411083301],[-46.185183166132099,-22.8888250954958],[-46.185025903781899,-22.888640312234301],[-46.184837188961602,-22.8885105707954],[-46.184742831551503,-22.8884987761191],[-46.184589500759998,-22.8886088597643],[-46.184447964644797,-22.888722874968099],[-46.184330017882203,-22.888888000435902],[-46.184246988689999,-22.889025871589698],[-46.184267112942301,-22.8891985935776],[-46.184144237576,-22.8892271455349],[-46.184005664285003,-22.8893460270309],[-46.183905409536798,-22.889214319812599],[-46.183756010303902,-22.8890020156398],[-46.183842504596498,-22.8888526164071],[-46.184054808769297,-22.888463392090301],[-46.184216002678298,-22.888196046094901],[-46.184255318265798,-22.8881056202436],[-46.184743,-22.887943],[-46.184714,-22.887945],[-46.184502,-22.887842],[-46.184414,-22.887796],[-46.18426,-22.887557],[-46.184246,-22.887443],[-46.184251,-22.887369],[-46.1844,-22.887223],[-46.184494,-22.887047],[-46.184637,-22.886754],[-46.184773,-22.886484],[-46.184878,-22.886326],[-46.184947,-22.886138],[-46.185051,-22.885939],[-46.185134,-22.885802],[-46.185023,-22.885642],[-46.184982656635597,-22.885599251536998],[-46.184931,-22.885599],[-46.184815,-22.885546],[-46.184729,-22.885558],[-46.184581637642502,-22.885618909330798],[-46.184483348673602,-22.885685745829701],[-46.1844007859398,-22.885705403623401],[-46.184321,-22.885694],[-46.184245,-22.885812],[-46.184215,-22.886085],[-46.184122699992599,-22.886361961563502],[-46.1839903474877,-22.886648990623598],[-46.183961420486803,-22.886916294674901],[-46.183872989211601,-22.887068457789901],[-46.183819,-22.887307],[-46.183801729467199,-22.887323897115898],[-46.184033185196299,-22.8872013617299],[-46.184127542606397,-22.887177772377399],[-46.184237626251601,-22.887181703936101],[-46.184190447546499,-22.887276061346199],[-46.1839978011675,-22.8874647761665],[-46.183954554021199,-22.887559133576602],[-46.183989938049997,-22.887649559427999],[-46.184005664285003,-22.887720327485599],[-46.183954554021199,-22.887861863600801],[-46.183871991287297,-22.887971947245902],[-46.183856265052299,-22.8880387837448],[-46.183769770759703,-22.8880663046561],[-46.183695071143298,-22.887936563217099],[-46.183482470306203,-22.887790064865701],[-46.183482470306203,-22.887636253376101],[-46.183449,-22.887669],[-46.183342,-22.88806],[-46.183228,-22.888328],[-46.183059,-22.88881],[-46.183243,-22.889057],[-46.183445417156797,-22.889336198137201],[-46.183572,-22.889448],[-46.183602,-22.889525],[-46.183761,-22.88951],[-46.183932,-22.889519],[-46.184595,-22.889596],[-46.184782147140801,-22.889634996597099],[-46.184976,-22.88946],[-46.185234,-22.889168],[-46.185396,-22.888948],[-46.185419618781999,-22.888895668189001],[-46.1853836756286,-22.8888919319946]],[[-46.184267747957698,-22.887888410583901],[-46.184226496972599,-22.887954412159999],[-46.184178108333001,-22.887983866118699],[-46.184153097738204,-22.887944426334599],[-46.184145234620701,-22.887857932041999],[-46.184189640668201,-22.887751626655501],[-46.184209996578502,-22.8877729078256],[-46.184267747957698,-22.887888410583901]]],[[[-46.192367,-22.888139],[-46.192401,-22.887844],[-46.1924427893738,-22.887659388324799],[-46.192376,-22.887518],[-46.192328774169901,-22.887403837005699],[-46.192230485201001,-22.887305548036899],[-46.192162,-22.887289],[-46.192005,-22.887185],[-46.191788,-22.886906],[-46.191687,-22.886804],[-46.191636,-22.886725],[-46.191613230476399,-22.886633251489702],[-46.191617162035101,-22.886546757197099],[-46.191507078390003,-22.886365905494301],[-46.191362,-22.886136],[-46.191306568893502,-22.886012065206401],[-46.191347,-22.885956],[-46.191364,-22.885781],[-46.191386,-22.885737],[-46.191493,-22.885629],[-46.1916,-22.885478],[-46.191611,-22.885458],[-46.191727853954802,-22.885323853954802],[-46.192029,-22.884854],[-46.192293390141003,-22.884498415085599],[-46.192177,-22.884141],[-46.192047,-22.883991],[-46.192031,-22.883967],[-46.191972,-22.883842],[-46.19187,-22.883713],[-46.191775,-22.883642],[-46.191475903268703,-22.883510430105801],[-46.191352709195101,-22.883436874189801],[-46.191451,-22.883516],[-46.191695793210499,-22.883670821967598],[-46.191925789397601,-22.883865434126001],[-46.191831431987502,-22.8839008181548],[-46.191855021339997,-22.883987312447399],[-46.191772458606202,-22.8840698751813],[-46.191662374960998,-22.884058080505],[-46.191642717167298,-22.883977483550499],[-46.191625025152902,-22.883946031080502],[-46.191522835755102,-22.8840217206665],[-46.191457933905802,-22.884006970241199],[-46.191324260908097,-22.883963723094901],[-46.1911945194692,-22.883947996859899],[-46.191127682970297,-22.883975517771098],[-46.190785637358601,-22.883841844773499],[-46.190687348389702,-22.883837913214698],[-46.190648032802201,-22.883767145157101],[-46.1907197632624,-22.883725441439701],[-46.190710937742203,-22.883702274437599],[-46.1907227324185,-22.8836275748213],[-46.190773842682297,-22.883592190792498],[-46.1908799947687,-22.883603985468799],[-46.190943984647802,-22.883600912085601],[-46.191003140746197,-22.883629828722899],[-46.191166755653498,-22.883513879020899],[-46.191159135440401,-22.883495867602999],[-46.1912338350567,-22.883460483574201],[-46.1912829795411,-22.8834290311042],[-46.191308534673098,-22.8834192022073],[-46.191300139643602,-22.883405942896701],[-46.190389,-22.883347],[-46.190357,-22.883747],[-46.1902961582933,-22.8839794493299],[-46.190142827501901,-22.884022696476201],[-46.189859,-22.883639],[-46.189865,-22.883747],[-46.189853,-22.883872],[-46.189809,-22.884071],[-46.189821,-22.884324],[-46.189828,-22.884377],[-46.189808,-22.884438],[-46.189802,-22.884557],[-46.189807,-22.884604],[-46.189822,-22.884678],[-46.189855,-22.884721],[-46.189952,-22.884835],[-46.190117,-22.884974],[-46.19015,-22.885019],[-46.190256,-22.885273],[-46.190328,-22.885392],[-46.190402,-22.885493],[-46.190521,-22.885673],[-46.190622,-22.885835],[-46.1907286297564,-22.886019928323901],[-46.190812,-22.886209],[-46.1908774793418,-22.8864023730778],[-46.191127375633897,-22.886775795397199],[-46.190910100651301,-22.886788057272401],[-46.190696,-22.886732],[-46.190566,-22.886645],[-46.190335,-22.886475],[-46.190067,-22.886392],[-46.189815,-22.88632],[-46.189559,-22.886319],[-46.189513,-22.886657],[-46.189702492921299,-22.886782650722399],[-46.189865,-22.886849],[-46.190028812298003,-22.886951707748899],[-46.190078,-22.88699],[-46.190111375031897,-22.887211190626701],[-46.190386,-22.887287],[-46.190408159257998,-22.887297053081902],[-46.190389935378597,-22.887291780783801],[-46.190698973020098,-22.887432566123699],[-46.191017508371601,-22.887521267936201],[-46.191305,-22.887615],[-46.1914606245453,-22.8876522212651],[-46.191641556187598,-22.887736633964401],[-46.191668,-22.887868],[-46.191667,-22.888273],[-46.191677,-22.888532],[-46.191789,-22.888893],[-46.191892371148001,-22.889192696239402],[-46.191903,-22.889213],[-46.191905177720599,-22.889230566981102],[-46.192042170421601,-22.8892628240006],[-46.192109560224601,-22.8892703185846],[-46.192233313179898,-22.8892771937488],[-46.192520695042703,-22.889300569307],[-46.192517488990099,-22.8892359433857],[-46.192438,-22.888797],[-46.1924,-22.888673],[-46.192358,-22.88852],[-46.192328774169901,-22.888386726694598],[-46.192367,-22.888139]],[[-46.190648032802201,-22.8857427534317],[-46.190675553713398,-22.885727027196602],[-46.1908202752874,-22.8857762325623],[-46.1908406791812,-22.885707369402901],[-46.190817089828599,-22.885620875110199],[-46.1907620480061,-22.8855147230238],[-46.190632306567103,-22.885420365613701],[-46.190675553713398,-22.8852906241748],[-46.190777774241099,-22.8852788294985],[-46.191036067227699,-22.885334880191198],[-46.191070585931001,-22.885317288925702],[-46.191088399844197,-22.885346236537501],[-46.191147721236099,-22.885359109447101],[-46.191151272322799,-22.885227719234699],[-46.191210245704198,-22.885078320001998],[-46.191336055584301,-22.884885673623],[-46.191501181052097,-22.884736274390299],[-46.191678101196104,-22.884661574774],[-46.191823568869999,-22.884535764893801],[-46.191906131603901,-22.8843942287786],[-46.191992625896503,-22.884193719282099],[-46.192055530836598,-22.884193719282099],[-46.192098777982899,-22.884323460720999],[-46.192047667719102,-22.884429612807399],[-46.192039804601499,-22.884582943598801],[-46.191988694337702,-22.884803110889099],[-46.191870747575102,-22.8849760994744],[-46.191752800812402,-22.8850743884433],[-46.191709553666101,-22.8851530196184],[-46.1917056221073,-22.885306350409799],[-46.191571949109701,-22.885463612759999],[-46.191485454816998,-22.885554038611399],[-46.191406823641898,-22.885613011992699],[-46.191304301971002,-22.8855553435662],[-46.191292808438,-22.8856051488752],[-46.191297150153098,-22.885623384088198],[-46.191389015728497,-22.885723773265301],[-46.191379800718302,-22.8857355480006],[-46.191359834862901,-22.885778551381598],[-46.191352155687703,-22.885875308988901],[-46.191261029475498,-22.885933158775298],[-46.191237766615401,-22.885924153798001],[-46.191237766615501,-22.885982578515701],[-46.191206314145397,-22.886084799043399],[-46.191072641147699,-22.8861280461897],[-46.190950762826297,-22.8860494150146],[-46.190797432034898,-22.885931468251901],[-46.190800835472302,-22.885905942476501],[-46.190758116447299,-22.885896084223099],[-46.190675553713398,-22.885809589930499],[-46.190648032802201,-22.8857427534317]],[[-46.190038641195102,-22.884303802927199],[-46.190085819900098,-22.884244829545899],[-46.190215561339102,-22.8842762820159],[-46.190282397837898,-22.884260555780902],[-46.1903492343368,-22.8842959398097],[-46.1904671810994,-22.8843352553973],[-46.1905590421079,-22.8843831984227],[-46.190640169684599,-22.884352947411699],[-46.190728174120402,-22.884284744018899],[-46.190708971962898,-22.8842271375315],[-46.190728629756599,-22.884179958826401],[-46.190779740020503,-22.8841072249894],[-46.190821073177098,-22.884093447272399],[-46.190787992284399,-22.883853638136198],[-46.191056251470698,-22.883962170478799],[-46.191086968171398,-22.884021556100201],[-46.191285602836103,-22.884101419522],[-46.191287472377503,-22.8842154615709],[-46.191343918701897,-22.884235000648999],[-46.191324260908097,-22.884356878970401],[-46.191245629732997,-22.884525935996901],[-46.191229903497899,-22.884671403670801],[-46.191119819852801,-22.884773624198498],[-46.1910175993252,-22.884801145109801],[-46.190970420620097,-22.884852255373598],[-46.1909193103563,-22.884864050049799],[-46.190864268533701,-22.884864050049799],[-46.190942899708801,-22.8849151603137],[-46.190876063209998,-22.8849937914888],[-46.190793500476097,-22.885009517723802],[-46.190648032802201,-22.885009517723802],[-46.190581196303299,-22.885060627987599],[-46.190549743833301,-22.8850724226639],[-46.190392481483102,-22.884930886548702],[-46.190239150691603,-22.884848323814801],[-46.190155863295999,-22.884689320613401],[-46.190058298988902,-22.884626190745099],[-46.1900150518426,-22.884429612807399],[-46.190038641195102,-22.884303802927199]]],[[[-46.188421960473299,-22.8863586824531],[-46.188273690241999,-22.8864620223112],[-46.188516314256802,-22.886457529273901],[-46.188907208502698,-22.886592320393198],[-46.189050985696603,-22.8867136324006],[-46.189343033121702,-22.886812479221401],[-46.1894351403866,-22.886118304957002],[-46.189518261576801,-22.885765601528199],[-46.189077943920502,-22.885918364796701],[-46.189006055323503,-22.885985760356402],[-46.188772417383397,-22.886241863483001],[-46.188421960473299,-22.8863586824531]]],[[[-46.180682484281,-22.886057206213401],[-46.180610349767001,-22.8859829500961],[-46.180565796096602,-22.885874748325101],[-46.1805614411346,-22.885860957612199],[-46.180587173947103,-22.885797795254199],[-46.180689394474697,-22.885738821872899],[-46.1807562309736,-22.8857506165491],[-46.180791615002398,-22.885817453047999],[-46.180811272796198,-22.885896084223099],[-46.1808348621487,-22.8859393313694],[-46.1809528089114,-22.885943262928102],[-46.181019645410203,-22.885935399810599],[-46.181058960997703,-22.885896084223099],[-46.181176907760403,-22.885872494870501],[-46.181224086465498,-22.8858213846067],[-46.1812280180242,-22.885809589930499],[-46.181314512316803,-22.8858017268129],[-46.181416732844497,-22.885813521489201],[-46.181495364019597,-22.885864631753002],[-46.181597584547198,-22.885876426429299],[-46.181672284163596,-22.885892152664301],[-46.181699805074899,-22.885915742016799],[-46.181821683396301,-22.885876426429299],[-46.181849204307603,-22.885833179283001],[-46.181868862101297,-22.885727027196602],[-46.182030056010298,-22.8857034378441],[-46.182120481861702,-22.885699506285299],[-46.1821755236843,-22.885711300961599],[-46.182195181478001,-22.885738821872899],[-46.1821558658905,-22.885844973959198],[-46.182136208096701,-22.885888221105599],[-46.1820968925092,-22.885872494870501],[-46.181998603540301,-22.885911810458101],[-46.181860998983801,-22.886057278132],[-46.181825614955002,-22.886183088012199],[-46.181849204307603,-22.886320692568599],[-46.182132276537899,-22.886187019571],[-46.182238428624302,-22.885876426429299],[-46.182340649152003,-22.885817453047999],[-46.1823524438283,-22.8857506165491],[-46.182262017976903,-22.8856837800503],[-46.182128344979198,-22.8856444644627],[-46.181888519895097,-22.885691643167799],[-46.181589721429702,-22.885691643167799],[-46.180547858359603,-22.885577627963901],[-46.180437774714399,-22.886222403599799],[-46.180457432508199,-22.886399323743799],[-46.180512474330797,-22.886477954918899],[-46.180614694858399,-22.886481886477601],[-46.180720846944801,-22.886434707772601],[-46.180850588383699,-22.8863521450387],[-46.180869185375997,-22.886250272118499],[-46.180773713225101,-22.886127219123999],[-46.180682484281,-22.886057206213401]]],[[[-46.188255718092798,-22.885296079129301],[-46.187828879548398,-22.8850130177788],[-46.1876851023545,-22.885089399413101],[-46.187397547966597,-22.885156794972701],[-46.187065063205701,-22.885152301935399],[-46.187065063205701,-22.886149756218199],[-46.187330152407,-22.886176714442001],[-46.187851344734902,-22.886271068225501],[-46.188134406085403,-22.886405859344801],[-46.188237745943503,-22.886318245117302],[-46.188727487010297,-22.886163235330098],[-46.188884743316102,-22.885983513837701],[-46.188961124950403,-22.885817271457299],[-46.1884668908463,-22.8855611683306],[-46.188255718092798,-22.885296079129301]]],[[[-46.185564527331401,-22.884523970217501],[-46.184184550208201,-22.885534380817599],[-46.184487280232403,-22.885550107052602],[-46.184475485556099,-22.8856444644627],[-46.184491211791197,-22.885636273721499],[-46.184491211791297,-22.8855854910815],[-46.184546253613902,-22.8854773732157],[-46.184660268817801,-22.8853574606736],[-46.184762489345403,-22.8853004530717],[-46.184874538769897,-22.885274897939802],[-46.185053424693301,-22.885274897939802],[-46.185163508338498,-22.885308316189199],[-46.185204789705402,-22.8853495975561],[-46.185151713662201,-22.8853987420406],[-46.185257865748603,-22.8854872021126],[-46.185208721264203,-22.885589422640201],[-46.185098637618999,-22.885620875110298],[-46.185067366358702,-22.885622612402901],[-46.185179234573297,-22.885854802856102],[-46.185165474117703,-22.8859098446787],[-46.185143850544499,-22.886120183072101],[-46.185301112894699,-22.8860277914414],[-46.1853836756286,-22.885927536693099],[-46.185519314405703,-22.885921639355001],[-46.186040245940703,-22.885756513887301],[-46.186453059610102,-22.885601217316399],[-46.185564527331401,-22.884523970217501]]],[[[-46.193463006451097,-22.883538367272699],[-46.193363167830597,-22.883395416434301],[-46.1933273900937,-22.883385783957799],[-46.193221238007297,-22.883373989281601],[-46.193063975657097,-22.883425099545398],[-46.1929538920119,-22.883432962662901],[-46.192863466160603,-22.8833386052527],[-46.192761245632902,-22.883342536811501],[-46.192615777958999,-22.8833700577228],[-46.192509625872603,-22.8833307421352],[-46.192484950455999,-22.8831305972443],[-46.192450789683598,-22.883134867339201],[-46.192476600412903,-22.883062869008],[-46.192474241843797,-22.8830437383461],[-46.192421566951303,-22.883096413238601],[-46.192321,-22.883349],[-46.192188,-22.883659],[-46.192211,-22.884107],[-46.192456,-22.88434],[-46.192884,-22.884041],[-46.193254,-22.883736],[-46.193483813357602,-22.883581522809301],[-46.193461063091398,-22.8835587725431],[-46.193463006451097,-22.883538367272699]],[[-46.192578428151002,-22.8836944113201],[-46.192629538414899,-22.883619711703801],[-46.192778937647603,-22.883482107147401],[-46.192861500381397,-22.883513559617398],[-46.1929283368803,-22.883584327674999],[-46.192814321676401,-22.883749453142698],[-46.192629538414899,-22.8838909892579],[-46.192503728534703,-22.883977483550499],[-46.192334671508199,-22.884111156548201],[-46.192283561244402,-22.8840797040782],[-46.192220656304301,-22.8839814151093],[-46.192307150596903,-22.883926373286702],[-46.1924172342421,-22.8838713314641],[-46.192578428151002,-22.8836944113201]]],[[[-46.189093101314199,-22.882674171823101],[-46.188904386493903,-22.882489388561599],[-46.188786439731302,-22.882402894268999],[-46.188656698292398,-22.882288879065101],[-46.188484,-22.882169],[-46.187977830535203,-22.882104546991101],[-46.187574277484899,-22.8820169964252],[-46.187471,-22.882043],[-46.187321,-22.88197],[-46.187196,-22.881882],[-46.187031,-22.881938],[-46.18703,-22.882066],[-46.187049,-22.882157],[-46.186959,-22.882329],[-46.186897,-22.882521],[-46.187046,-22.882523],[-46.187331348846101,-22.882562986597801],[-46.187569,-22.882629],[-46.187997,-22.882678],[-46.188131944518602,-22.882750143944001],[-46.188601590104902,-22.883061774000801],[-46.188840718645203,-22.883185687148998],[-46.189075507428001,-22.8832637391452],[-46.189147275988397,-22.883292953474399],[-46.1894604747052,-22.883374797259801],[-46.189525572777299,-22.883326810576499],[-46.189525572777299,-22.883216726931298],[-46.189490188748501,-22.883106643286201],[-46.189372241985801,-22.8829454493772],[-46.189266089899398,-22.882811776379501],[-46.189093101314199,-22.882674171823101]],[[-46.188068846354,-22.8822879126568],[-46.188221601795398,-22.8822836694501],[-46.188351019599899,-22.8822879126568],[-46.188412546097098,-22.882368533584302],[-46.188482559007802,-22.882440668098202],[-46.188728664996702,-22.882542505059199],[-46.188701084153102,-22.882618882779902],[-46.188516504661401,-22.882701625310599],[-46.188336168376402,-22.882746178981002],[-46.188234331415501,-22.8827079901207],[-46.188174926521597,-22.8826528284335],[-46.188090062387502,-22.882546748265899],[-46.187983982219897,-22.882449154511701],[-46.187986103823199,-22.882343074344],[-46.188068846354,-22.8822879126568]]],[[[-46.189275,-22.882006],[-46.189383,-22.881941],[-46.189208,-22.881671],[-46.189218394442698,-22.8815160733059],[-46.189221558266702,-22.881520914918202],[-46.189325063280798,-22.8808774494719],[-46.189379,-22.880696],[-46.189521,-22.880459],[-46.189566639404603,-22.880296395226701],[-46.189568543996202,-22.8802970122074],[-46.189579499805298,-22.8802391029141],[-46.1896053472285,-22.880196807150401],[-46.189597,-22.879973],[-46.189395257464298,-22.880240877104299],[-46.189360447309603,-22.880295578776099],[-46.189273953017,-22.8803270312462],[-46.189132416901799,-22.880185495130998],[-46.189038059491601,-22.880232673836002],[-46.189006607021597,-22.880299510334901],[-46.189014470139099,-22.8803860046275],[-46.188990880786598,-22.880433183332599],[-46.188912249611498,-22.880519677625202],[-46.188845413112603,-22.880606171917801],[-46.188790371289997,-22.8806612137404],[-46.188656698292398,-22.880637624387798],[-46.188519093735898,-22.880629761270299],[-46.188389352297001,-22.880673008416601],[-46.188329412079099,-22.880649395689598],[-46.188295843965498,-22.880769681383399],[-46.1882016460833,-22.880818828104601],[-46.188041919239602,-22.880581285619002],[-46.187882192395797,-22.880466609936299],[-46.187861787155398,-22.880442803837401],[-46.187846797189003,-22.880450875347002],[-46.187700443209899,-22.880465510744902],[-46.187563393158698,-22.880397858602599],[-46.187530831294303,-22.880403285580002],[-46.187487415474997,-22.880387004647801],[-46.1873571680174,-22.880349015806001],[-46.1872540554468,-22.880387004647801],[-46.187245481449303,-22.880376350059802],[-46.1872052780109,-22.8804128309527],[-46.187238,-22.880477],[-46.187325,-22.8808],[-46.187484,-22.881101],[-46.187498,-22.881272],[-46.1878,-22.881342],[-46.187854660306598,-22.881339407625799],[-46.188181,-22.881448],[-46.188177,-22.881466],[-46.188361831385699,-22.881722734604299],[-46.188505,-22.881981],[-46.188539,-22.882076],[-46.188872934023898,-22.882391099592699],[-46.189061648844202,-22.882516909472901],[-46.189093101314199,-22.882367510240201],[-46.189085238196697,-22.882233837242499],[-46.189128485342998,-22.882202384772501],[-46.1891990118393,-22.882168532054301],[-46.189215,-22.882056],[-46.189275,-22.882006]],[[-46.187840059815002,-22.8812566715069],[-46.187758956329702,-22.8812511270818],[-46.187635203374398,-22.881262127344499],[-46.187580202061,-22.881231876622099],[-46.187558201535602,-22.881132874257901],[-46.187602202586397,-22.881025621696701],[-46.187709455147598,-22.880967870317502],[-46.18778794536,-22.880961356261601],[-46.187840059815002,-22.8812566715069]],[[-46.187742833962297,-22.880705725008202],[-46.187632453308801,-22.880698363881599],[-46.187558201535602,-22.8806681131591],[-46.187571951864001,-22.880618611976999],[-46.187679204425201,-22.880588361254599],[-46.187721742425502,-22.880586206299999],[-46.187742833962297,-22.880705725008202]]],[[[-46.18254,-22.879668],[-46.182777114752902,-22.879589196376301],[-46.183079,-22.879475],[-46.182976,-22.879233],[-46.182876,-22.879101],[-46.182693,-22.878993],[-46.182312,-22.878978],[-46.182152,-22.878968],[-46.181328,-22.879057],[-46.180964,-22.8792],[-46.18068,-22.879299],[-46.180485,-22.879483],[-46.180223,-22.879894],[-46.17997,-22.880111],[-46.180238,-22.880075],[-46.180418,-22.880259],[-46.180412219582699,-22.8803486548194],[-46.180815,-22.880239],[-46.181289,-22.879945],[-46.181774,-22.879658],[-46.182157,-22.879655],[-46.18254,-22.879668]]],[[[-46.187609946730099,-22.879064314083799],[-46.1875722470119,-22.879041114257099],[-46.187424348117098,-22.879151313433599],[-46.187206849742502,-22.8792731125234],[-46.186980651432997,-22.879363011851499],[-46.186708053470099,-22.879377511743201],[-46.186496355052199,-22.879342712003201],[-46.186449955398899,-22.879305012284998],[-46.186270156742602,-22.879258612631698],[-46.186012058671402,-22.879162913346899],[-46.1858032602318,-22.8792151129568],[-46.185869959733303,-22.879131013585301],[-46.185830056195002,-22.879138772606598],[-46.185789022467098,-22.878990694362599],[-46.185701907206202,-22.878963072441799],[-46.185646905892803,-22.878872320274599],[-46.185671656483798,-22.878820069026801],[-46.185733490818002,-22.878790296943599],[-46.185731188497599,-22.878781988530498],[-46.1857893689156,-22.878740155963499],[-46.185826957008601,-22.8786473786454],[-46.185828836724603,-22.878569097909502],[-46.1857921809492,-22.878474502491802],[-46.185723686952699,-22.8783979323496],[-46.185597963164703,-22.878311731242398],[-46.185590981060997,-22.878295752000501],[-46.185575521592703,-22.878284008660302],[-46.1854731387388,-22.878578865074601],[-46.185475327481498,-22.8785811755527],[-46.185374,-22.878851],[-46.185099,-22.879661],[-46.185194,-22.879804],[-46.185354,-22.879923],[-46.18544,-22.879955],[-46.1855,-22.879959],[-46.185882101633403,-22.879912872193898],[-46.186017747763202,-22.8798388391373],[-46.186545654683798,-22.8798473082323],[-46.186899452039803,-22.8799575074088],[-46.1869516516497,-22.8799285076255],[-46.1872677492874,-22.880009707018701],[-46.187508447488703,-22.8801286061301],[-46.187670846274997,-22.8801692058267],[-46.187662146340003,-22.8801170062168],[-46.187728845841598,-22.879896607863898],[-46.187804245278102,-22.8798241084057],[-46.187897044584602,-22.879711009250901],[-46.187928944346197,-22.879621109922699],[-46.187609946730099,-22.879064314083799]],[[-46.185611155038998,-22.879697339976499],[-46.185569904053899,-22.879661589122801],[-46.185490152149399,-22.879579087152599],[-46.185525903003203,-22.8794278335406],[-46.1856772751268,-22.879375721834901],[-46.1857315546903,-22.879687659730902],[-46.185611155038998,-22.879697339976499]]],[[[-46.180294,-22.893739],[-46.180312,-22.893686],[-46.180308,-22.893661],[-46.180271,-22.893551],[-46.18021,-22.893464],[-46.180027,-22.893635],[-46.179836,-22.8938],[-46.179746,-22.893928],[-46.179525,-22.894318],[-46.179591,-22.894573],[-46.179601,-22.894579],[-46.179761,-22.894722],[-46.179957,-22.894728],[-46.180151,-22.894589],[-46.18021,-22.894458],[-46.180356,-22.894112],[-46.180417,-22.894004],[-46.180296,-22.89376],[-46.180294,-22.893739]]],[[[-46.180535,-22.893228],[-46.180347,-22.893364],[-46.180263,-22.893441],[-46.1804,-22.89368],[-46.180402806882498,-22.893706946088699],[-46.180448504137502,-22.893682894897601],[-46.180604626464898,-22.893581200563901],[-46.180613298028803,-22.893421643774001],[-46.180550999567302,-22.893225014254799],[-46.180535,-22.893228]]],[[[-46.175798,-22.891791],[-46.176113,-22.891689],[-46.176266,-22.891578],[-46.176533,-22.891314],[-46.176984,-22.891251],[-46.176677,-22.891031],[-46.176409,-22.890854],[-46.176195,-22.890744],[-46.175891,-22.890998],[-46.175697,-22.891107],[-46.175466,-22.891159],[-46.175313,-22.891171],[-46.174919,-22.891375],[-46.174731,-22.891563],[-46.174501,-22.891764],[-46.174346,-22.892031],[-46.174245,-22.892234],[-46.174204,-22.892391],[-46.174328,-22.892451],[-46.174452,-22.892515],[-46.174558,-22.892584],[-46.174619,-22.892636],[-46.174746,-22.89268],[-46.174917,-22.892575],[-46.175121,-22.892525],[-46.175208,-22.892293],[-46.175247,-22.891935],[-46.175402,-22.891873],[-46.175798,-22.891791]]],[[[-46.171488264482697,-22.8888860159398],[-46.171500065911701,-22.888869923086801],[-46.171249,-22.888765],[-46.170929,-22.888766],[-46.170701,-22.888778],[-46.170718,-22.888935],[-46.170783,-22.889062],[-46.170887,-22.889222],[-46.171002321613202,-22.8893242169021],[-46.171048508456003,-22.8892718555187],[-46.171043453788997,-22.889184241291201],[-46.171097370236701,-22.8891134759536],[-46.171227106689003,-22.889017437281101],[-46.171366952475303,-22.888980369723299],[-46.171488264482697,-22.8888860159398]]],[[[-46.1802451283354,-22.8868357267656],[-46.179844109342397,-22.886867179235601],[-46.179789067519799,-22.887276061346199],[-46.179808725313599,-22.887468707725201],[-46.180213675865403,-22.887657422545502],[-46.180897767088801,-22.887441186813898],[-46.1813459647869,-22.887044099379601],[-46.180882040853803,-22.886438639331299],[-46.1804220484794,-22.8866863275329],[-46.1802451283354,-22.8868357267656]]],[[[-46.177569614274702,-22.886233216053],[-46.177461074726601,-22.8861735193016],[-46.177305049126403,-22.8861396006929],[-46.177187012367902,-22.8861694490686],[-46.177124602127797,-22.8862074379104],[-46.177001219242896,-22.8862055381313],[-46.176592650667502,-22.886093777220498],[-46.176292400796299,-22.886246665191699],[-46.176047411637597,-22.886946634216599],[-46.176145038896401,-22.887020315166499],[-46.176168985205102,-22.8871253105203],[-46.176272138535097,-22.887136362662801],[-46.176365286079402,-22.887130171715899],[-46.176438841684401,-22.887158466947799],[-46.176861586134898,-22.887082943974001],[-46.177165520053599,-22.8868342707678],[-46.177319329036699,-22.8867044080935],[-46.177317921237403,-22.886701963588301],[-46.177565544041599,-22.8864882839909],[-46.177569614274702,-22.886233216053]]],[[[-46.1738454346685,-22.8857750884357],[-46.173997199463699,-22.885531558880601],[-46.173933670014499,-22.8851733233757],[-46.173067198916399,-22.885044499770501],[-46.172975434156498,-22.885150382185699],[-46.172890728224303,-22.885466264724599],[-46.172964845914997,-22.885563323605201],[-46.172922841823102,-22.885661871743601],[-46.172813372035797,-22.8856897819763],[-46.172970411758698,-22.886316529414099],[-46.173066102048203,-22.8868160689718],[-46.1733262940852,-22.887263588232901],[-46.173381316748298,-22.887263618723502],[-46.1739177876523,-22.886991853857701],[-46.173812117588703,-22.886890176408201],[-46.173794705896,-22.886848882344101],[-46.173806,-22.886109],[-46.1738196185592,-22.8857940708752],[-46.1738454346685,-22.8857750884357]]],[[[-46.1789830979749,-22.8848149055653],[-46.178440542866703,-22.884948578563002],[-46.178597805216903,-22.885145156500801],[-46.179156086560198,-22.885546175493801],[-46.179281896440401,-22.8859393313694],[-46.179195402147698,-22.886418981537499],[-46.179753683491001,-22.886505475830202],[-46.180005303251299,-22.885789932136699],[-46.179769409725999,-22.885223787675901],[-46.179808725313599,-22.885097977795699],[-46.179572831788199,-22.884869947387902],[-46.1789830979749,-22.8848149055653]]],[[[-46.181307310454599,-22.884173927967499],[-46.181031927904002,-22.8841435345756],[-46.1807826168519,-22.884182236291299],[-46.180771957208599,-22.884181924605802],[-46.180823810006203,-22.8846403224676],[-46.180742730175403,-22.885079282640401],[-46.180587173947103,-22.88549506523],[-46.181334170110603,-22.885542243935099],[-46.181444253755799,-22.884917126093001],[-46.181424595962,-22.884708753479],[-46.181424595962,-22.884567217363799],[-46.181444253755799,-22.884201582399498],[-46.181394811469097,-22.884200136718601],[-46.181307310454599,-22.884173927967499]]],[[[-46.178512614452004,-22.883884684380199],[-46.178552924915699,-22.8838677115534],[-46.178725305188401,-22.8838239534842],[-46.178623658425998,-22.883687578282899],[-46.178538460255403,-22.883618896624501],[-46.178374521447097,-22.8835418236891],[-46.178026602470197,-22.883323837934501],[-46.177827411484202,-22.883162715944302],[-46.177558627113697,-22.882663527847001],[-46.177261638603703,-22.882281171771499],[-46.177002779021798,-22.882030798603001],[-46.176852193129598,-22.882054951319098],[-46.176690999220597,-22.882086403789199],[-46.176557326222898,-22.882062814436601],[-46.176490489724102,-22.8820313619666],[-46.1761484441124,-22.8820117041728],[-46.176005098041799,-22.882065247687901],[-46.175861811903502,-22.882244289435299],[-46.175739310286197,-22.882318989051601],[-46.175487942241503,-22.882345886667],[-46.1754530078274,-22.882377327639698],[-46.175461748830799,-22.882412291653399],[-46.1754999376912,-22.8825141286144],[-46.175533883344798,-22.8825735335083],[-46.175758293180998,-22.882811635285702],[-46.176086593980699,-22.882905666317701],[-46.176614237933201,-22.883186245364499],[-46.1769675867763,-22.8833524975594],[-46.177097196364201,-22.883510503070202],[-46.177252337111099,-22.883837757390701],[-46.1774274472996,-22.884090875458501],[-46.177951953488297,-22.884050618009301],[-46.177939781546797,-22.8840141021847],[-46.177884619859597,-22.883992886151201],[-46.177744594038302,-22.883757388179099],[-46.177674581127697,-22.883543106240399],[-46.178512614452004,-22.883884684380199]]],[[[-46.17511,-22.881665],[-46.174807,-22.881403],[-46.174673,-22.881299],[-46.174365,-22.88102],[-46.174225,-22.88086],[-46.173999,-22.880745],[-46.17385,-22.880566],[-46.173705,-22.880376],[-46.173524,-22.880382],[-46.173248,-22.880408],[-46.173188,-22.880517],[-46.173126,-22.880719],[-46.173264,-22.880885],[-46.173359003175399,-22.881083856306599],[-46.174357619099297,-22.881889825851399],[-46.174558128595798,-22.881913415203901],[-46.174656417564698,-22.881830852470099],[-46.174801885238601,-22.881767947530001],[-46.175029915646398,-22.8818623049401],[-46.175068517381398,-22.881904057909502],[-46.175177448701497,-22.8819450839203],[-46.175350364654797,-22.8821322400109],[-46.175403404738603,-22.882217104144999],[-46.175518,-22.882187],[-46.175541,-22.882174],[-46.175659,-22.882162],[-46.175382,-22.88189],[-46.17511,-22.881665]]],[[[-46.177917645552299,-22.881807263117501],[-46.177984482051102,-22.881771879088699],[-46.178086702578703,-22.8817050425899],[-46.178184991547603,-22.881606753621],[-46.178271485840199,-22.881477012182099],[-46.178178878453203,-22.8813406542175],[-46.177995965079397,-22.88112379519],[-46.177731304051001,-22.880866182199899],[-46.177265006798898,-22.880344723260599],[-46.176816809100799,-22.8799437042675],[-46.176635957397998,-22.8799319095912],[-46.176510147517902,-22.879908320238702],[-46.176427584784001,-22.879935841150001],[-46.176431516342703,-22.880006609207602],[-46.1764629688128,-22.880250365850401],[-46.176569120899202,-22.880525574963301],[-46.176710657014397,-22.8807614684886],[-46.176781425072001,-22.881028814484001],[-46.176809880927102,-22.881192381712001],[-46.177430132266601,-22.881980251702799],[-46.177752520084503,-22.882125719376699],[-46.178200717782701,-22.882271187050701],[-46.1784219757565,-22.882322001281501],[-46.178478668798398,-22.882314697899201],[-46.178397295720401,-22.882058882877899],[-46.178192854665099,-22.881964525467801],[-46.177996276727399,-22.881980251702799],[-46.177933371787297,-22.881901620527699],[-46.177917645552299,-22.881807263117501]]],[[[-46.172718004714497,-22.879604181876299],[-46.172644698973201,-22.879534994435101],[-46.172472949707398,-22.8796090420228],[-46.172361598609797,-22.8796505777497],[-46.172353499841201,-22.879660541366299],[-46.172311215759599,-22.879678771629099],[-46.172147469511003,-22.8798584931214],[-46.171985720167797,-22.880094127966998],[-46.1720176706554,-22.8802379051609],[-46.172034915968098,-22.880246902715399],[-46.172047085998102,-22.880391928905802],[-46.172421007277102,-22.8805691037267],[-46.172435023898799,-22.880601341956599],[-46.172475804128702,-22.880595068075099],[-46.1728625722698,-22.880778330114399],[-46.173359052892501,-22.880236919118602],[-46.173255712149199,-22.880133182433799],[-46.173267733480202,-22.8801140970217],[-46.172878637660297,-22.879754663215],[-46.172772711523599,-22.879648331231],[-46.172718004714497,-22.879604181876299]]],[[[-46.1744205719855,-22.8799533533677],[-46.174343734553297,-22.880010871674099],[-46.1743261666292,-22.880057719471399],[-46.174133520250201,-22.880195324027898],[-46.1740297258334,-22.8802425033082],[-46.173956870974003,-22.880300082170201],[-46.17409,-22.88031],[-46.174162,-22.880372],[-46.17429,-22.880424],[-46.174433,-22.880029],[-46.174446977387603,-22.879901850975699],[-46.174397021683802,-22.879868712025001],[-46.174383068654102,-22.879905980738499],[-46.1744205719855,-22.8799533533677]]],[[[-46.173767885285997,-22.8792242290153],[-46.173473,-22.879375],[-46.173521,-22.879768],[-46.173552,-22.880098],[-46.173556,-22.880281],[-46.173741,-22.880284],[-46.173904763789501,-22.880296200264699],[-46.173805307013197,-22.880029731088399],[-46.173915539765197,-22.879886034822299],[-46.173912978383299,-22.879628748054699],[-46.173889640746403,-22.879503573456901],[-46.1738047766124,-22.8793614260323],[-46.173767885285997,-22.8792242290153]]],[[[-46.1756913524612,-22.8793366859794],[-46.175733664663703,-22.879373628248],[-46.176232972625598,-22.879169187192701],[-46.1763155353595,-22.879790373476101],[-46.176978782129602,-22.8799203666306],[-46.176935475051003,-22.878750320361299],[-46.176518729822902,-22.8787161829243],[-46.176147976640401,-22.878740395572699],[-46.175736721210903,-22.878912449214099],[-46.1755176806478,-22.879032829228102],[-46.1756913524612,-22.8793366859794]]],[[[-46.181055,-22.878742],[-46.180932497662802,-22.878797437270499],[-46.180874262334399,-22.878850378478099],[-46.180784262281499,-22.8788521431851],[-46.180760971490699,-22.878847029694899],[-46.180711116936401,-22.8788267879806],[-46.180666572255802,-22.878856484434301],[-46.1803440885462,-22.878563703171601],[-46.180331358926097,-22.878372758869901],[-46.180287985661401,-22.8782593211006],[-46.180251025673499,-22.878243305105801],[-46.180022995265702,-22.878809449566599],[-46.180125215793304,-22.879131837384602],[-46.180054,-22.879255],[-46.18013,-22.879509],[-46.18038,-22.879277],[-46.180635,-22.879101],[-46.180894,-22.878946],[-46.181086,-22.878871],[-46.181055,-22.878742]]],[[[-46.170479,-22.889987],[-46.170566,-22.889814],[-46.170613,-22.889669],[-46.170365,-22.889482],[-46.170262,-22.889269],[-46.170065,-22.889341],[-46.169952,-22.889475],[-46.169898,-22.889521],[-46.169807,-22.88963],[-46.169781,-22.889712],[-46.169638,-22.890034],[-46.169463,-22.890201],[-46.169297,-22.890371],[-46.169139,-22.890387],[-46.168921,-22.890519],[-46.1688498500694,-22.890582367942301],[-46.168801302309902,-22.890693488306599],[-46.168820717772299,-22.890819588875999],[-46.169105825851098,-22.891003812627002],[-46.169267,-22.891023],[-46.169464,-22.891027],[-46.169626,-22.890955],[-46.169812,-22.890811],[-46.16989,-22.890743],[-46.170165,-22.890417],[-46.170344,-22.890182],[-46.170479,-22.889987]]],[[[-46.168885,-22.889965],[-46.169482,-22.889986],[-46.169545,-22.889774],[-46.169512,-22.889553],[-46.16978,-22.889473],[-46.16964,-22.889387],[-46.169547428561998,-22.8893338489966],[-46.169512244432099,-22.889310047948101],[-46.169339071605798,-22.8892580961002],[-46.169134727670702,-22.889275413382901],[-46.168975408670399,-22.8893827805352],[-46.168729503256998,-22.889292730665499],[-46.168628690183901,-22.889248140305099],[-46.168364,-22.889166],[-46.16809,-22.888949],[-46.167942,-22.888767],[-46.167734,-22.888684],[-46.167608,-22.888672],[-46.167268,-22.888659],[-46.167152764673098,-22.888505660169699],[-46.1670869589991,-22.888488342887101],[-46.167083495542599,-22.888640734974299],[-46.166972664933702,-22.8888078467517],[-46.166769186862801,-22.888939458099699],[-46.166774710108498,-22.888945497641],[-46.166768320998699,-22.8889489826052],[-46.166754467172503,-22.889153326540299],[-46.166657490389802,-22.8892295225839],[-46.1666263192811,-22.889343816649301],[-46.166650563476701,-22.8894130857798],[-46.166674001076103,-22.889406000005],[-46.166721,-22.889406],[-46.167104,-22.8895],[-46.167409,-22.889549],[-46.167319,-22.889696],[-46.167222,-22.889798],[-46.167503,-22.889906],[-46.16767,-22.889974],[-46.167844584734297,-22.8900289255978],[-46.167964079364602,-22.889971568144698],[-46.168169395240398,-22.889937348876401],[-46.168224,-22.889909],[-46.168366,-22.889874],[-46.168611,-22.889857],[-46.168885,-22.889965]]],[[[-46.169852,-22.887127],[-46.169702,-22.887124],[-46.169552,-22.887023],[-46.169481204566203,-22.886922942459101],[-46.169483670915803,-22.886919397080401],[-46.169472095391299,-22.886903714120301],[-46.169467923668599,-22.886892413521],[-46.1694369142526,-22.886850127949899],[-46.169423060426503,-22.886777395362799],[-46.1694005479591,-22.886704662775699],[-46.169398,-22.886703],[-46.169347,-22.886522],[-46.169238,-22.886507],[-46.169115,-22.88651],[-46.168994890613298,-22.886428885049799],[-46.168901377287099,-22.886449665788898],[-46.168849425439198,-22.8864323485063],[-46.168620837308403,-22.886446202332401],[-46.168565422004001,-22.886453129245499],[-46.168665862243301,-22.886692107745802],[-46.168755912112999,-22.8870038188332],[-46.169022598265499,-22.887021136115901],[-46.169129965417902,-22.887176991659601],[-46.169753387592699,-22.887384799051201],[-46.169853827832,-22.887370945225101],[-46.170255588789097,-22.887509483486198],[-46.170491103832902,-22.887693046682099],[-46.17051,-22.887654],[-46.170457,-22.887281],[-46.170433,-22.887223],[-46.170295,-22.887162],[-46.169852,-22.887127]]],[[[-46.170067938950901,-22.885363353396698],[-46.170002268638299,-22.885330753592498],[-46.169946042362099,-22.885283779735602],[-46.169694002048203,-22.885182276876399],[-46.169597532049202,-22.885090475568202],[-46.169414834717301,-22.8850835486551],[-46.1693083334291,-22.885093073160601],[-46.169265405440399,-22.885165406522098],[-46.169159024076102,-22.885368414445601],[-46.169105548582699,-22.8854540601899],[-46.169070061048998,-22.885527340499799],[-46.168886224664597,-22.885583801657098],[-46.168718679954999,-22.885682510168301],[-46.1687429241506,-22.886085569921502],[-46.168802668776102,-22.8860851369895],[-46.1689295846909,-22.886279487534299],[-46.168955024075899,-22.8863044634574],[-46.16951,-22.886337],[-46.169564,-22.886206],[-46.169667,-22.88607],[-46.169747,-22.885876],[-46.17001,-22.885567],[-46.170045,-22.885513],[-46.170067938950901,-22.885363353396698]]],[[[-46.1667960286509,-22.885121863142899],[-46.166543196324398,-22.885104545860301],[-46.166428902259,-22.885007569077501],[-46.166276510171798,-22.8850144959906],[-46.166165679563001,-22.884952153773099],[-46.166141435367301,-22.8848586404469],[-46.166044458584501,-22.884740882925001],[-46.1658955299539,-22.8846854676205],[-46.165289425061701,-22.884706248359699],[-46.165195911735402,-22.884671613794399],[-46.164761229705597,-22.884683441635801],[-46.164744741523599,-22.884681380612601],[-46.164658176373798,-22.884747288169802],[-46.164186986524498,-22.884878119589398],[-46.1641545245933,-22.884876152199599],[-46.163973311581401,-22.884962544142699],[-46.164006463456097,-22.885240682717299],[-46.164148220121596,-22.885265317284201],[-46.164252390369199,-22.885220317282599],[-46.164628,-22.885084],[-46.164729926910397,-22.885058975924501],[-46.16483,-22.885022],[-46.1649167510718,-22.884999049697399],[-46.1649892026145,-22.885049425580299],[-46.165152572147299,-22.885071352777601],[-46.165251469647799,-22.885112133240799],[-46.1653354877255,-22.8851340488688],[-46.165403111866603,-22.885092496804901],[-46.165462,-22.885123],[-46.165575,-22.885145],[-46.165693,-22.885181],[-46.165779,-22.885262],[-46.1663170481592,-22.885508803956199],[-46.166661828897404,-22.885676561482001],[-46.1669678538249,-22.8858467558032],[-46.167082,-22.885891],[-46.167112,-22.885758],[-46.167138,-22.885588],[-46.167136,-22.88552],[-46.167192,-22.885295],[-46.167187399238401,-22.885239620664802],[-46.1667960286509,-22.885121863142899]]],[[[-46.164178227105801,-22.884502752810501],[-46.164244128201403,-22.884426374897799],[-46.164296867350302,-22.8843074022043],[-46.164036964085199,-22.884411936073299],[-46.1638917583386,-22.884430131524201],[-46.163742952758902,-22.8844115308267],[-46.163622048225299,-22.8843487534727],[-46.163515094214901,-22.884309226990599],[-46.163380239158201,-22.8842185485905],[-46.163242791574199,-22.884341612202601],[-46.163117504306499,-22.884485933616599],[-46.162780366664897,-22.884690541288698],[-46.162780366664897,-22.884704491811799],[-46.162793589437797,-22.884729835489502],[-46.162919003819297,-22.884876152199599],[-46.162923058924697,-22.885001860658001],[-46.163061702214101,-22.885064880325199],[-46.163263984799102,-22.885113707156101],[-46.163352338111999,-22.885139283115102],[-46.1634127903788,-22.8851671841613],[-46.163801079938402,-22.8849742019251],[-46.163808048172001,-22.884683858861798],[-46.163949161539399,-22.8846562206339],[-46.164083907899297,-22.884548506276499],[-46.164178227105801,-22.884502752810501]]],[[[-46.166293827454503,-22.884086289641399],[-46.166179533389098,-22.8842975604895],[-46.166151825736897,-22.884508831337701],[-46.166228021780498,-22.884536538989899],[-46.166352706215399,-22.884526148620299],[-46.166425438802499,-22.8844672698594],[-46.166465,-22.88422],[-46.166483128450501,-22.8841342385053],[-46.166262588337702,-22.883937903979799],[-46.166293827454503,-22.884086289641399]]],[[[-46.166463925511103,-22.883646011177401],[-46.1664806709312,-22.883537996270199],[-46.166737,-22.883733],[-46.166743,-22.883625],[-46.166743,-22.883564],[-46.166671,-22.883483],[-46.166451,-22.883309],[-46.166326,-22.883355],[-46.166295,-22.8834],[-46.166192,-22.883614],[-46.166118977766601,-22.8837339651154],[-46.165975343823199,-22.8838137617252],[-46.165903333364597,-22.8840160768667],[-46.165853968475602,-22.8840274108804],[-46.165995970193201,-22.884141704945801],[-46.166117191171601,-22.8838577015106],[-46.166238412150001,-22.8838230669454],[-46.166260479619297,-22.883927887563999],[-46.166295436612003,-22.883925702749899],[-46.166470665067102,-22.883795966297601],[-46.166463925511103,-22.883646011177401]]],[[[-46.158926250984798,-22.8806317270497],[-46.1586746312245,-22.880694631989801],[-46.158521300433001,-22.880726084459901],[-46.158407285229103,-22.880737879136099],[-46.158312981291402,-22.880788329980401],[-46.158397206535703,-22.880956780416799],[-46.158582876771597,-22.880982687849698],[-46.158913398252601,-22.880880383581701],[-46.159045213367001,-22.880803655380799],[-46.1590604263274,-22.880761667638701],[-46.158977075775802,-22.880603138125199],[-46.158926250984798,-22.8806317270497]]],[[[-46.159750936227802,-22.880429002643499],[-46.159936661584801,-22.880352586378098],[-46.159629586607103,-22.8800718328296],[-46.159542661846302,-22.8801303134283],[-46.159574259925201,-22.880219362594499],[-46.159639502812198,-22.880269499911201],[-46.159750936227802,-22.880429002643499]]],[[[-46.157344739188098,-22.879887130347601],[-46.1574126008638,-22.879967293620101],[-46.158403353670202,-22.879896525562501],[-46.158914250133499,-22.879735558307001],[-46.158698220577001,-22.879633111125901],[-46.158257885996399,-22.879633111125901],[-46.157919771943497,-22.8796095217734],[-46.157617041919302,-22.879621316449601],[-46.1573575590415,-22.879664563595899],[-46.157231749161298,-22.879676358272199],[-46.157053427491903,-22.879738516948301],[-46.157046965899603,-22.879778578799801],[-46.156877908873099,-22.879880799327399],[-46.156779619904199,-22.879837552181101],[-46.156453300527502,-22.880014472325101],[-46.156264585707298,-22.880305407672999],[-46.156107323357098,-22.880446943788201],[-46.155991697174997,-22.8804830806246],[-46.156046867640597,-22.880544805997001],[-46.156226035093297,-22.880474886991099],[-46.156341838446799,-22.880446482394898],[-46.1567722773271,-22.880227985501399],[-46.1569514447797,-22.8801143671168],[-46.157143722046001,-22.880007303639001],[-46.157344739188098,-22.879887130347601]]],[[[-46.153358,-22.877976],[-46.153285,-22.877922],[-46.153232280530702,-22.8778956402947],[-46.1529226964104,-22.8776597665323],[-46.152915168181302,-22.877661523120398],[-46.152905428554099,-22.877638797313299],[-46.152722010629198,-22.877559856874701],[-46.152670808940698,-22.877660388527602],[-46.152623567561498,-22.877669386878399],[-46.152588608058501,-22.877717456195001],[-46.152533983835198,-22.877903178554501],[-46.152551463586597,-22.877946877933201],[-46.152595967954298,-22.8779765475178],[-46.152584476679401,-22.878088131024999],[-46.152558018493501,-22.8781129355723],[-46.152542723710901,-22.878141340168401],[-46.152520874021597,-22.8782025192986],[-46.152523058990504,-22.8782484036462],[-46.1525754982449,-22.878274623273398],[-46.152616615386698,-22.878288328993602],[-46.152621382592599,-22.8783073978075],[-46.152623567561498,-22.878370761906599],[-46.152584238120703,-22.8784363109746],[-46.152579868182798,-22.8784800103534],[-46.152654157126598,-22.878490935197998],[-46.152721891163601,-22.8784953051359],[-46.152786342654998,-22.878463079394699],[-46.153155422668597,-22.8784495351575],[-46.153399863571401,-22.878514997985899],[-46.153578872235002,-22.8783441202877],[-46.153555402918499,-22.878320072296699],[-46.153525959731702,-22.878252773584101],[-46.153519387404401,-22.878249403162499],[-46.153426,-22.878123],[-46.153358,-22.877976]]],[[[-46.154618586390001,-22.877348918949],[-46.154620644014102,-22.877336984732899],[-46.15446,-22.877302],[-46.154171,-22.877263],[-46.153933,-22.87728],[-46.15378,-22.877358],[-46.153392,-22.877531],[-46.153411,-22.877639],[-46.153466,-22.877873],[-46.15345,-22.877939],[-46.1535650953059,-22.877982104164399],[-46.153650113664902,-22.8779804061158],[-46.154329128886097,-22.8779263519998],[-46.154806253691703,-22.877928331608601],[-46.154935715526598,-22.8778813017761],[-46.1548900861779,-22.877797483816],[-46.154618586390001,-22.877348918949]]],[[[-46.155670250058002,-22.872303639318901],[-46.155744652847801,-22.872024628856899],[-46.155695697389298,-22.872005418554899],[-46.155680976864502,-22.871975977493801],[-46.155409477076603,-22.871877608005398],[-46.155134042509097,-22.8717575972296],[-46.1549030742014,-22.871759270942398],[-46.154865769892503,-22.871754918743601],[-46.154586759430501,-22.8720432295544],[-46.154344950363402,-22.871950226067],[-46.154274934844203,-22.871961518909899],[-46.154038244784502,-22.872340222959402],[-46.153991537111501,-22.872489646293602],[-46.153991537111501,-22.872684953617],[-46.154070590075797,-22.872829109022401],[-46.154118288603897,-22.872931514713301],[-46.154122804168601,-22.872957704987801],[-46.1543342985686,-22.8729636071571],[-46.154535956019799,-22.8729163898027],[-46.154784830825399,-22.872701944317999],[-46.154966919445698,-22.872539885469301],[-46.155187444171702,-22.872522729525699],[-46.1555260946526,-22.872484996119201],[-46.155670250058002,-22.872303639318901]],[[-46.1541454755384,-22.872281096253399],[-46.154322395682399,-22.872033408051799],[-46.1544206846512,-22.872060928963101],[-46.1545400467908,-22.872133584222599],[-46.154747004027698,-22.8719783662292],[-46.154880677025403,-22.871891871936601],[-46.154959308200503,-22.871821103879],[-46.155289559136001,-22.871962639994202],[-46.155486137073702,-22.872009818699301],[-46.155556905131299,-22.8720648605218],[-46.155604083836401,-22.8722850278122],[-46.155533315778797,-22.8724422901624],[-46.1553446009585,-22.872497331984899],[-46.155242380430899,-22.872418700809799],[-46.1550300762581,-22.872379385222299],[-46.154684099087603,-22.872505195102502],[-46.154518973619901,-22.872583826277602],[-46.1544010268573,-22.8727174992752],[-46.154320566242198,-22.8726475335956],[-46.154228038272201,-22.872662457452702],[-46.1541454755384,-22.872623141865098],[-46.154058981245697,-22.872575963160099],[-46.154117954627097,-22.872399043016099],[-46.1541454755384,-22.872281096253399]]],[[[-46.147575994302201,-22.869497488039599],[-46.147605825563602,-22.869420338185801],[-46.147731694792199,-22.869337274968199],[-46.1478691434952,-22.869181083129401],[-46.148365391656597,-22.868888651319399],[-46.148375074962701,-22.868857664712198],[-46.148550172652001,-22.8687376539364],[-46.149012509247399,-22.8684858280462],[-46.149150299038602,-22.868428857306998],[-46.149646609635298,-22.868094386226801],[-46.149663582462203,-22.867933144372],[-46.149587204741501,-22.867712497623302],[-46.1496041775683,-22.867687038383099],[-46.149298666685503,-22.867805848170899],[-46.148899805255198,-22.868128331880499],[-46.148747049813799,-22.868247141668199],[-46.148390620450499,-22.868467788416901],[-46.148144514461599,-22.868671462338799],[-46.148034191087199,-22.868824217780201],[-46.147855976405602,-22.8687902721265],[-46.147737166617901,-22.868815731366801],[-46.147652302483699,-22.868892109087501],[-46.147465601388703,-22.868993946048398],[-46.147363764427801,-22.8691467014898],[-46.147312845947297,-22.869316429758001],[-46.147160090505899,-22.869477671612799],[-46.1470327943047,-22.8695201036799],[-46.146863066036502,-22.869528590093299],[-46.146803661142599,-22.8697662096688],[-46.146803661142599,-22.869927451523601],[-46.146956416583997,-22.8698850194566],[-46.147055227750101,-22.869849472919],[-46.147342411308301,-22.869937013921199],[-46.147392194558201,-22.869877286107702],[-46.147404592604197,-22.869829761799799],[-46.147447283795202,-22.869732212354901],[-46.147505250977197,-22.8696250657284],[-46.147489606014702,-22.869558209838502],[-46.147575994302201,-22.869497488039599]]]]}}
]
}
