{
"type": "FeatureCollection",
"name": "Fazenda Vale das Flores",
"crs": { "type": "name", "properties": { "name": "urn:ogc:def:crs:OGC:1.3:CRS84" } },
"xy_coordinate_resolution": 1e-15,
"features": [
{"type":"Feature","properties":{"Área (ha)":63.084646325648649,"Nome do Projeto":null,"Propriedade":null,"Tipo":null,"Ano de Implantação":null,"Metodologia de Restauração":null,"Monitoramento":null,"Município":null,"UGRHI":null,"Região Hidrográfica":null,"Status do Projeto":null,"Fotos do Projeto":null},"geometry":{"type":"MultiPolygon","coordinates":[[[[-46.605620118888901,-23.1798314737098],[-46.605895729432298,-23.179731365969399],[-46.605952763126297,-23.179670622037101],[-46.605953030393202,-23.179670337383801],[-46.605963698817597,-23.179658974941599],[-46.605921424328301,-23.179503954147101],[-46.6057840773218,-23.179278397787101],[-46.605754468465797,-23.1792619596592],[-46.6057307121973,-23.179224345566801],[-46.6057198239073,-23.179133279870399],[-46.605727742663603,-23.179083787644199],[-46.605764366911203,-23.1790531024639],[-46.6058633513641,-23.179020437594399],[-46.605890077166201,-23.178995691481301],[-46.605955406904798,-23.178949168788499],[-46.605977183484399,-23.178959067233698],[-46.606019746798999,-23.1789531281668],[-46.606055381202097,-23.178957087544799],[-46.606085076537902,-23.178983813346999],[-46.606109822651099,-23.178971935212701],[-46.606138528142303,-23.178951148477399],[-46.606172182856298,-23.178969955523399],[-46.606204847725799,-23.1789966813257],[-46.606240482128598,-23.1790471633966],[-46.606283045443199,-23.179035285262501],[-46.606290964199502,-23.179015488371999],[-46.606323629069003,-23.179027366505899],[-46.6064107353873,-23.179121401736101],[-46.606477054970497,-23.179160995517101],[-46.606481014348603,-23.1791540666053],[-46.606555252688203,-23.1791728736513],[-46.606557232377,-23.179280766704998],[-46.606533476108602,-23.179327289397701],[-46.606470126059001,-23.179401527737301],[-46.606430532277798,-23.1795371364374],[-46.606385989274102,-23.179577720063001],[-46.606339466581197,-23.1794609184088],[-46.6063047443862,-23.179439611607201],[-46.606063973877902,-23.179700703899801],[-46.606068703013641,-23.179701339778063],[-46.606063746285699,-23.179700950700401],[-46.605940625583202,-23.179834463174799],[-46.605857994205302,-23.179890098471599],[-46.605815792897097,-23.179911094851299],[-46.605776020856901,-23.1799358142698],[-46.605739061109801,-23.179964018668201],[-46.605725709050063,-23.17997643278435],[-46.605732306141597,-23.179969875965998],[-46.605635177152202,-23.180033028348401],[-46.605459704615299,-23.180062026801],[-46.605380705081302,-23.180173836508299],[-46.605348310372399,-23.180395418619],[-46.6052068944296,-23.1804998592246],[-46.605668415338499,-23.180585177702898],[-46.605723704603001,-23.180617829778701],[-46.605715628577876,-23.180609638787296],[-46.605741111205802,-23.180633064276499],[-46.605778243406498,-23.180661074619099],[-46.6058181665408,-23.180685585287399],[-46.6058604961257,-23.180706360228701],[-46.605904824501501,-23.180723199367002],[-46.605950724758102,-23.1807359405305],[-46.606021552344899,-23.180747111245001],[-46.606093386285302,-23.180748553146799],[-46.606141066642003,-23.180744085387001],[-46.6061880437165,-23.1807353185064],[-46.6062562039344,-23.1807143031564],[-46.606299468984297,-23.180695246331499],[-46.606340505238599,-23.180672360737098],[-46.606378917493103,-23.180645866776501],[-46.6064143358156,-23.180616019602599],[-46.606446419109503,-23.180583106661299],[-46.606474858393597,-23.180547444924901],[-46.606499379783699,-23.180509377837701],[-46.606519747127997,-23.180469272008398],[-46.6065437895004,-23.180399055992499],[-46.6067814039761,-23.180322991594501],[-46.606830481270201,-23.180302232764699],[-46.606860545447397,-23.180283911109701],[-46.606887951732702,-23.1802623185648],[-46.607027899754499,-23.180123411915201],[-46.607143432016599,-23.1800981898907],[-46.6071372812699,-23.180069672793099],[-46.607143220337299,-23.1800330485455],[-46.607209539920497,-23.1799508914497],[-46.607288727482597,-23.179817262438501],[-46.607302631350599,-23.179552616782701],[-46.607101374074801,-23.179554570838999],[-46.607068498474703,-23.179558277397302],[-46.606958210260501,-23.179581949924899],[-46.606631416450199,-23.1793024183741],[-46.606634078108598,-23.179254736541601],[-46.606631590725399,-23.179210490167101],[-46.6066244242717,-23.1791666822512],[-46.606612647768998,-23.179123734686701],[-46.606596374634897,-23.179082061081399],[-46.606575761592801,-23.1790420627736],[-46.6065371499256,-23.178986043799899],[-46.606506642254899,-23.178951874626499],[-46.606472658855203,-23.1789206345106],[-46.6064355270044,-23.178892624309999],[-46.606374715579697,-23.1788572460291],[-46.606331334884203,-23.178838416420898],[-46.606286166758203,-23.1788236085257],[-46.606216018356399,-23.178809238412299],[-46.606168312049398,-23.1788050206973],[-46.606120388296397,-23.178805146311099],[-46.606072708624303,-23.178809614045601],[-46.606025732210497,-23.178818380872901],[-46.605979911458903,-23.178831362365599],[-46.605935687644902,-23.178848433504999],[-46.6058934866643,-23.178869429889399],[-46.605853714933403,-23.178894149312999],[-46.605816755473498,-23.1789223537167],[-46.605782964224403,-23.1789537714779],[-46.605752666614499,-23.1789881000287],[-46.605726154425902,-23.1790250087689],[-46.605703682987901,-23.179064142248802],[-46.605685468715002,-23.179105123593999],[-46.605671687024397,-23.179147558132499],[-46.605662470645001,-23.1791910371978],[-46.605657387961799,-23.1792572965612],[-46.605659875024799,-23.179301542949499],[-46.605637989701997,-23.1793747233706],[-46.605625664259797,-23.179401932802101],[-46.605148863977497,-23.179744230837102],[-46.605113209316102,-23.180200908973799],[-46.6051898248543,-23.180103294675501],[-46.6051670953441,-23.1800308695288],[-46.605162663776099,-23.1799369047868],[-46.605233748786802,-23.179916558334],[-46.605295622093003,-23.179995720615899],[-46.605421269449899,-23.179909087198102],[-46.605553059094802,-23.179867647341201],[-46.605620118888901,-23.1798314737098]],[[-46.6064045265896,-23.180133209544501],[-46.606433015980301,-23.180177237566902],[-46.606395532874402,-23.180216399037199],[-46.606292099259001,-23.1802525403027],[-46.606217386408098,-23.180352096668901],[-46.6061040108927,-23.180392032500599],[-46.6060375423544,-23.180345622011799],[-46.606028980610603,-23.1802976973566],[-46.6060175180138,-23.180174091044702],[-46.6060502574826,-23.180072193119099],[-46.6061538453392,-23.180048976753],[-46.6064045265896,-23.180133209544501]],[[-46.606938322520101,-23.1797162982968],[-46.607155098471402,-23.179767770211999],[-46.607094717955199,-23.179902389068001],[-46.607016520237799,-23.1799093179796],[-46.606987814746503,-23.1799805867856],[-46.606840327911698,-23.180012261810401],[-46.606795784908101,-23.179981576630201],[-46.606816571643201,-23.1798915007783],[-46.606839338067402,-23.1798429983962],[-46.606796774752603,-23.179662846692398],[-46.606862104491398,-23.179634141200999],[-46.606938322520101,-23.1797162982968]]],[[[-46.608721340994698,-23.1795174943157],[-46.6086700251455,-23.179514780721799],[-46.608553275116002,-23.1796802443844],[-46.608402951871,-23.179859155856398],[-46.6081661271039,-23.179974316057699],[-46.608073038941598,-23.179994692522701],[-46.608150695625,-23.179995589222202],[-46.608282048352798,-23.180019440262999],[-46.609071784468902,-23.1795023712579],[-46.609055908444802,-23.1794798802236],[-46.608865858295601,-23.179477900534401],[-46.6088124066912,-23.179468002089401],[-46.608721340994698,-23.1795174943157]]],[[[-46.607879201265902,-23.180037122283],[-46.607821971333202,-23.179984418041201],[-46.607786749128401,-23.179851952474301],[-46.607960320620897,-23.1796925191416],[-46.608120499870999,-23.1795772527087],[-46.608214557728502,-23.1794094071345],[-46.608381456371497,-23.1793466006262],[-46.608472899346197,-23.179279651305301],[-46.608539848667299,-23.179255157651198],[-46.608572506872598,-23.179204537433002],[-46.608662316937099,-23.179217600715099],[-46.608698240963001,-23.1791849425097],[-46.608791316847999,-23.1791228919197],[-46.608874595271502,-23.1790526767785],[-46.608956240784899,-23.178997157829201],[-46.608976599835302,-23.178961341108799],[-46.608950185658898,-23.178917896739701],[-46.608033163645203,-23.1795192295282],[-46.607571763775503,-23.179529718150398],[-46.607451474210698,-23.179539952764401],[-46.6074322549389,-23.179575740374101],[-46.607387711935303,-23.179623252911298],[-46.607335250175502,-23.1798588359087],[-46.607277839192797,-23.179954850827698],[-46.607204166380903,-23.180095156050299],[-46.6073444337054,-23.1800931269876],[-46.607615739031203,-23.1800700434984],[-46.6080342821325,-23.1800611270769],[-46.608069645031101,-23.179995435429099],[-46.607879201265902,-23.180037122283]]],[[[-46.601766409481598,-23.177850683490401],[-46.601842866927001,-23.1782805843571],[-46.601890943430099,-23.177958014246499],[-46.601892020393002,-23.177893133637699],[-46.601758140605,-23.177237365201101],[-46.6017651494276,-23.1773909637926],[-46.601766409481598,-23.177850683490401]]],[[[-46.604083694672497,-23.176329241952299],[-46.604023854098003,-23.1761607224588],[-46.6039746866633,-23.176250782846498],[-46.603956869461399,-23.176352736835],[-46.603884610809303,-23.176441822844399],[-46.603867344744202,-23.176454868315901],[-46.603856996660198,-23.176512597933201],[-46.603886792339502,-23.176540173355399],[-46.603917299467099,-23.176574342536401],[-46.603955910448697,-23.1766303615235],[-46.603976523125702,-23.176670359841498],[-46.603992795972601,-23.176712033457999],[-46.604008737044403,-23.1767768036765],[-46.604014225943203,-23.1768430353513],[-46.604009143835498,-23.1769092947678],[-46.603993600718098,-23.1769741476087],[-46.603977583983202,-23.177015905957902],[-46.603957217167903,-23.177056011807501],[-46.603918950600502,-23.1771122325097],[-46.603872175399097,-23.177162653630699],[-46.603817904104602,-23.177206183697599],[-46.6037781329672,-23.1772309032674],[-46.603735932567702,-23.1772518997834],[-46.603691709321403,-23.1772689710359],[-46.603645889125701,-23.1772819526179],[-46.603575133008199,-23.177293494449401],[-46.603527274185403,-23.177295793912801],[-46.603479402028398,-23.177293745384201],[-46.603408576257301,-23.177282574674301],[-46.6034902428853,-23.1773604686312],[-46.603688862277501,-23.177585333447301],[-46.604748208866503,-23.1777458941391],[-46.604740155715902,-23.177558780821698],[-46.604617103239498,-23.177153821472402],[-46.604240807737597,-23.1767139368926],[-46.604083694672497,-23.176329241952299]]],[[[-46.611385524793597,-23.176225503143801],[-46.611322900727501,-23.176278991823398],[-46.611235047500699,-23.176312339577201],[-46.611182261540698,-23.176346900431199],[-46.6111522011226,-23.176375546616399],[-46.611055542766003,-23.176497511300202],[-46.611081751645997,-23.176516813803399],[-46.611113883452902,-23.176518322006],[-46.611177397457197,-23.176506413130198],[-46.611278035833699,-23.176449827929801],[-46.611318538920102,-23.176451385740801],[-46.611375114171302,-23.176464318872402],[-46.611434430693102,-23.176510382755399],[-46.611410612941498,-23.176550079008098],[-46.6114364155058,-23.176709856424999],[-46.611412597754203,-23.176869633841999],[-46.611463931870503,-23.176901477413399],[-46.6115206853123,-23.1768273309455],[-46.611452183212499,-23.1765236011944],[-46.611483666887501,-23.176490331016101],[-46.611436932557098,-23.176379726434099],[-46.611385524793597,-23.176225503143801]]],[[[-46.603109562527301,-23.176038956112901],[-46.603154105531999,-23.176118143676899],[-46.603205577448598,-23.176176544505299],[-46.603229333717799,-23.176224057043601],[-46.603355043975498,-23.176201290619002],[-46.603438190917601,-23.1761280421224],[-46.603504510502397,-23.176042915491099],[-46.603592606667299,-23.176014209999199],[-46.603610349967902,-23.176011992802898],[-46.603544583193496,-23.175985246691901],[-46.603498684528397,-23.175972505610702],[-46.603451656093704,-23.175963985186598],[-46.603403950794501,-23.175959767475099],[-46.603356028054499,-23.175959893094799],[-46.603274570373401,-23.175970351620599],[-46.603254210036397,-23.175926453294998],[-46.603231580386598,-23.1758936299128],[-46.603254404349101,-23.175863339409201],[-46.603273739764703,-23.175827717709101],[-46.603293760492903,-23.175777194558499],[-46.603306341002401,-23.175733158423],[-46.603310763628897,-23.175687796059801],[-46.603306903355801,-23.175642389833499],[-46.603301892129402,-23.1756200723459],[-46.603270931731103,-23.175534536814499],[-46.603327119448998,-23.175393693232699],[-46.603119802472001,-23.175322224293001],[-46.6031016910567,-23.1754594244663],[-46.603115584745197,-23.175604315788501],[-46.6031413873094,-23.175685693106399],[-46.602998763520702,-23.175722076726],[-46.603002907868202,-23.175724356560799],[-46.603080990217002,-23.175838870416701],[-46.603093751806199,-23.1758821895571],[-46.603075888492498,-23.175929825060301],[-46.603047108709298,-23.175987384626701],[-46.603031230208302,-23.176037004942501],[-46.602960527992103,-23.176093674558299],[-46.6027954815181,-23.176055358915502],[-46.602720101447403,-23.175964935951299],[-46.602708776145597,-23.176003391512602],[-46.602704675112903,-23.176029703434001],[-46.602703795976304,-23.176069550669901],[-46.602706733060401,-23.176095995316601],[-46.602751653346303,-23.176262602781499],[-46.6027584302892,-23.1762835967934],[-46.602777366680101,-23.176323726293901],[-46.602870204664001,-23.176457029840002],[-46.602866413801301,-23.176506112830602],[-46.602868808932897,-23.176545331452399],[-46.603084480537397,-23.1763103878924],[-46.603114471780103,-23.176292140973],[-46.603084816413599,-23.176252762535501],[-46.603048192165303,-23.176146849168799],[-46.603061060144398,-23.176017179532799],[-46.603109562527301,-23.176038956112901]]],[[[-46.605888842694903,-23.176105659845501],[-46.605951256319003,-23.176072754854601],[-46.606007772070697,-23.176031739184701],[-46.606057166551203,-23.175983500707101],[-46.606098370520101,-23.175929083646299],[-46.606130492040002,-23.175869665974599],[-46.606152835786503,-23.175806533910698],[-46.606164918098003,-23.175741054077701],[-46.606167133678802,-23.1756967953411],[-46.606164646354102,-23.175652548947198],[-46.606152162165401,-23.175587133584902],[-46.606129431173301,-23.175524119807999],[-46.606096945447703,-23.1754648716697],[-46.606070208013797,-23.175428102491502],[-46.606039701144297,-23.1753939333068],[-46.606005718637597,-23.1753626931817],[-46.605948952344001,-23.175321974673398],[-46.605907777941198,-23.175299304684799],[-46.605842011513801,-23.175272558573301],[-46.6057961130916,-23.175259817492201],[-46.6057449373899,-23.175250835161801],[-46.605785777395603,-23.175295598323],[-46.605854061683999,-23.1753510758179],[-46.605909808860503,-23.175440132592499],[-46.605809636888601,-23.175585933950501],[-46.605851254380497,-23.1757498328395],[-46.605382774596102,-23.175618776984301],[-46.605232737541499,-23.175358561444899],[-46.605172207380399,-23.175261478370501],[-46.6051423784386,-23.175248085784499],[-46.605037454916399,-23.175259963919199],[-46.604978064243397,-23.175180776355301],[-46.604851579663503,-23.1750786334966],[-46.604812462848201,-23.175081330338401],[-46.6049197691326,-23.175172514926398],[-46.605091785913103,-23.175365542056198],[-46.605219419510497,-23.175545079145898],[-46.6052047680191,-23.175589617018201],[-46.605195551890297,-23.1756330961049],[-46.605190469352401,-23.175699355498399],[-46.605192956356802,-23.1757436019066],[-46.605200122320397,-23.175787409884101],[-46.605219481193103,-23.1758513790524],[-46.605237945815396,-23.175892264376401],[-46.605260656137098,-23.175931279564999],[-46.605287393448599,-23.175968048878801],[-46.605317900256203,-23.1760022182076],[-46.605370076356799,-23.176047885016501],[-46.605428935476603,-23.176085979507501],[-46.605471263619201,-23.176106754453102],[-46.605515590483499,-23.1761235935931],[-46.605561489174001,-23.1761363347557],[-46.6056085176576,-23.1761448552354],[-46.605680186092002,-23.176149553990701],[-46.605751824553998,-23.176144479582302],[-46.605821882272501,-23.176129741857299],[-46.605888842694903,-23.176105659845501]]],[[[-46.602781062828903,-23.175197552305001],[-46.602752713760097,-23.1752597773723],[-46.602730483283302,-23.175324983077701],[-46.602685899300603,-23.175427358820102],[-46.602671045115798,-23.175473358168201],[-46.602665206613402,-23.175521059350601],[-46.602665938745197,-23.175546784689701],[-46.602783364242299,-23.1756048066832],[-46.602772212159699,-23.175516984032601],[-46.602807938787002,-23.175439576340001],[-46.602899240168199,-23.175360183834599],[-46.602966723797699,-23.175263920421902],[-46.602781062828903,-23.175197552305001]]],[[[-46.6205871999707,-23.1741689947075],[-46.620594612822202,-23.174231703074799],[-46.620518223231898,-23.1743014294292],[-46.620532721458602,-23.174344367714799],[-46.620503018843898,-23.174420999920301],[-46.6206526904339,-23.174433659578401],[-46.620704618519198,-23.1745954179591],[-46.620666264775203,-23.174664931645498],[-46.620649782382998,-23.174709664017801],[-46.620641959081098,-23.1747563639567],[-46.620643032961098,-23.174803610267102],[-46.620648686793899,-23.174834700671699],[-46.620664383197401,-23.174879674047901],[-46.620760751129801,-23.175059697386502],[-46.620841898042499,-23.175229514634299],[-46.620841320978002,-23.175583228616102],[-46.620812926459003,-23.1756726659574],[-46.620855034562503,-23.1756723347163],[-46.620928570653703,-23.175566426947999],[-46.620843608819499,-23.174772036216599],[-46.620757511903498,-23.174158623968399],[-46.6205871999707,-23.1741689947075]]],[[[-46.602566229175601,-23.174891332538799],[-46.602305080897203,-23.174869320925598],[-46.602096774835601,-23.1748605183808],[-46.602348888287104,-23.174924582853201],[-46.602393279566797,-23.174930564768101],[-46.6024381382651,-23.174930211184002],[-46.602482412776197,-23.174923530389801],[-46.602525065189297,-23.174910679001002],[-46.602566229175601,-23.174891332538799]]],[[[-46.601140531401199,-23.174568479831201],[-46.601319192142299,-23.1748069350324],[-46.601351956319903,-23.1747836654061],[-46.6013974523309,-23.174741317590801],[-46.601384115599501,-23.174737319230601],[-46.601361788785802,-23.174638349829099],[-46.601256989767897,-23.174564219531199],[-46.601140531401199,-23.174568479831201]]],[[[-46.602738065172403,-23.1742257094621],[-46.602694965027901,-23.174224929103701],[-46.602652207525097,-23.174230004055001],[-46.602610718224597,-23.174240824460099],[-46.602571395234797,-23.174257156092398],[-46.602370260397301,-23.174368299005099],[-46.602258958429999,-23.174339966104199],[-46.602362804276602,-23.174417865104701],[-46.6024281206872,-23.174457054950999],[-46.6025407914954,-23.174434194207301],[-46.6025774852327,-23.174382391330798],[-46.6026981890857,-23.1743057035447],[-46.602780574980997,-23.174232328238201],[-46.602738065172403,-23.1742257094621]]],[[[-46.6128871025306,-23.174893157108901],[-46.613020731541802,-23.174851583638802],[-46.613131027228697,-23.174735778100398],[-46.613348569586599,-23.1743661716947],[-46.612157645887002,-23.172882785360599],[-46.611782851442101,-23.173068213112],[-46.611960855143103,-23.173112324651001],[-46.6120403313015,-23.173174596067501],[-46.612198353824198,-23.173221505025701],[-46.612241500721403,-23.173318117270099],[-46.612253101248697,-23.1734101998487],[-46.612217178667898,-23.173478505563502],[-46.612128194245599,-23.173498827580701],[-46.612043760398898,-23.1734608705051],[-46.611965562654902,-23.1735053455049],[-46.6118870464434,-23.173505458440999],[-46.611922199616998,-23.173558291739401],[-46.6119438776294,-23.173638923463201],[-46.611966014362601,-23.173757849593201],[-46.611966466457403,-23.1738616382057],[-46.611883766530298,-23.173982169647498],[-46.611786211915202,-23.174179489417799],[-46.611749954063299,-23.174266593961601],[-46.611727273651198,-23.174390500357099],[-46.611730359237399,-23.174431959468802],[-46.611741191900897,-23.174471743472701],[-46.611758681863201,-23.174508932642699],[-46.611788901836,-23.174534155993801],[-46.611819045375398,-23.174552996936701],[-46.611916302875201,-23.1746030666453],[-46.612013866261996,-23.174678665893399],[-46.612041912650596,-23.174714550087302],[-46.612082127170702,-23.174805630600702],[-46.612092096145403,-23.174869360354901],[-46.612085830005697,-23.174922617716],[-46.612061155062598,-23.174976063580399],[-46.612051429852102,-23.175008828150599],[-46.611841264911398,-23.175388611942001],[-46.6118645931343,-23.175412825485498],[-46.612165716310997,-23.1751253554492],[-46.612282307524701,-23.175009958763098],[-46.612496113942498,-23.1749396798016],[-46.612699032070502,-23.1749238422892],[-46.6128871025306,-23.174893157108901]]],[[[-46.601149840449601,-23.171770514422199],[-46.601096388843899,-23.171821986338699],[-46.600943952783403,-23.171867519188002],[-46.601027099725499,-23.1719467067519],[-46.601052835683802,-23.172075386543298],[-46.601236946769902,-23.1721031021907],[-46.601158659153697,-23.172034621117302],[-46.601134316645798,-23.171961593593601],[-46.601135748558001,-23.17190145328],[-46.601149840449601,-23.171770514422199]]],[[[-46.600985526254398,-23.171641834630801],[-46.600864765219399,-23.171685387790902],[-46.601001363767203,-23.171721022194699],[-46.601148489496602,-23.1717692118923],[-46.601098518839997,-23.1717210323392],[-46.601055561473203,-23.171669483498899],[-46.601060754440198,-23.171570565823199],[-46.600985526254398,-23.171641834630801]]],[[[-46.611350157364697,-23.1696917932268],[-46.611395230837303,-23.169676748659601],[-46.611438492329697,-23.169657691789102],[-46.611479525207201,-23.169634806144899],[-46.611536038243798,-23.169593790427101],[-46.611585430348001,-23.1695455518975],[-46.611630516771598,-23.169484752810501],[-46.611728996757599,-23.169464101463799],[-46.611823185190801,-23.169437741234901],[-46.611852276754,-23.169426366675101],[-46.611893012892899,-23.1694040500347],[-46.611988345063899,-23.169327259650402],[-46.612013658270499,-23.169298806881599],[-46.612039148240498,-23.1692594697837],[-46.6120857661505,-23.169253848716899],[-46.612130075534203,-23.169241670043501],[-46.612337943224702,-23.1691684214092],[-46.612379099013403,-23.169150234570601],[-46.612428287561997,-23.169117237022402],[-46.612550206844098,-23.169006604050001],[-46.612888510664703,-23.168679592463999],[-46.612469834770899,-23.168300504835301],[-46.612134703416501,-23.1686245568937],[-46.612070774105803,-23.168682778174901],[-46.611963512601001,-23.1687205750709],[-46.6118431598778,-23.168726306135401],[-46.611805554814097,-23.168730382410001],[-46.611768832323499,-23.168738908464402],[-46.611716738419503,-23.168759709644899],[-46.611669958431001,-23.168789405304999],[-46.6116302471221,-23.168826881533398],[-46.611608448246997,-23.168855504501401],[-46.611556445361401,-23.168944859941],[-46.611496855604798,-23.168896733654499],[-46.611436048679401,-23.1688613553526],[-46.611370285389597,-23.168834609235802],[-46.611324389158298,-23.168821868155899],[-46.611277363218797,-23.168813347737299],[-46.611229660452203,-23.168809130035399],[-46.611181740257798,-23.168809255668599],[-46.611110461283403,-23.168817573782398],[-46.611041273863997,-23.168835471811299],[-46.610997053341599,-23.168852542990301],[-46.610954855504403,-23.168873539417799],[-46.610915086738203,-23.1688982588886],[-46.610860818585202,-23.168941788798001],[-46.610814045966301,-23.168992209763701],[-46.610775781368503,-23.1690484303322],[-46.610746853111301,-23.169109233504201],[-46.610727887414697,-23.1691733030802],[-46.610719294842298,-23.169239252150899],[-46.610721261412202,-23.1693056531198],[-46.610733744569799,-23.169371068606001],[-46.610756474107099,-23.169434082559601],[-46.610788958010701,-23.169493330914499],[-46.610815694054303,-23.169530100251698],[-46.610862775121802,-23.169580275377999],[-46.610917309475099,-23.1696235202553],[-46.610978116607697,-23.169658898755799],[-46.611043880222098,-23.169685645035301],[-46.611089776721499,-23.1696983861967],[-46.611136802958598,-23.169706906671401],[-46.6111845060408,-23.169711124401999],[-46.611232426556803,-23.169710998768799],[-46.611303705997699,-23.169702680601901],[-46.611350157364697,-23.1696917932268]]],[[[-46.599450359032197,-23.183799904726499],[-46.599753799523903,-23.183765043592299],[-46.599875078587601,-23.183700166716001],[-46.599932985279402,-23.183586133169801],[-46.599672110979803,-23.1833111904517],[-46.599155657336098,-23.182629309495098],[-46.598887731386696,-23.182077448685099],[-46.598468037307299,-23.180703544481801],[-46.598297784048697,-23.180262073822799],[-46.598061787992499,-23.179753752136602],[-46.597963348935799,-23.179859336895301],[-46.597940109032898,-23.1800659116454],[-46.597781898961003,-23.180059407040101],[-46.597745491738898,-23.1808387952563],[-46.597401835326899,-23.1813397943612],[-46.596825098157503,-23.1821613430848],[-46.597082005556601,-23.1826189156777],[-46.5983266213223,-23.1825898518427],[-46.598479146400102,-23.183451396769701],[-46.597358194304,-23.1832393008347],[-46.597375682833999,-23.183681226482701],[-46.597546171780401,-23.184116701601599],[-46.597708929082401,-23.1845937353519],[-46.597796503018998,-23.185018147659498],[-46.598037718766498,-23.185019906986],[-46.598176062994497,-23.184969995785],[-46.598404129275202,-23.184738733212001],[-46.598586393716097,-23.1844807905265],[-46.599450359032197,-23.183799904726499]]],[[[-46.6007767304285,-23.1774286599947],[-46.6007480450047,-23.1774439408604],[-46.600701984567699,-23.177461019515501],[-46.6005466050484,-23.177504430312101],[-46.600499121913003,-23.1775363800135],[-46.6003407498782,-23.177691685963001],[-46.600304260886098,-23.177722265192902],[-46.600167889446297,-23.177817467382901],[-46.599989380596497,-23.178102393095699],[-46.599955821662697,-23.178141372420399],[-46.599926773944702,-23.1781657618039],[-46.599919436851899,-23.1782153407142],[-46.5999004702932,-23.178279410325],[-46.599871540429099,-23.178340213581901],[-46.599847019437803,-23.178378280681599],[-46.599818580615597,-23.1784139424302],[-46.599786497842501,-23.178446855383399],[-46.599732226027498,-23.178490385440401],[-46.599692454509203,-23.178515105004099],[-46.599650253705697,-23.178536101514599],[-46.599606030036497,-23.178553172762001],[-46.599560209402803,-23.178566154339599],[-46.599513233086199,-23.178574921226399],[-46.599465553498703,-23.1785793889917],[-46.599417629825297,-23.178579514608],[-46.599369923601898,-23.178575296865599],[-46.599322894269797,-23.178566776383999],[-46.599276994751698,-23.178554035220898],[-46.599232667088899,-23.178537196081901],[-46.599190338184201,-23.1785164211386],[-46.599150415690801,-23.1784919104667],[-46.599095877762203,-23.178448665619101],[-46.599063593638299,-23.1784159213836],[-46.599034936547298,-23.178380409294501],[-46.599010182471403,-23.178342471354402],[-46.598989569803599,-23.178302472928401],[-46.598966838794603,-23.178239459038],[-46.598954354841403,-23.178174043621102],[-46.598952388169103,-23.178107642726498],[-46.598960981334798,-23.178041693733199],[-46.5989848550091,-23.177965764358699],[-46.598963399814401,-23.177913363800499],[-46.598951623721199,-23.1778704161596],[-46.598944457650902,-23.177826608193101],[-46.598941970612202,-23.1777823617964],[-46.598947053235101,-23.177716102420799],[-46.598962596899398,-23.1776512496828],[-46.598988265117697,-23.1775892074455],[-46.599010736306802,-23.177550073956802],[-46.599051941080603,-23.177495657121401],[-46.599101336354401,-23.1774474188799],[-46.599157852869602,-23.1774064034372],[-46.599198888203198,-23.177383517960301],[-46.599264490545501,-23.177356427502101],[-46.599333682351698,-23.177338529515801],[-46.599404965841401,-23.177330211434999],[-46.5994767979575,-23.1773316533193],[-46.599547623767002,-23.177342823956501],[-46.599615910119802,-23.1773634815384],[-46.599680178835001,-23.177393178894899],[-46.599738787170601,-23.177431092755601],[-46.599781748985201,-23.177408161818601],[-46.599930162469597,-23.1773045532018],[-46.599989384524399,-23.177246477844399],[-46.599816139810798,-23.177223851521799],[-46.599537011723697,-23.177074676791801],[-46.599791442694197,-23.176689036636599],[-46.600112397852001,-23.1762429669018],[-46.600464044371201,-23.175960294054502],[-46.6006296721675,-23.176059254708299],[-46.600589851577404,-23.175565840888599],[-46.600594037494403,-23.175512878736399],[-46.600604483305297,-23.175474210965302],[-46.600627723480002,-23.175425648570201],[-46.600646546624198,-23.175403428821198],[-46.600612501662901,-23.175353759858201],[-46.600538540748602,-23.1751949355052],[-46.600520719307298,-23.175040000568199],[-46.600530140672198,-23.174936494037599],[-46.600561453365401,-23.174854308851302],[-46.6005214176338,-23.174838443511302],[-46.600330053036501,-23.174827790692699],[-46.600192712094398,-23.174820386228099],[-46.600012545408703,-23.174800666476902],[-46.600158835926301,-23.175111719231499],[-46.600062862436197,-23.175112531402199],[-46.600028217877799,-23.175130348603702],[-46.600016339743497,-23.1751659830066],[-46.599958928760898,-23.175159054095001],[-46.599933192803199,-23.1751293587592],[-46.599885680265899,-23.175115500935799],[-46.599768878611698,-23.175119460313901],[-46.599672863692597,-23.175107582179599],[-46.599706518406499,-23.1748947656063],[-46.599745122343101,-23.174859131203299],[-46.599886520159103,-23.174787405824699],[-46.599672277956699,-23.174763880143399],[-46.599620268553899,-23.174765275337801],[-46.5995693461645,-23.174775153862999],[-46.599417264219397,-23.174826640646099],[-46.599194859453299,-23.1749259587681],[-46.599049310988399,-23.1750140330515],[-46.598742576238102,-23.1752152765192],[-46.598171183349599,-23.175495162649],[-46.597747991051598,-23.1758839790241],[-46.597372533329903,-23.176319103336802],[-46.597172712045499,-23.176592333783301],[-46.597032542190298,-23.176777065765599],[-46.596950877112697,-23.176938780959802],[-46.596928740481303,-23.1770095635266],[-46.596891954675101,-23.177230278363499],[-46.5969410024166,-23.1775245648127],[-46.597088145641301,-23.177794327391201],[-46.597247550801299,-23.178100875775801],[-46.597368637413197,-23.178404358676602],[-46.5973763011228,-23.178458771014899],[-46.597426881606303,-23.178512416982201],[-46.597445274509397,-23.1786135779491],[-46.597410883352602,-23.178694160092199],[-46.597951338464298,-23.1794009090844],[-46.598156426673199,-23.179704794737599],[-46.598400011757903,-23.180167541553999],[-46.599869516177002,-23.179718137007601],[-46.600111968123201,-23.179649135519998],[-46.600124848969202,-23.1796678235842],[-46.600169213811398,-23.1797200741373],[-46.600203197252497,-23.179751314399599],[-46.600259965225703,-23.179792033110001],[-46.600301140915299,-23.179814703223201],[-46.600366909479099,-23.1798414494945],[-46.600412809435703,-23.1798541906577],[-46.600483636558998,-23.179865361371199],[-46.6005315096305,-23.179867409903999],[-46.600579369367999,-23.179865110446201],[-46.600631708332251,-23.179856573016469],[-46.600626754851703,-23.1798584851431],[-46.600690899537,-23.180091609723199],[-46.600817358835798,-23.180138888888902],[-46.601210412091298,-23.180694444444399],[-46.6019225151353,-23.1823815306014],[-46.602031143624203,-23.182638888888899],[-46.602357570425902,-23.183282736006799],[-46.602556988725397,-23.18375],[-46.602635348907398,-23.1839499801982],[-46.602648144910603,-23.183976261638598],[-46.602673227275702,-23.1840277777778],[-46.602769629778201,-23.1843055555556],[-46.6027651137479,-23.1845833333333],[-46.602754773896997,-23.1845977904274],[-46.602988475430799,-23.184536891427999],[-46.603282237271003,-23.184411710058999],[-46.603402329997202,-23.184332719282999],[-46.603703173991903,-23.184055206336001],[-46.603890899428201,-23.183886229575599],[-46.604156380008803,-23.1836576512477],[-46.604283743299099,-23.183281006615999],[-46.604389502491699,-23.182697031943501],[-46.6043566218435,-23.182607949769999],[-46.604318686481001,-23.182526906041002],[-46.6042341940828,-23.182404478280301],[-46.6041445286805,-23.182299293866102],[-46.603985889891902,-23.1821820391093],[-46.604028280690301,-23.182083795401802],[-46.603960119777398,-23.182104810744502],[-46.603913142224002,-23.1821135776208],[-46.603865461382,-23.182118045377401],[-46.603817536448297,-23.1821181709869],[-46.603769828970897,-23.182113953239799],[-46.603722798403503,-23.182105432755399],[-46.603676897680501,-23.182092691591698],[-46.603655940951803,-23.182084169211802],[-46.603796705742901,-23.1818663953912],[-46.604031688903497,-23.1812896478874],[-46.603767189107202,-23.180787910202099],[-46.603221204154003,-23.180054232078199],[-46.602601723806799,-23.179443879895501],[-46.601688660198697,-23.178849306674699],[-46.6000439954095,-23.179372952852599],[-46.600108874148198,-23.1791014098335],[-46.600537310499398,-23.178822761483499],[-46.6008976836751,-23.178588380365898],[-46.601220400299802,-23.178435223003198],[-46.6013038289463,-23.1779282903729],[-46.601217695608398,-23.177506981124299],[-46.601095893921602,-23.1773970383008],[-46.600852097712,-23.177362656783998],[-46.600827618135298,-23.177389647718002],[-46.600803368164797,-23.1774104849347],[-46.6007767304285,-23.1774286599947]]],[[[-46.582179616605998,-23.1778531315809],[-46.582197493518997,-23.177881946219799],[-46.582212584680697,-23.1779160466108],[-46.582225513732901,-23.177969950183499],[-46.582228854859245,-23.178027044062123],[-46.582117519089699,-23.178445550751501],[-46.582491231720397,-23.178802199380801],[-46.582461468080602,-23.179143296692398],[-46.582620325145598,-23.1792485084184],[-46.582623671918157,-23.179244688097818],[-46.582620508944899,-23.179248630149299],[-46.583029324192999,-23.1795120882155],[-46.583955745708302,-23.1802086917426],[-46.583064837238503,-23.178900640255598],[-46.582526438240301,-23.177812386961602],[-46.582174358306098,-23.1770640053597],[-46.582009015869502,-23.177132441813299],[-46.581939455090797,-23.177293039819201],[-46.582179616605998,-23.1778531315809]]],[[[-46.579936449872299,-23.176380563327498],[-46.579477759351498,-23.176394679765099],[-46.579532852336001,-23.176702024811],[-46.579473840357899,-23.176720052007301],[-46.579515493123999,-23.176945148081799],[-46.579691771982901,-23.177396499192501],[-46.579801549219198,-23.1773558902918],[-46.580046040817301,-23.177215332368998],[-46.580294578369902,-23.1770477267264],[-46.5802566311839,-23.177012046825698],[-46.579936449872299,-23.176380563327498]]],[[[-46.5918159207381,-23.1764526688704],[-46.591813953604102,-23.1763862679719],[-46.591792076806101,-23.176397638021399],[-46.591504915918897,-23.176408431546299],[-46.591402437118703,-23.176401322043901],[-46.591214887810402,-23.176357642340001],[-46.591073869939599,-23.176397251300099],[-46.591090163518501,-23.176509167640599],[-46.5911543362188,-23.176574188811799],[-46.591178750559301,-23.1765711810671],[-46.5914362323931,-23.176591865201999],[-46.591535109756499,-23.176633021112401],[-46.591606370393599,-23.176658132136701],[-46.591646191766898,-23.176774190202298],[-46.5916780514954,-23.176867044493001],[-46.591583639306599,-23.177081071403698],[-46.592054431648997,-23.176742341453899],[-46.592047441715998,-23.176724209621302],[-46.5919615426116,-23.176577609869899],[-46.591860917043903,-23.176547837004399],[-46.591813297955703,-23.1764812039644],[-46.5918159207381,-23.1764526688704]]],[[[-46.587131835699097,-23.1760053831701],[-46.587011509765397,-23.175901645470301],[-46.586854490080498,-23.175695418777298],[-46.586844354893501,-23.175703592315301],[-46.586739431373601,-23.175663998534201],[-46.586786087514703,-23.175936344630699],[-46.586849860059203,-23.176037819611899],[-46.586891433529303,-23.176113047795901],[-46.587063328090302,-23.176302064950999],[-46.587048631898,-23.176321659874201],[-46.586902559034499,-23.176186927667601],[-46.586806591533197,-23.176066017520501],[-46.586672169539199,-23.175932593489399],[-46.586587258205398,-23.176010973182098],[-46.586453767791198,-23.176110172480701],[-46.586567488580101,-23.176257420408401],[-46.586725281636603,-23.1763956515376],[-46.586914571989404,-23.176414548146699],[-46.586996385416903,-23.176375036016999],[-46.587072795143797,-23.176324868980402],[-46.587166542662402,-23.1761636022459],[-46.587131835699097,-23.1760053831701]]],[[[-46.590848884706297,-23.176344970978001],[-46.590860397362498,-23.176301962353602],[-46.590886065319602,-23.176239920104202],[-46.5909054019737,-23.176204482703699],[-46.590935047908197,-23.176163877851199],[-46.5909653448781,-23.176129549284699],[-46.590999135413902,-23.176098131508301],[-46.591036094094299,-23.176069927090399],[-46.591075864987502,-23.176045207653399],[-46.591118065079698,-23.176024211257001],[-46.591162287963698,-23.176007140106201],[-46.591208107752003,-23.175994158603899],[-46.591269603140503,-23.175983676190398],[-46.591540888103502,-23.175570893743],[-46.591077149093202,-23.1753263245248],[-46.590758731591599,-23.175164666408602],[-46.589994238490398,-23.176135082965502],[-46.590313132757501,-23.1762954694059],[-46.590735564074798,-23.176549105339198],[-46.590756485240099,-23.176525673541299],[-46.590786753023202,-23.176499673668499],[-46.590841370425601,-23.1764666063298],[-46.590839771290298,-23.176433074490799],[-46.590841987205103,-23.176388815773301],[-46.590848884706297,-23.176344970978001]]],[[[-46.586065472048197,-23.175605673254498],[-46.586073148570797,-23.1755791275604],[-46.585980349541302,-23.175388013005499],[-46.585863933642003,-23.1752266823569],[-46.585479037115803,-23.174982449841298],[-46.586028645828399,-23.175570667907198],[-46.586065472048197,-23.175605673254498]]],[[[-46.5983818073395,-23.175271702746599],[-46.598647278366599,-23.175145213152302],[-46.599332039586201,-23.1747783831599],[-46.5992552246069,-23.174616479550199],[-46.599201540343799,-23.174302160074799],[-46.5991178718903,-23.1740638502196],[-46.599107542787699,-23.174034430207001],[-46.598904579767797,-23.173767806925301],[-46.598647134735202,-23.1735017365597],[-46.598502430785999,-23.173343280685199],[-46.598191509786901,-23.173556824043501],[-46.5977189192431,-23.173482783394199],[-46.597358113472197,-23.173416385431999],[-46.597505484991103,-23.1737412532128],[-46.597455301714398,-23.174001504138001],[-46.597431951301097,-23.1742867004297],[-46.597317382670496,-23.1745610540043],[-46.597273422533597,-23.174840575261701],[-46.5972159966501,-23.1750891313647],[-46.597093855048399,-23.175338343991498],[-46.597003300025797,-23.1756754978631],[-46.597045054166998,-23.175899511297501],[-46.597085713932799,-23.176060489187901],[-46.597123780935398,-23.176483978704098],[-46.597359892530697,-23.176174061422699],[-46.597633683866299,-23.175835257888199],[-46.597840212636697,-23.175667630306901],[-46.597961064163997,-23.1755275863636],[-46.598016381592302,-23.175477903374301],[-46.5983818073395,-23.175271702746599]]],[[[-46.5944184336456,-23.1752624410836],[-46.594477057807403,-23.175224038624702],[-46.594520031913198,-23.175186811024702],[-46.594532875603299,-23.175252388795698],[-46.5945556061167,-23.175315402707302],[-46.594576218332499,-23.175355401146],[-46.594600971864203,-23.1753933390975],[-46.594645335307497,-23.1754455896717],[-46.594697511193402,-23.175491256482601],[-46.594736083853697,-23.175517548668001],[-46.594777258239603,-23.175540218786601],[-46.594843024720198,-23.175566965061599],[-46.594912324245399,-23.1755845001415],[-46.594959748097303,-23.175590876931501],[-46.595007619648797,-23.175592925457199],[-46.595079257814703,-23.175587851046998],[-46.595126233087299,-23.175579084151401],[-46.595172052702203,-23.1755661025636],[-46.595237654076499,-23.175539011927501],[-46.595278688752799,-23.175516126309901],[-46.595317099529403,-23.175489632323899],[-46.595368994479202,-23.1754436927062],[-46.595413036730903,-23.175391210388501],[-46.595448272906303,-23.175333321461601],[-46.595473940256298,-23.175271279052399],[-46.595485452515398,-23.175228270350502],[-46.595492349639599,-23.1751844255046],[-46.5954939089766,-23.175118015340299],[-46.5954890763756,-23.175073935076401],[-46.595479593755897,-23.175030505001398],[-46.595456862856302,-23.1749674912204],[-46.595424377263498,-23.174908243078701],[-46.595382840201701,-23.174854043114099],[-46.595333150828097,-23.1748060645854],[-46.595276384768397,-23.1747653460755],[-46.595235210534703,-23.1747426760863],[-46.595191831161998,-23.1747238464751],[-46.595123546146098,-23.174703188893499],[-46.595052721724002,-23.174692018259901],[-46.594980891016803,-23.174690576382599],[-46.594909608926102,-23.1746988944736],[-46.594831644276198,-23.1747199480867],[-46.594507970352801,-23.174527793168402],[-46.594278272003997,-23.174378925048799],[-46.593832791389801,-23.1740719816633],[-46.593577060559703,-23.173812732044301],[-46.593548707627598,-23.173787332679399],[-46.593516918767499,-23.173765687977099],[-46.5934822711367,-23.173748190916601],[-46.593380781221398,-23.173717040107402],[-46.593366341610398,-23.173882518934601],[-46.593340596946298,-23.174177554364],[-46.593347825575201,-23.174186415263701],[-46.593339997618799,-23.174184422693099],[-46.593324607212899,-23.174360797688099],[-46.593417617934399,-23.174455088316101],[-46.593447880690697,-23.174481968655702],[-46.593728560383902,-23.174675835898402],[-46.593705944582197,-23.174724960184701],[-46.593692163348599,-23.174767394749299],[-46.593682947277699,-23.174810873840698],[-46.593677864773497,-23.174877133241399],[-46.593683353121399,-23.1749433649643],[-46.593692835425799,-23.174986795096501],[-46.593715565895003,-23.175049809010101],[-46.5937361780706,-23.17508980745],[-46.593774788287803,-23.175145826646698],[-46.593805294910403,-23.175179995977899],[-46.5938392772116,-23.1752112362521],[-46.593876407923403,-23.1752392466061],[-46.593916329455702,-23.175263757282998],[-46.593958657340501,-23.175284532229501],[-46.594002983934601,-23.175301371369802],[-46.594072283323101,-23.175318906449601],[-46.594143615613199,-23.1753268507493],[-46.594215436661301,-23.175325032297],[-46.594286191742803,-23.175313490457199],[-46.594354349209603,-23.175292475078098],[-46.5944184336456,-23.1752624410836]],[[-46.5947232336013,-23.175143489603901],[-46.594640720639198,-23.175132824619201],[-46.594709230557399,-23.175081161402201],[-46.594767632454698,-23.175028375071701],[-46.594829403692401,-23.174987942989102],[-46.5949922551372,-23.1750373599791],[-46.595073119303002,-23.175013774597598],[-46.595155106582098,-23.1750710533816],[-46.595235970747801,-23.175136193959499],[-46.595249448108603,-23.175227166145799],[-46.595226985840497,-23.1752675982287],[-46.595091089117503,-23.175272090682199],[-46.595025948539501,-23.175228289259199],[-46.594965300415403,-23.175252997754299],[-46.594923745218999,-23.175274336909101],[-46.594905678731998,-23.175268709642499],[-46.594877808058897,-23.175206711614599],[-46.5948832588073,-23.1752006414631],[-46.594961638500003,-23.175181046540001],[-46.5948408031404,-23.1751124643087],[-46.594739562703801,-23.1751091984883],[-46.5947232336013,-23.175143489603901]]],[[[-46.584142574257299,-23.1745301316287],[-46.584095061719999,-23.174421248730699],[-46.5843335341645,-23.174302012508399],[-46.584079108038203,-23.174294784493501],[-46.583997462524898,-23.174265392108701],[-46.583980215421398,-23.17417262495],[-46.583550202839,-23.174021631511501],[-46.583475673495599,-23.174052165379901],[-46.583567190670102,-23.1743062148654],[-46.583588786146898,-23.174464131789701],[-46.583826063625096,-23.1745774899507],[-46.583910101825801,-23.174547885584602],[-46.584047266288003,-23.1744907337253],[-46.5840815574036,-23.1745168602896],[-46.583977051146597,-23.1745789108796],[-46.5839047290021,-23.174615071951902],[-46.584019619902598,-23.174669960520799],[-46.584062140359599,-23.174686703912599],[-46.584106979582998,-23.174697057353001],[-46.584176844709901,-23.174707743219098],[-46.584289071247298,-23.174617237947],[-46.584281152491101,-23.174579623854999],[-46.584142574257299,-23.1745301316287]]],[[[-46.592087246015602,-23.1731205209751],[-46.592004494115898,-23.173110005540298],[-46.591958680723302,-23.173104183949],[-46.591922691617,-23.173112938728998],[-46.591914532838402,-23.173135066325401],[-46.591915659209803,-23.1731477380028],[-46.591973218776097,-23.173254917885],[-46.592051618875097,-23.1732350697587],[-46.592134115128701,-23.173220317457879],[-46.5921832381892,-23.1732748009426],[-46.592278117615002,-23.173284252355401],[-46.592315240156204,-23.173283851695999],[-46.592333962533303,-23.173241432417001],[-46.592369198504699,-23.1731835436644],[-46.5923976364205,-23.1731478820302],[-46.592434617870403,-23.173110631673701],[-46.592087246015602,-23.1731205209751]]],[[[-46.590448699898801,-23.1743494019994],[-46.5904754368986,-23.174386171319],[-46.590522519653199,-23.174436346423299],[-46.590558118840903,-23.174466007467501],[-46.5906169772718,-23.174504101962501],[-46.590659304918503,-23.1745248769097],[-46.590703631262997,-23.1745417160503],[-46.590749529415099,-23.174554457212601],[-46.590796557346799,-23.1745629776911],[-46.590868224939001,-23.174567676442798],[-46.590939862558798,-23.174562602029098],[-46.590986837473302,-23.1745538351304],[-46.591032656738697,-23.174540853539],[-46.591076879086401,-23.174523782275799],[-46.591119078627997,-23.174502785748],[-46.5911777024575,-23.174464383283599],[-46.591229597009701,-23.1744184436578],[-46.591273638923603,-23.174365961331301],[-46.591298159176901,-23.174327894208201],[-46.591327088167397,-23.174267090915698],[-46.591340869053802,-23.174224656264499],[-46.591350084773602,-23.174181177112001],[-46.591355166770001,-23.174114917672],[-46.5913526794712,-23.174070671269099],[-46.5913401954246,-23.174005255894599],[-46.591326154218002,-23.173962894258601],[-46.591307689582898,-23.173922009031301],[-46.591284979346902,-23.173882993958301],[-46.591258242224797,-23.173846224774199],[-46.5912277357112,-23.173812055584602],[-46.591175560245603,-23.173766388989101],[-46.591136987972199,-23.173740096942399],[-46.5910958140514,-23.1737174269518],[-46.591042504222997,-23.173695085551],[-46.590999142232597,-23.173621883298299],[-46.591077196974602,-23.173582675719501],[-46.591287603534603,-23.173495830263299],[-46.591530695720103,-23.173447161373598],[-46.591696182395097,-23.173579983479101],[-46.591823805249703,-23.173722366944599],[-46.591856088739199,-23.1737485185573],[-46.591892158451799,-23.173770028773799],[-46.591944793500602,-23.173790706849601],[-46.592000770618398,-23.173801537690601],[-46.592249919911602,-23.173825883540498],[-46.592360294176601,-23.173825180462],[-46.592849135338,-23.174126889265601],[-46.5929089680874,-23.174150879011901],[-46.593062986191903,-23.174194070048799],[-46.593161341513898,-23.1731562058668],[-46.593136887033502,-23.1731291645272],[-46.5931029050953,-23.1730979243961],[-46.593046139752602,-23.1730572058812],[-46.592983526608499,-23.173024628813501],[-46.5929164210403,-23.1730008983819],[-46.592846275669402,-23.172986528273899],[-46.592774608917097,-23.172981829555901],[-46.592702972136898,-23.17298690394],[-46.592625354922497,-23.1730039729675],[-46.592626221199403,-23.1730462443183],[-46.592484686290703,-23.1731544944532],[-46.592419649280302,-23.173244479681401],[-46.592429885555603,-23.173310932525599],[-46.592469723468398,-23.173360436762898],[-46.592487540670298,-23.173390132099399],[-46.592533073519498,-23.173486147020601],[-46.592514266473103,-23.1735178220462],[-46.592377667925298,-23.173548507227199],[-46.592332634515003,-23.1734845193273],[-46.592341043677003,-23.173412898523999],[-46.592325206164197,-23.173380233653901],[-46.592261856113097,-23.173377264120202],[-46.592237109999303,-23.173418837591299],[-46.592221865267703,-23.173484630643799],[-46.592148441448003,-23.173484704430301],[-46.592032059119703,-23.173394816257701],[-46.591947582307398,-23.1733174019082],[-46.591808713628403,-23.173286504605901],[-46.591782932807902,-23.173208894526599],[-46.591709313726803,-23.1731376142823],[-46.591662010316298,-23.1731535592521],[-46.591609548555198,-23.173145640495701],[-46.591561046172302,-23.173146630340302],[-46.591511553944798,-23.173151579563001],[-46.5913858436871,-23.173215919458698],[-46.591230438092801,-23.173247594484302],[-46.591171460242798,-23.1732897945712],[-46.591062164519499,-23.1733475687838],[-46.5909592206864,-23.1733792438093],[-46.590821632294002,-23.173485157176099],[-46.590714729082698,-23.1735316798699],[-46.590707800170897,-23.173494065777],[-46.590696911880798,-23.173389142254798],[-46.590726607217299,-23.173339650027401],[-46.590773846346401,-23.173298626573199],[-46.590773453894997,-23.1732326313127],[-46.590704664984003,-23.173106015822199],[-46.590626099462902,-23.173023702468601],[-46.5906746368996,-23.172928438932001],[-46.590672903634101,-23.172872464243898],[-46.590396331566303,-23.1727940407023],[-46.590220719751102,-23.172805412240201],[-46.590201592149398,-23.172833466055899],[-46.5901511100774,-23.172810699631199],[-46.590095678782703,-23.172757248025601],[-46.590072912358004,-23.1726899385962],[-46.590046186555199,-23.172663212793399],[-46.590074892047099,-23.172651334658799],[-46.590174866346601,-23.172683009684398],[-46.590222378885002,-23.172672121394399],[-46.590259992977799,-23.1726899385962],[-46.5903015664489,-23.172714684710002],[-46.5903470992981,-23.172714684710002],[-46.590372835256403,-23.1727107253318],[-46.590493596291402,-23.172723593310899],[-46.590563875254396,-23.1727216136218],[-46.590666819087502,-23.172770116004699],[-46.590744026962398,-23.1728285168331],[-46.590755047626502,-23.172847552525798],[-46.590759307983497,-23.172848788895401],[-46.590763962358899,-23.172861181703301],[-46.590828209050699,-23.172861674214101],[-46.590852750911097,-23.1728920351811],[-46.590880585090297,-23.172934527411499],[-46.590894264309398,-23.172965163656102],[-46.5909037944324,-23.172997115088801],[-46.590909932974803,-23.173058404031298],[-46.591020877187603,-23.173012594796202],[-46.5899435198506,-23.171693602270601],[-46.589907272825698,-23.1717456531848],[-46.589804429597997,-23.171888226432898],[-46.589789696550298,-23.171912295188299],[-46.589862075469,-23.172047529483802],[-46.589854156712697,-23.172174229586101],[-46.589903648940101,-23.172310828133899],[-46.589860095779997,-23.1723464625377],[-46.589749233190403,-23.1724038735215],[-46.589663979071098,-23.172116703510699],[-46.589542849951002,-23.172304586148499],[-46.589517883940502,-23.172343645675301],[-46.589791379176198,-23.1729507764604],[-46.590379169990598,-23.174139629321601],[-46.5903810009004,-23.174161724307599],[-46.590388166783001,-23.174205532293499],[-46.590399942562797,-23.174248479952698],[-46.590416214836701,-23.1742901536749],[-46.590448699898801,-23.1743494019994]]],[[[-46.601250804593597,-23.1724000555554],[-46.601417098477903,-23.172322847680601],[-46.601159738895099,-23.1723248273697],[-46.6009637496743,-23.172245639805801],[-46.600817252681097,-23.172210005402],[-46.600652938485901,-23.1722872132768],[-46.600555933720102,-23.1722990914114],[-46.600464868021596,-23.172316908613301],[-46.600520299316301,-23.1723743195972],[-46.600718268226203,-23.172316908613301],[-46.600844968328403,-23.1722674163859],[-46.600961769985197,-23.172295132033199],[-46.6010389778601,-23.172318888302399],[-46.601124104491298,-23.172358482084402],[-46.601250804593597,-23.1724000555554]]],[[[-46.601118923589297,-23.171325824563901],[-46.600817506065098,-23.171262820425799],[-46.600704742977001,-23.1711758317579],[-46.600649256378198,-23.171050897415899],[-46.6006374431023,-23.1709216673373],[-46.600632073431399,-23.170775970268],[-46.6006159644188,-23.170607004624902],[-46.600551974341897,-23.170378792986099],[-46.600482685223497,-23.170408488322501],[-46.600377761701303,-23.1702659507074],[-46.600284716313602,-23.170176864698],[-46.600367863255798,-23.170008591124699],[-46.600257000666303,-23.170016509881101],[-46.600177813102299,-23.170048184906602],[-46.600120402118499,-23.170105595890501],[-46.600100605227503,-23.170184783454399],[-46.600013498907202,-23.170337219515002],[-46.6000115192181,-23.170430264902599],[-46.599940250410498,-23.170525289979299],[-46.600009539528997,-23.1706302135015],[-46.600037495949401,-23.1707026460452],[-46.6000689302019,-23.17069950262],[-46.600189691236899,-23.170804426142201],[-46.600296594448203,-23.170984577850099],[-46.600312431961001,-23.171138993599801],[-46.600302533515503,-23.171239957743801],[-46.600344106986597,-23.171325084375098],[-46.600385680457599,-23.171388434426198],[-46.6007736995209,-23.171525032973999],[-46.600888521488599,-23.171489398570198],[-46.600934054337898,-23.171400312560799],[-46.600993445010801,-23.1713607187788],[-46.601130043558598,-23.171376556291602],[-46.601118923589297,-23.171325824563901]]],[[[-46.594152430543502,-23.170983255869999],[-46.594236062855501,-23.170849452077299],[-46.5945459188111,-23.170721176792501],[-46.594678807556498,-23.170165486111099],[-46.593734163530101,-23.169667087584401],[-46.593599073781,-23.171215230671962],[-46.593599073781043,-23.171215230672026],[-46.5935877390976,-23.1714223136476],[-46.593681032022999,-23.171204698648701],[-46.593817861025698,-23.171065432270499],[-46.594152430543502,-23.170983255869999]]],[[[-46.599054339539002,-23.170695543241798],[-46.599252308448897,-23.170679705729],[-46.599446317980501,-23.170576761895902],[-46.599474033627899,-23.170438183659002],[-46.5993988054421,-23.1703589960951],[-46.599248349070699,-23.1703589960951],[-46.599212714666898,-23.1704223461462],[-46.598990989487902,-23.170545086870298],[-46.598812817469003,-23.1705292493575],[-46.598769264308899,-23.170378792986099],[-46.598836573738197,-23.170299605422102],[-46.599050380160797,-23.1701649865634],[-46.599188958397697,-23.1702520928838],[-46.599327536634597,-23.1702085397236],[-46.599319617878201,-23.16997493641],[-46.599205223159302,-23.169866766343102],[-46.599146868354403,-23.169842626817399],[-46.599086061139197,-23.169807248317301],[-46.599031526711897,-23.169764003440601],[-46.598984445580498,-23.1697138283151],[-46.598957709500802,-23.1696770589786],[-46.598935000222802,-23.1696380437646],[-46.598916536446701,-23.1695971584126],[-46.598902495985598,-23.1695547966726],[-46.598893014052798,-23.169511366512399],[-46.598887647069603,-23.169440009398599],[-46.598876167520203,-23.169424582840701],[-46.598733629905098,-23.169444379731701],[-46.598543579751698,-23.1693453952767],[-46.598549518818999,-23.1692444311327],[-46.598494087524202,-23.169230573309001],[-46.598432717162197,-23.169284024914699],[-46.5984406359186,-23.169361232789502],[-46.598315915505403,-23.169541384497499],[-46.598266423277899,-23.169786865945699],[-46.598294138925297,-23.170368894540601],[-46.598315915505403,-23.1705173712229],[-46.598408960893003,-23.170527269668401],[-46.598519823482498,-23.170483716508301],[-46.598668300164903,-23.170594579097799],[-46.598959314462299,-23.170707421376399],[-46.599054339539002,-23.170695543241798]]],[[[-46.5923218391737,-23.169861952719302],[-46.5924231951781,-23.169909175403198],[-46.5924921105862,-23.169447199186099],[-46.592468195552897,-23.169452508361701],[-46.592417261707297,-23.1694376828146],[-46.592363810101602,-23.1694000687217],[-46.5923450030552,-23.169320881157802],[-46.592350942122501,-23.169246642816599],[-46.592419241396399,-23.169140729449801],[-46.591936028093201,-23.168978505024601],[-46.591496654258201,-23.169551863349401],[-46.591512146332498,-23.169561039976301],[-46.591614100321102,-23.169559060287199],[-46.591702196485997,-23.169510557904299],[-46.591826916899102,-23.1694363195632],[-46.592040723321801,-23.169373959356601],[-46.592146971095502,-23.1693827609473],[-46.592184250781401,-23.169407614071201],[-46.592170392957698,-23.169451167231401],[-46.592102093683799,-23.169506598526102],[-46.592003109228898,-23.169559060287199],[-46.591901155240301,-23.169585786090099],[-46.591818998142799,-23.1696441869185],[-46.5917853434281,-23.1697619784198],[-46.591847703634699,-23.169821369092801],[-46.591892824749799,-23.169845092565701],[-46.591966916897597,-23.169825430692899],[-46.592038196405902,-23.169817112583001],[-46.592086116959003,-23.169816986951702],[-46.592144036307801,-23.1698023535548],[-46.592205037516898,-23.169826318315501],[-46.5923218391737,-23.169861952719302]]],[[[-46.599827408131901,-23.169889809778802],[-46.599918473830499,-23.169935342628001],[-46.599975884814299,-23.170010570813801],[-46.6000055801508,-23.170095697444999],[-46.6000748692692,-23.1700501645957],[-46.600181772480497,-23.169945241073499],[-46.600191670926002,-23.169866053509601],[-46.6003757820122,-23.169715597138101],[-46.600451010197901,-23.169636409574199],[-46.600279535682603,-23.1695892189598],[-46.600225541578702,-23.169481230752002],[-46.600301133324102,-23.169292251388299],[-46.600419920352699,-23.1691032720246],[-46.600576503254103,-23.168919692071398],[-46.600743884976197,-23.168887295609],[-46.600905867287899,-23.168800905042801],[-46.600873470825597,-23.1686551209622],[-46.600814077311298,-23.168568730396],[-46.600781680848897,-23.168433745136198],[-46.600657494409901,-23.1684013486738],[-46.600506470669799,-23.168339045401499],[-46.600353188115598,-23.168636326437301],[-46.600005496168698,-23.169123556483701],[-46.599991796078598,-23.169141361074601],[-46.599959972351002,-23.169173624933801],[-46.5998269959344,-23.169271210360598],[-46.599842716023602,-23.1693115723346],[-46.599854491687502,-23.1693545199482],[-46.599861657638598,-23.169398327916301],[-46.599864144860597,-23.169442574344998],[-46.599861929395402,-23.169486833117102],[-46.599855032574602,-23.169530677996399],[-46.599836067265102,-23.1695947476843],[-46.599807139291798,-23.169655551018302],[-46.5997688748472,-23.169711771784499],[-46.599702374377998,-23.169783479860602],[-46.599617208508597,-23.169836302679801],[-46.599605682952898,-23.169870012887799],[-46.599708626785997,-23.170159047496099],[-46.5997224846097,-23.170273869463799],[-46.599714480363303,-23.170275627972501],[-46.599773956526299,-23.170357016406001],[-46.599863042535702,-23.170355036716899],[-46.599906595695899,-23.170301585111201],[-46.599932331654102,-23.170206560034501],[-46.599827408131901,-23.170121433403299],[-46.599807611240898,-23.170008591124699],[-46.599827408131901,-23.169889809778802]]]]}}
]
}
