{
"type": "FeatureCollection",
"name": "Ford - Tatui - TGI",
"crs": { "type": "name", "properties": { "name": "urn:ogc:def:crs:OGC:1.3:CRS84" } },
"xy_coordinate_resolution": 1e-15,
"features": [
{"type":"Feature","properties":{"Área (ha)":2.2,"Nome do Projeto":"Ford","Propriedade":"-","Tipo":"Recuperação Ambiental","Ano de Implantação":"2017","Metodologia de Restauração":null,"Monitoramento":null,"Município":"Tatuí","UGRHI":"10 - Tietê, Sorocaba","Região Hidrográfica":"Paraná","Status do Projeto":null,"Fotos do Projeto":null},"geometry":{"type":"Polygon","coordinates":[[[-47.911266592965447,-23.381745599761441,0.0],[-47.91111864690231,-23.381790167111479,0.0],[-47.91101312510547,-23.381741029750248,0.0],[-47.910924934163923,-23.381719002727522,0.0],[-47.910824060196241,-23.38171228410063,0.0],[-47.910759925182639,-23.381818775191729,0.0],[-47.910727893385278,-23.3817742655351,0.0],[-47.910662865613062,-23.38172033216825,0.0],[-47.910669086232737,-23.381669922886299,0.0],[-47.91079223606701,-23.381629260369131,0.0],[-47.910776266028833,-23.38158619127384,0.0],[-47.910893854504202,-23.38154672335256,0.0],[-47.91101572567181,-23.381448744413959,0.0],[-47.910976509517717,-23.38139895364894,0.0],[-47.910951631231093,-23.381378842990941,0.0],[-47.910894297868182,-23.381364934216329,0.0],[-47.910889082975523,-23.381346995253121,0.0],[-47.910987985124372,-23.38131403743127,0.0],[-47.911018317683158,-23.381366003899039,0.0],[-47.911009558213458,-23.381401340974492,0.0],[-47.911071043048523,-23.38144917146246,0.0],[-47.91118676290543,-23.381466751983901,0.0],[-47.911209848565349,-23.38145627264538,0.0],[-47.9112263059532,-23.38141727038645,0.0],[-47.911232044192609,-23.38140781646312,0.0],[-47.911247347254047,-23.381353282076191,0.0],[-47.911310101672683,-23.381292160457321,0.0],[-47.911341088827307,-23.381326607086422,0.0],[-47.911408779942519,-23.38132923666495,0.0],[-47.911454482820787,-23.38133556914422,0.0],[-47.911534668616028,-23.381382533927781,0.0],[-47.911541675045363,-23.381407098872721,0.0],[-47.911538880659592,-23.381470814486999,0.0],[-47.91154927502825,-23.381553954721209,0.0],[-47.9113810191973,-23.381646884604741,0.0],[-47.911266592965447,-23.381745599761441,0.0]]]}},
{"type":"Feature","properties":{"Área (ha)":2.2,"Nome do Projeto":"Ford","Propriedade":"-","Tipo":"Recuperação Ambiental","Ano de Implantação":"2017","Metodologia de Restauração":null,"Monitoramento":null,"Município":"Tatuí","UGRHI":"10 - Tietê, Sorocaba","Região Hidrográfica":"Paraná","Status do Projeto":null,"Fotos do Projeto":null},"geometry":{"type":"Polygon","coordinates":[[[-47.917641772630041,-23.376344850767339,0.0],[-47.917652985283929,-23.37645915009859,0.0],[-47.917676871160239,-23.376560394605509,0.0],[-47.917708918235441,-23.376637657244821,0.0],[-47.917728296902403,-23.37671582564569,0.0],[-47.917753697779212,-23.376774844841481,0.0],[-47.917758829162793,-23.376835313326229,0.0],[-47.917761458911031,-23.376926378338592,0.0],[-47.917578899476268,-23.376927682491051,0.0],[-47.917418859352708,-23.376935611145822,0.0],[-47.91703863722158,-23.376849369322219,0.0],[-47.917051439275923,-23.37678995846025,0.0],[-47.917053119726042,-23.376719643635059,0.0],[-47.917102940299607,-23.376645886902409,0.0],[-47.917219145363859,-23.376580025602141,0.0],[-47.917399628794421,-23.3764667847589,0.0],[-47.917641772630041,-23.376344850767339,0.0]]]}},
{"type":"Feature","properties":{"Área (ha)":2.2,"Nome do Projeto":"Ford","Propriedade":"-","Tipo":"Recuperação Ambiental","Ano de Implantação":"2017","Metodologia de Restauração":null,"Monitoramento":null,"Município":"Tatuí","UGRHI":"10 - Tietê, Sorocaba","Região Hidrográfica":"Paraná","Status do Projeto":null,"Fotos do Projeto":null},"geometry":{"type":"Polygon","coordinates":[[[-47.919139818518509,-23.377763664608221,0.0],[-47.91812927657336,-23.378020619436899,0.0],[-47.918154354066218,-23.377971671536041,0.0],[-47.918162465091299,-23.377923601520511,0.0],[-47.91817307324235,-23.377874621134339,0.0],[-47.918175162826373,-23.377839361137671,0.0],[-47.918158780673821,-23.377808181520152,0.0],[-47.918123448588041,-23.377773295528709,0.0],[-47.918092330975568,-23.377654607929738,0.0],[-47.918117886561973,-23.377613446764759,0.0],[-47.918167084744013,-23.3774999771171,0.0],[-47.918371903729437,-23.37759249143425,0.0],[-47.91848854325427,-23.377634887405438,0.0],[-47.918538893404282,-23.377651029683481,0.0],[-47.918611133515093,-23.377691036085888,0.0],[-47.918715393324831,-23.37769813933226,0.0],[-47.918919095221803,-23.377647759156961,0.0],[-47.919276556851941,-23.377565205274951,0.0],[-47.919551473067393,-23.37756581903961,0.0],[-47.919660284964543,-23.377550032288131,0.0],[-47.919880743925923,-23.377578460813091,0.0],[-47.919921070982753,-23.37761152564137,0.0],[-47.919139818518509,-23.377763664608221,0.0]]]}},
{"type":"Feature","properties":{"Área (ha)":2.2,"Nome do Projeto":"Ford","Propriedade":"-","Tipo":"Recuperação Ambiental","Ano de Implantação":"2017","Metodologia de Restauração":null,"Monitoramento":null,"Município":"Tatuí","UGRHI":"10 - Tietê, Sorocaba","Região Hidrográfica":"Paraná","Status do Projeto":null,"Fotos do Projeto":null},"geometry":{"type":"Polygon","coordinates":[[[-47.919559328327082,-23.377520086156359,0.0],[-47.919343502396437,-23.377522056289131,0.0],[-47.919216356992941,-23.377543513312411,0.0],[-47.918927793111841,-23.377603008057061,0.0],[-47.918726195359959,-23.377667384528621,0.0],[-47.918654686777302,-23.377672376700911,0.0],[-47.918475597270437,-23.377594509767299,0.0],[-47.918385264480563,-23.37757163117238,0.0],[-47.918167618650422,-23.377469149723598,0.0],[-47.918138764867997,-23.377513815774599,0.0],[-47.918089390045168,-23.377617698109091,0.0],[-47.918118194520289,-23.377382481525281,0.0],[-47.918119950466611,-23.377352790788908,0.0],[-47.918130547577881,-23.377316119071789,0.0],[-47.91814240709089,-23.377292049143239,0.0],[-47.918181914155362,-23.377259694913409,0.0],[-47.918220364432557,-23.377265288626329,0.0],[-47.918248459890442,-23.377263234738869,0.0],[-47.918286839836043,-23.37727087386499,0.0],[-47.918305439917347,-23.377246550248032,0.0],[-47.918346301631743,-23.37723526629863,0.0],[-47.918395762036397,-23.37724208695797,0.0],[-47.918463011384468,-23.377245481955729,0.0],[-47.918564898977657,-23.377392380717819,0.0],[-47.918671129578513,-23.377568121490562,0.0],[-47.918715911624282,-23.377588536387449,0.0],[-47.918797825697922,-23.37756047347559,0.0],[-47.918852770837319,-23.37752825004398,0.0],[-47.919017023672119,-23.377475731778151,0.0],[-47.919139318002763,-23.377425496661679,0.0],[-47.919271312599662,-23.37737706663389,0.0],[-47.919343433414802,-23.377354603998899,0.0],[-47.919414384644377,-23.377348678489589,0.0],[-47.919445037286998,-23.377344084357539,0.0],[-47.919492760058027,-23.3773563338206,0.0],[-47.919521437388937,-23.377378224271311,0.0],[-47.919652079148513,-23.377459557937581,0.0],[-47.919747536517526,-23.37750691144468,0.0],[-47.919814831533152,-23.377543687523719,0.0],[-47.919559328327082,-23.377520086156359,0.0]]]}},
{"type":"Feature","properties":{"Área (ha)":2.2,"Nome do Projeto":"Ford","Propriedade":"-","Tipo":"Recuperação Ambiental","Ano de Implantação":"2017","Metodologia de Restauração":null,"Monitoramento":null,"Município":"Tatuí","UGRHI":"10 - Tietê, Sorocaba","Região Hidrográfica":"Paraná","Status do Projeto":null,"Fotos do Projeto":null},"geometry":{"type":"Polygon","coordinates":[[[-47.9183556867699,-23.381075010107551,0.0],[-47.918398626615911,-23.38116662689265,0.0],[-47.918446631894149,-23.381281168487298,0.0],[-47.918497423825457,-23.3813511806242,0.0],[-47.91856428090739,-23.381461246990622,0.0],[-47.918720203463138,-23.381649238716388,0.0],[-47.918901035170428,-23.381837560515049,0.0],[-47.918848278161548,-23.381963410242829,0.0],[-47.918803970986808,-23.381976487324899,0.0],[-47.918745986527313,-23.381965759295081,0.0],[-47.918704855164819,-23.381909538651811,0.0],[-47.91866993818374,-23.381873959590418,0.0],[-47.918598295470588,-23.38176740538627,0.0],[-47.918586835207741,-23.381682207256731,0.0],[-47.918583407509132,-23.381617036276499,0.0],[-47.918483001469902,-23.381449063723299,0.0],[-47.918426582247299,-23.381406202788181,0.0],[-47.918344780587937,-23.381361830256012,0.0],[-47.918284218587047,-23.38132923169961,0.0],[-47.918228351750898,-23.381272305100079,0.0],[-47.918149033928628,-23.38119809230399,0.0],[-47.918229402823627,-23.381182265941909,0.0],[-47.918305682404103,-23.38117168988801,0.0],[-47.918296700463991,-23.381123556573488,0.0],[-47.918263611609092,-23.381051352359389,0.0],[-47.918231491280309,-23.38093523307931,0.0],[-47.918118039678333,-23.380806799535041,0.0],[-47.91811900823258,-23.38076288448142,0.0],[-47.918100545878282,-23.380742591513801,0.0],[-47.918026207453217,-23.38070138237882,0.0],[-47.918071383195887,-23.380659585151552,0.0],[-47.918118847050472,-23.380649231753878,0.0],[-47.91808823633162,-23.380614092702238,0.0],[-47.918029303035198,-23.380575258419459,0.0],[-47.917943395415193,-23.380500056148801,0.0],[-47.917922175010439,-23.380416260949431,0.0],[-47.91802751975321,-23.380344310153969,0.0],[-47.9183556867699,-23.381075010107551,0.0]]]}},
{"type":"Feature","properties":{"Área (ha)":2.2,"Nome do Projeto":"Ford","Propriedade":"-","Tipo":"Recuperação Ambiental","Ano de Implantação":"2017","Metodologia de Restauração":null,"Monitoramento":null,"Município":"Tatuí","UGRHI":"10 - Tietê, Sorocaba","Região Hidrográfica":"Paraná","Status do Projeto":null,"Fotos do Projeto":null},"geometry":{"type":"Polygon","coordinates":[[[-47.919059728387538,-23.38295782521422,0.0],[-47.919109133489457,-23.383421467942082,0.0],[-47.919214595028222,-23.383926719082929,0.0],[-47.919311737027449,-23.3843826185986,0.0],[-47.919341236084769,-23.384620977420081,0.0],[-47.919375661462183,-23.38471664032663,0.0],[-47.919450334041223,-23.385060750314569,0.0],[-47.91948189940662,-23.385239595499701,0.0],[-47.919556779469289,-23.385502733942172,0.0],[-47.919604173621352,-23.385661238258429,0.0],[-47.919658538529703,-23.38584758640836,0.0],[-47.919682132829941,-23.38599565789217,0.0],[-47.919718838252727,-23.38614032535579,0.0],[-47.919774612543868,-23.386404138267249,0.0],[-47.919835261388123,-23.38675466118568,0.0],[-47.91984418919224,-23.386895931914012,0.0],[-47.919870666550857,-23.387003534520929,0.0],[-47.919863702989197,-23.387151606361378,0.0],[-47.919855885424262,-23.387179631732391,0.0],[-47.91983756591528,-23.38713849787074,0.0],[-47.919822054168357,-23.387119125370329,0.0],[-47.919808482362889,-23.387088881049149,0.0],[-47.919789314405243,-23.387045520209099,0.0],[-47.919780684130238,-23.387035627664659,0.0],[-47.919763686651777,-23.38702338287402,0.0],[-47.91974525622156,-23.387012564913459,0.0],[-47.919688960466473,-23.38700646189373,0.0],[-47.919660713665081,-23.38699670028312,0.0],[-47.919639558112891,-23.386984280607312,0.0],[-47.919641822403982,-23.386931151200589,0.0],[-47.919649444707467,-23.38689918441419,0.0],[-47.919666387581422,-23.386876887750169,0.0],[-47.919691694462472,-23.386838862447899,0.0],[-47.919699053225933,-23.38682624489061,0.0],[-47.919696800268831,-23.386818163456621,0.0],[-47.919687775659639,-23.386792813479438,0.0],[-47.919670829234661,-23.38677743898004,0.0],[-47.919646095458809,-23.386761508198202,0.0],[-47.919509595293931,-23.386784861590321,0.0],[-47.919487766698388,-23.38678141405569,0.0],[-47.9194768772294,-23.386763145594941,0.0],[-47.919457396114019,-23.386719399555901,0.0],[-47.919457546872927,-23.386650098784731,0.0],[-47.919536205688487,-23.386616629552648,0.0],[-47.91961602730958,-23.38658387096778,0.0],[-47.919619165425807,-23.386564030443079,0.0],[-47.919500210496103,-23.386364583220629,0.0],[-47.919476351772047,-23.386106274389959,0.0],[-47.919475074509172,-23.386100423035401,0.0],[-47.919440693740242,-23.386060156359068,0.0],[-47.919402480597967,-23.38601030347407,0.0],[-47.91940938693859,-23.385974698156211,0.0],[-47.91943263728875,-23.385855454243881,0.0],[-47.91947938886733,-23.385778310900349,0.0],[-47.91948522220806,-23.385727341521921,0.0],[-47.919462262431239,-23.385680256558789,0.0],[-47.919421959068167,-23.385640889113741,0.0],[-47.919420912936772,-23.385617457150492,0.0],[-47.919477954538863,-23.38554632665991,0.0],[-47.919490519446597,-23.38551007285049,0.0],[-47.919389795814112,-23.3853400531269,0.0],[-47.919314743459623,-23.385155441776181,0.0],[-47.919366874281401,-23.385070574329522,0.0],[-47.919372858243221,-23.384927934726839,0.0],[-47.919300000871743,-23.384796838229271,0.0],[-47.919228439571079,-23.384598680052161,0.0],[-47.919195503390412,-23.38447912297169,0.0],[-47.91919856453881,-23.384417696093649,0.0],[-47.919213544854081,-23.384354268021401,0.0],[-47.919199230938652,-23.384182697351999,0.0],[-47.919206972642563,-23.384158025154662,0.0],[-47.9192097135452,-23.384100821003859,0.0],[-47.919163590563983,-23.3840526757402,0.0],[-47.91912838924673,-23.38403288158381,0.0],[-47.919046151561872,-23.38399778032543,0.0],[-47.919073805956103,-23.383940282411292,0.0],[-47.91910535093632,-23.38392453976266,0.0],[-47.919158746547623,-23.383885731120369,0.0],[-47.91915210125461,-23.38384269582447,0.0],[-47.9191515414051,-23.38380589227036,0.0],[-47.919113674522343,-23.383727154424939,0.0],[-47.918979654663161,-23.38361141459665,0.0],[-47.918972826564257,-23.383525366120558,0.0],[-47.918972567861957,-23.38340147292557,0.0],[-47.918972237787948,-23.383396389254429,0.0],[-47.918986609102838,-23.383366127950811,0.0],[-47.919042828872769,-23.383279263967051,0.0],[-47.91898497623437,-23.38322591171157,0.0],[-47.918935451709253,-23.383182167618301,0.0],[-47.918956653740999,-23.383161393466469,0.0],[-47.91898208203979,-23.383161717485681,0.0],[-47.919004141526358,-23.383148733094259,0.0],[-47.919007296324303,-23.383131992223731,0.0],[-47.918980012872957,-23.383064971023011,0.0],[-47.91894434668508,-23.383011700706572,0.0],[-47.918880139685527,-23.382933080360448,0.0],[-47.918879223660348,-23.38293018563451,0.0],[-47.918951203776913,-23.382936107324021,0.0],[-47.918986660586711,-23.38294548821159,0.0],[-47.919024302726271,-23.382940161197009,0.0],[-47.919059728387538,-23.38295782521422,0.0]]]}}
]
}
