{
"type": "FeatureCollection",
"name": "Gato Preto - Cajamar - FAJA - Recuperação Ambiental",
"crs": { "type": "name", "properties": { "name": "urn:ogc:def:crs:OGC:1.3:CRS84" } },
"xy_coordinate_resolution": 1e-15,
"features": [
{"type":"Feature","properties":{"Área (ha)":13.289,"Nome do Projeto":"FAJA - Gato Preto","Propriedade":"Gato Preto","Tipo":"Restauração Ecológica","Ano de Implantação":"2022","Metodologia de Restauração":null,"Monitoramento":"-","Município":"Cajamar","UGRHI":"06 - Alto Tietê","Região Hidrográfica":"Paraná","Status do Projeto":"Finalizado","Fotos do Projeto":null},"geometry":{"type":"MultiPolygon","coordinates":[[[[-46.848865845351,-23.365086842627299,0.0],[-46.848474999469701,-23.364955321329401,0.0],[-46.848389109569403,-23.364926438553098,0.0],[-46.848221158994207,-23.364979764636701,0.0],[-46.847984842853897,-23.365035974450102,0.0],[-46.847840267636201,-23.365054499085801,0.0],[-46.847717186443489,-23.365075737364101,0.0],[-46.847635897793502,-23.365093514218898,0.0],[-46.847554003043498,-23.365129803264399,0.0],[-46.847455621504103,-23.365163880444999,0.0],[-46.847365371118002,-23.365190265682401,0.0],[-46.847242455154102,-23.3652372921397,0.0],[-46.847166037411803,-23.365271109783102,0.0],[-46.847081137501704,-23.3652873039163,0.0],[-46.847018376890901,-23.365315896349099,0.0],[-46.846969659404891,-23.365367110395301,0.0],[-46.846940791558097,-23.365463665096499,0.0],[-46.846881828206797,-23.3655681709056,0.0],[-46.846841557444492,-23.3656344769153,0.0],[-46.846836662662092,-23.365677577753001,0.0],[-46.84679906707921,-23.365738788215001,0.0],[-46.851758487640012,-23.3678382036654,0.0],[-46.855942352547999,-23.368399935051102,0.0],[-46.8553950329514,-23.365703457625401,0.0],[-46.855361560806287,-23.3657027331462,0.0],[-46.855360455984801,-23.365710810284401,0.0],[-46.855354028595897,-23.365736995896999,0.0],[-46.855326026405592,-23.365733929299491,0.0],[-46.855306719215299,-23.365752579994499,0.0],[-46.855294552293401,-23.365764333205199,0.0],[-46.855278001580999,-23.3657803211402,0.0],[-46.855259675992002,-23.365777217937101,0.0],[-46.855243895949101,-23.365774545787701,0.0],[-46.855229644233901,-23.365788312888402,0.0],[-46.855199345556507,-23.365817581278101,0.0],[-46.855165239917099,-23.365811805908901,0.0],[-46.855142712821113,-23.365833566964,0.0],[-46.855120689485901,-23.3658548413792,0.0],[-46.855086549712802,-23.365848987263199,0.0],[-46.855073778381609,-23.365861193398999,0.0],[-46.855050108296702,-23.365883815956,0.0],[-46.8550418593084,-23.365891699879899,0.0],[-46.855005555052401,-23.365880852232898,0.0],[-46.854980091417097,-23.365894853072099,0.0],[-46.854969943762313,-23.365906016917901,0.0],[-46.854958645888487,-23.365918446163398,0.0],[-46.854924517344287,-23.365912617945799,0.0],[-46.854915426624402,-23.3659226190059,0.0],[-46.854900436191997,-23.365939110568601,0.0],[-46.8548817208587,-23.365959700033599,0.0],[-46.854847592305887,-23.3659538717997,0.0],[-46.854804795779302,-23.366000953868699,0.0],[-46.854770667217899,-23.3659951256185,0.0],[-46.854761345646402,-23.3660053806198,0.0],[-46.854750695491099,-23.3660170972455,0.0],[-46.854774777219099,-23.366021209766899,0.0],[-46.85496944016009,-23.366054452895199,0.0],[-46.85506677166039,-23.366071074366001,0.0],[-46.855073932502002,-23.3660728264177,0.0],[-46.855081851517909,-23.366074186623699,0.0],[-46.8551147851203,-23.366104786588298,0.0],[-46.855147718737797,-23.366135386544901,0.0],[-46.855143437311298,-23.3661523133995,0.0],[-46.8551548260046,-23.366187279703698,0.0],[-46.855153966509697,-23.366215379059,0.0],[-46.8551531070148,-23.366243478414201,0.0],[-46.855143783254292,-23.366275085292301,0.0],[-46.855131074875104,-23.366307198171601,0.0],[-46.855131030805701,-23.366327928796998,0.0],[-46.855114875816597,-23.366378800355399,0.0],[-46.8550852201978,-23.366401508305199,0.0],[-46.855055936319701,-23.3664253048143,0.0],[-46.855039680728709,-23.366438913008899,0.0],[-46.8550282317495,-23.366439411357501,0.0],[-46.854971191411501,-23.3664460760622,0.0],[-46.854957507803803,-23.36644453776,0.0],[-46.854948506804902,-23.366443525872899,0.0],[-46.854932794312099,-23.366439956560502,0.0],[-46.854897145721999,-23.3664123424631,0.0],[-46.854861497146508,-23.3663847283565,0.0],[-46.854815767634499,-23.366349305322998,0.0],[-46.854802376751287,-23.3663861870901,0.0],[-46.854808181346101,-23.3664112112167,0.0],[-46.8547985303261,-23.366437792473391,0.0],[-46.854769032932303,-23.366479203211501,0.0],[-46.854740253060392,-23.366519606608101,0.0],[-46.854730780474199,-23.366538138285598,0.0],[-46.854746292127203,-23.366555993395501,0.0],[-46.854726802582391,-23.366594885303002,0.0],[-46.854710070885993,-23.366622811518202,0.0],[-46.854719785130207,-23.3666661675271,0.0],[-46.854701124591401,-23.3666904223481,0.0],[-46.854707134731399,-23.3667621515104,0.0],[-46.854695822574897,-23.3667864393875,0.0],[-46.854657339287101,-23.366806988322999,0.0],[-46.854621190503899,-23.366826290688302,0.0],[-46.854606722936509,-23.366829675112601,0.0],[-46.854559320308702,-23.366840764085001,0.0],[-46.8545119176719,-23.366851853043599,0.0],[-46.854464515026201,-23.366862941988199,0.0],[-46.8544171123716,-23.366874030919,0.0],[-46.854369709708202,-23.366885119835899,0.0],[-46.854322307035787,-23.3668962087389,0.0],[-46.854274904354597,-23.366907297628,0.0],[-46.85422750166439,-23.366918386503201,0.0],[-46.854180098965386,-23.3669294753646,0.0],[-46.854132696257388,-23.366940564212001,0.0],[-46.854085293540599,-23.3669516530456,0.0],[-46.854037890814801,-23.366962741865301,0.0],[-46.853990488080207,-23.3669738306711,0.0],[-46.853943085336702,-23.366984919463,0.0],[-46.853857730236292,-23.367004886303999,0.0],[-46.853848555811609,-23.367001841934201,0.0],[-46.853756518991901,-23.366971301112901,0.0],[-46.853710500596499,-23.3669560306809,0.0],[-46.853664482210803,-23.366940760234701,0.0],[-46.853618463834792,-23.366925489774101,0.0],[-46.853572445468387,-23.366910219299399,0.0],[-46.853555237021602,-23.366904508941101,0.0],[-46.853525578734804,-23.366897500393399,0.0],[-46.853478205264693,-23.366886305558399,0.0],[-46.853430831801603,-23.366875110708602,0.0],[-46.853383458345398,-23.366863915844,0.0],[-46.853336084896299,-23.366852720964399,0.0],[-46.853193964590403,-23.366819136236401,0.0],[-46.853099217754597,-23.3667967463434,0.0],[-46.853051844347192,-23.366785551374601,0.0],[-46.853004470946701,-23.366774356390899,0.0],[-46.852957097553102,-23.366763161392299,0.0],[-46.852909724166501,-23.3667519663788,0.0],[-46.8528623507869,-23.3667407713505,0.0],[-46.852814977414198,-23.3667295763072,0.0],[-46.852767604048509,-23.3667183812492,0.0],[-46.852720230689798,-23.3667071861762,0.0],[-46.852672857338,-23.366695991088299,0.0],[-46.852625483993101,-23.366684795985599,0.0],[-46.852578110655202,-23.366673600868001,0.0],[-46.852530737324301,-23.3666624057355,0.0],[-46.8524833640003,-23.366651210588099,0.0],[-46.852435990683297,-23.366640015425901,0.0],[-46.852418162541703,-23.366635802312899,0.0],[-46.852346956991397,-23.366603373255799,0.0],[-46.852215392752498,-23.366543454984001,0.0],[-46.852171538031101,-23.3665234822003,0.0],[-46.852083828625602,-23.3664835365934,0.0],[-46.852077082867197,-23.366480464360901,0.0],[-46.852038359723899,-23.366466999572499,0.0],[-46.8519925973957,-23.3664510871067,0.0],[-46.851946835077698,-23.366435174626702,0.0],[-46.851901072769692,-23.366419262132698,0.0],[-46.851855310471691,-23.366403349624498,0.0],[-46.851809548183908,-23.366387437102109,0.0],[-46.851763785906101,-23.3663715245657,0.0],[-46.851672261380699,-23.3663396994504,0.0],[-46.851626499133097,-23.3663237868717,0.0],[-46.851580736895599,-23.3663078742787,0.0],[-46.851534974668098,-23.366291961671699,0.0],[-46.851489212450808,-23.366276049050501,0.0],[-46.851443450243501,-23.3662601364152,0.0],[-46.851397688046198,-23.366244223765801,0.0],[-46.851351925859099,-23.366228311102301,0.0],[-46.85130616368199,-23.366212398424601,0.0],[-46.851260401514999,-23.3661964857328,0.0],[-46.851214639358012,-23.366180573026899,0.0],[-46.851168877211101,-23.3661646603069,0.0],[-46.851123115074301,-23.366148747572801,0.0],[-46.851077352947613,-23.366132834824501,0.0],[-46.851030031645109,-23.366116379889501,0.0],[-46.850983523554611,-23.366108761805599,0.0],[-46.850935374972011,-23.3661008749913,0.0],[-46.850887226393901,-23.366092988161899,0.0],[-46.850839077820503,-23.3660851013172,0.0],[-46.850790929251701,-23.366077214457391,0.0],[-46.850742780687597,-23.366069327582402,0.0],[-46.8505501864772,-23.366037779930199,0.0],[-46.850502037936103,-23.366029892979199,0.0],[-46.850453889399702,-23.366022006013001,0.0],[-46.850405740867913,-23.366014119031501,0.0],[-46.850357592340799,-23.366006232034891,0.0],[-46.850309443818297,-23.365998345023101,0.0],[-46.850261295300399,-23.365990457996102,0.0],[-46.850213146787098,-23.3659825709538,0.0],[-46.850152956523686,-23.365972711371501,0.0],[-46.850116446061001,-23.365969549846099,0.0],[-46.850067759205693,-23.3659653339251,0.0],[-46.85001907235241,-23.3659611179887,0.0],[-46.84997038550101,-23.365956902036899,0.0],[-46.849873011804,-23.3659484700873,0.0],[-46.849824324958497,-23.365944254089399,0.0],[-46.849775638114998,-23.3659400380762,0.0],[-46.849726951273396,-23.3659358220477,0.0],[-46.849629577596097,-23.365927389944499,0.0],[-46.849580890760294,-23.365923173869799,0.0],[-46.8495322039266,-23.365918957779801,0.0],[-46.849483517094797,-23.365914741674501,0.0],[-46.849434830264897,-23.365910525553701,0.0],[-46.849386143437002,-23.365906309417699,0.0],[-46.849364121475901,-23.365904402375499,0.0],[-46.849337340497499,-23.3659041955828,0.0],[-46.849324419988299,-23.365904095813701,0.0],[-46.849303904432503,-23.365868344131201,0.0],[-46.849212336794203,-23.365708772386199,0.0],[-46.849120769385507,-23.365549200570399,0.0],[-46.849074985767203,-23.365469414636099,0.0],[-46.849029202206303,-23.365389628683999,0.0],[-46.8489834187029,-23.365309842714399,0.0],[-46.848944971952797,-23.365242842263001,0.0],[-46.848865845351,-23.365086842627299,0.0]]]]}}
]
}
