{
"type": "FeatureCollection",
"name": "Gato Preto Fase II - Cajamar - FAJA - Recuperação Ambiental",
"crs": { "type": "name", "properties": { "name": "urn:ogc:def:crs:OGC:1.3:CRS84" } },
"xy_coordinate_resolution": 1e-15,
"features": [
{"type":"Feature","properties":{"Área (ha)":4.006,"Nome do Projeto":"Faja - Gato Preto","Propriedade":"Gato Preto","Tipo":"Restauração Ecológica","Ano de Implantação":"2017","Metodologia de Restauração":null,"Monitoramento":"-","Município":"Cajamar","UGRHI":"06 - Alto Tietê","Região Hidrográfica":"Paraná","Status do Projeto":"Finalizado","Fotos do Projeto":null},"geometry":{"type":"Polygon","coordinates":[[[-46.854078476904832,-23.360803176818191,0.0],[-46.85403663603622,-23.3610567657358,0.0],[-46.854551229190442,-23.36104371041429,0.0],[-46.854704332972119,-23.36196377514154,0.0],[-46.854840476991633,-23.362610514245929,0.0],[-46.854913681306734,-23.36296670168759,0.0],[-46.854477947623842,-23.362898474160229,0.0],[-46.854078352831962,-23.362669399995411,0.0],[-46.853921083682593,-23.362256187365769,0.0],[-46.853401026986553,-23.361713106935682,0.0],[-46.853048302977832,-23.361302763966108,0.0],[-46.852974634195768,-23.361051241836261,0.0],[-46.852610063248981,-23.36090359747168,0.0],[-46.852343502735224,-23.36074724755694,0.0],[-46.851950559190399,-23.360584706216962,0.0],[-46.851958475409297,-23.36046665836605,0.0],[-46.851281844720368,-23.360261316268499,0.0],[-46.850953949376184,-23.360201547396361,0.0],[-46.85033028685902,-23.360154433973118,0.0],[-46.849503728741887,-23.360110783167379,0.0],[-46.849459480991577,-23.359843926330768,0.0],[-46.850809230442842,-23.359928246543411,0.0],[-46.850856917686301,-23.35994470395346,0.0],[-46.851416933998841,-23.360042045341721,0.0],[-46.852191153106652,-23.360298100434619,0.0],[-46.852411292022097,-23.36034735304262,0.0],[-46.852792956993362,-23.360472785567129,0.0],[-46.854078476904832,-23.360803176818191,0.0]]]}}
]
}
