{
"type": "FeatureCollection",
"name": "Geraldo - SABESP 2º Licitação",
"crs": { "type": "name", "properties": { "name": "urn:ogc:def:crs:OGC:1.3:CRS84" } },
"xy_coordinate_resolution": 1e-15,
"features": [
{"type":"Feature","properties":{"Área (ha)":0.4,"Nome do Projeto":"Geraldo - SABESP (2ª Licitação)","Propriedade":"-","Tipo":"Recuperação Ambiental","Ano de Implantação":"2015","Metodologia de Restauração":null,"Monitoramento":null,"Município":"Bragança Paulista","UGRHI":"05 -  Piracicaba, Capivari e Jundiaí","Região Hidrográfica":"Paraná","Status do Projeto":null,"Fotos do Projeto":null},"geometry":{"type":"Polygon","coordinates":[[[-46.489854766903939,-22.90674834904042,0.0],[-46.489815196856881,-22.90674484897291,0.0],[-46.48973577845301,-22.906761319735232,0.0],[-46.489623418262063,-22.90677476370772,0.0],[-46.489465977850593,-22.90675880004822,0.0],[-46.489355727766707,-22.90676142495359,0.0],[-46.489200272785922,-22.906766086458859,0.0],[-46.489144552210213,-22.906781783085041,0.0],[-46.488978562913509,-22.906788225642579,0.0],[-46.4888732012828,-22.906796475120441,0.0],[-46.48886231147894,-22.906694875639459,0.0],[-46.488835025218307,-22.906577743639652,0.0],[-46.489847780116442,-22.906567387894629,0.0],[-46.489893017738382,-22.90675304082065,0.0],[-46.489854766903939,-22.90674834904042,0.0]]]}},
{"type":"Feature","properties":{"Área (ha)":0.4,"Nome do Projeto":"Geraldo - SABESP (2ª Licitação)","Propriedade":"-","Tipo":"Recuperação Ambiental","Ano de Implantação":"2015","Metodologia de Restauração":null,"Monitoramento":null,"Município":"Bragança Paulista","UGRHI":"05 -  Piracicaba, Capivari e Jundiaí","Região Hidrográfica":"Paraná","Status do Projeto":null,"Fotos do Projeto":null},"geometry":{"type":"Polygon","coordinates":[[[-46.48909315318609,-22.906783309623108,0.0],[-46.489193773341484,-22.906771361361699,0.0],[-46.489197021706453,-22.906768724795509,0.0],[-46.489349681952248,-22.906760926273929,0.0],[-46.489481139902423,-22.906760049087239,0.0],[-46.489620765148977,-22.90677161288923,0.0],[-46.489707637847303,-22.906764686796031,0.0],[-46.489818240762531,-22.906745118200678,0.0],[-46.489896913632307,-22.90675502006474,0.0],[-46.489835908504112,-22.906790635477812,0.0],[-46.489713874039097,-22.906829173355359,0.0],[-46.489621019653562,-22.906838598564882,0.0],[-46.489549896729343,-22.906847130763051,0.0],[-46.489324163366071,-22.906983715437541,0.0],[-46.489221726074021,-22.907002715095679,0.0],[-46.489087953260167,-22.906938841380349,0.0],[-46.488870362936858,-22.90697801764275,0.0],[-46.488873337674782,-22.906793630910919,0.0],[-46.48909315318609,-22.906783309623108,0.0]]]}}
]
}
