{
"type": "FeatureCollection",
"name": "Itesp Franco da Rocha Faja  - Zizo",
"crs": { "type": "name", "properties": { "name": "urn:ogc:def:crs:OGC:1.3:CRS84" } },
"features": [
{"type":"Feature","properties":{"id":null,"Name":"Itesp - Baixada  ","description":null,"timestamp":null,"begin":null,"end":null,"altitudeMode":null,"tessellate":1,"extrude":0,"visibility":-1,"drawOrder":null,"icon":null},"geometry":{"type":"Polygon","coordinates":[[[-46.795966277351383,-23.294977379941429,0.0],[-46.795859407808017,-23.295654266968359,0.0],[-46.796037462926513,-23.296125029280191,0.0],[-46.795964434437202,-23.296872206884981,0.0],[-46.795150734963741,-23.297617005151011,0.0],[-46.794542013584199,-23.297069169616339,0.0],[-46.794601156142853,-23.296941538454611,0.0],[-46.79472922892495,-23.296657845938849,0.0],[-46.795151803866787,-23.29612145440975,0.0],[-46.794969764120388,-23.295956362028889,0.0],[-46.795107484046113,-23.295755968243562,0.0],[-46.795241182805952,-23.295676012483739,0.0],[-46.795299919723547,-23.295557692169591,0.0],[-46.795257286432452,-23.29540014091987,0.0],[-46.795336021446417,-23.29511580891057,0.0],[-46.795766051015789,-23.294809429535,0.0],[-46.795966277351383,-23.294977379941429,0.0]]]}}
]
}
