{
"type": "FeatureCollection",
"name": "Izaura - Salesopolis - Licitação Pref",
"crs": { "type": "name", "properties": { "name": "urn:ogc:def:crs:OGC:1.3:CRS84" } },
"xy_coordinate_resolution": 1e-15,
"features": [
{"type":"Feature","properties":{"Área (ha)":0.237,"Nome do Projeto":"Izaura - Licitação","Propriedade":"-","Tipo":"Recuperação Ambiental","Ano de Implantação":"2016","Metodologia de Restauração":null,"Monitoramento":"-","Município":"Salesópolis","UGRHI":"06 - Alto Tietê","Região Hidrográfica":"Paraná","Status do Projeto":"Finalizado","Fotos do Projeto":null},"geometry":{"type":"Polygon","coordinates":[[[-45.791732753922894,-23.608953394382151,0.0],[-45.791946065307087,-23.60909513788927,0.0],[-45.791834900179289,-23.609153942935219,0.0],[-45.791898096569888,-23.609311575685151,0.0],[-45.791896948161643,-23.60934588538414,0.0],[-45.791882612636563,-23.609366278360071,0.0],[-45.791484156009233,-23.60924200372914,0.0],[-45.791099878132727,-23.609169354980828,0.0],[-45.791054727911408,-23.609140721601111,0.0],[-45.790941429605191,-23.608977510770469,0.0],[-45.790948928339773,-23.608929160789199,0.0],[-45.791107385517293,-23.60885311537135,0.0],[-45.791186249143152,-23.609018909731649,0.0],[-45.791236352420682,-23.609091671980639,0.0],[-45.791491022876613,-23.609192340396291,0.0],[-45.791518845302107,-23.60906721486062,0.0],[-45.791427952422467,-23.608941688666199,0.0],[-45.791732753922894,-23.608953394382151,0.0]]]}},
{"type":"Feature","properties":{"Área (ha)":0.067,"Nome do Projeto":"Izaura - Licitação","Propriedade":"-","Tipo":"Recuperação Ambiental","Ano de Implantação":"2016","Metodologia de Restauração":null,"Monitoramento":"-","Município":"Salesópolis","UGRHI":"06 - Alto Tietê","Região Hidrográfica":"Paraná","Status do Projeto":"Finalizado","Fotos do Projeto":null},"geometry":{"type":"Polygon","coordinates":[[[-45.790942838047123,-23.60844019847125,0.0],[-45.790801731858821,-23.608424925480879,0.0],[-45.790673334955031,-23.608512818416649,0.0],[-45.790532689141408,-23.60845516123544,0.0],[-45.790528761545751,-23.608421048686289,0.0],[-45.790559547258397,-23.6083769125031,0.0],[-45.790795669667389,-23.608257922755179,0.0],[-45.790909270000533,-23.608332719399129,0.0],[-45.790974172640283,-23.608415507200281,0.0],[-45.790942838047123,-23.60844019847125,0.0]]]}}
]
}
