{
"type": "FeatureCollection",
"name": "Kalil - Atibaia - Rodominas",
"crs": { "type": "name", "properties": { "name": "urn:ogc:def:crs:OGC:1.3:CRS84" } },
"xy_coordinate_resolution": 1e-15,
"features": [
{"type":"Feature","properties":{"Área (ha)":0.228,"Nome do Projeto":"Acacio","Propriedade":"-","Tipo":"Recuperação Ambiental","Ano de Implantação":"2015","Metodologia de Restauração":null,"Monitoramento":null,"Município":"Atibaia","UGRHI":"05 -  Piracicaba, Capivari e Jundiaí","Região Hidrográfica":"Paraná","Status do Projeto":null,"Fotos do Projeto":null},"geometry":{"type":"Polygon","coordinates":[[[-46.581810717543021,-23.180042417368931,0.0],[-46.581884078969033,-23.180095308018959,0.0],[-46.581887694677988,-23.180096593403238,0.0],[-46.581977983409722,-23.180153559903491,0.0],[-46.582122742751693,-23.180295350571111,0.0],[-46.582164958106127,-23.180365911384321,0.0],[-46.582190229312538,-23.180415130735341,0.0],[-46.582164995395559,-23.180532352729202,0.0],[-46.582138420981721,-23.180585319581631,0.0],[-46.582130718987017,-23.180628376480961,0.0],[-46.582125190988407,-23.180679610022239,0.0],[-46.582011492565769,-23.18073206426638,0.0],[-46.581930169432631,-23.180761403445398,0.0],[-46.58167795451628,-23.180078329175331,0.0],[-46.581810717543021,-23.180042417368931,0.0]]]}}
]
}
