{
"type": "FeatureCollection",
"name": "Licitação CODASP DAEE - 2015",
"crs": { "type": "name", "properties": { "name": "urn:ogc:def:crs:OGC:1.3:CRS84" } },
"xy_coordinate_resolution": 1e-15,
"features": [
{"type":"Feature","properties":{"Área (ha)":6.4,"Nome do Projeto":"Licitação CODASP DAEE","Propriedade":"-","Tipo":"Recuperação Ambiental","Ano de Implantação":"2015","Metodologia de Restauração":null,"Monitoramento":null,"Município":"Salesópolis","UGRHI":"06 - Alto Tietê","Região Hidrográfica":"Paraná","Status do Projeto":null,"Fotos do Projeto":null},"geometry":{"type":"Polygon","coordinates":[[[-45.942666535309833,-23.529672066985711,0.0],[-45.942654988297697,-23.52938819262009,0.0],[-45.942743971689808,-23.529180373548161,0.0],[-45.942954169922231,-23.529020577187289,0.0],[-45.94315250916177,-23.528919394364181,0.0],[-45.943492793070533,-23.528878768395781,0.0],[-45.943918602551889,-23.528931481897519,0.0],[-45.944330589641012,-23.528976322151209,0.0],[-45.944874900304072,-23.529112010132561,0.0],[-45.945321248568213,-23.529318819039119,0.0],[-45.945500584374052,-23.529476288754498,0.0],[-45.945996873385567,-23.529691609429001,0.0],[-45.946252971044402,-23.529729048055419,0.0],[-45.946900774900662,-23.52960657024715,0.0],[-45.947121653324793,-23.529553032156201,0.0],[-45.947325872533177,-23.529567791976429,0.0],[-45.947696363480411,-23.529696919739042,0.0],[-45.948003873918758,-23.529857403315201,0.0],[-45.948264549346803,-23.52984395451865,0.0],[-45.948365742497053,-23.529856492680551,0.0],[-45.948529920452238,-23.529988515884281,0.0],[-45.948744897217757,-23.530062138383649,0.0],[-45.949006375451489,-23.530077633193208,0.0],[-45.949227734615668,-23.53011268470263,0.0],[-45.949638411458182,-23.530277946164059,0.0],[-45.949738112853709,-23.530367566298331,0.0],[-45.949816731233668,-23.530566377117779,0.0],[-45.949761051314582,-23.53078939808627,0.0],[-45.949693987386937,-23.530930187103419,0.0],[-45.949588130557842,-23.53118976658039,0.0],[-45.949419249134309,-23.53135680717072,0.0],[-45.949134591664553,-23.53161548359267,0.0],[-45.949284511973033,-23.531715574161471,0.0],[-45.94900881851364,-23.53221883791538,0.0],[-45.948724541819438,-23.532535449981619,0.0],[-45.948485409971177,-23.532681783723991,0.0],[-45.948337768209747,-23.53282410546964,0.0],[-45.948225920598873,-23.532917416086271,0.0],[-45.948013278125963,-23.533216752643341,0.0],[-45.947860448986212,-23.533461930321842,0.0],[-45.947798945168557,-23.533485592005771,0.0],[-45.947817376526913,-23.533705587703139,0.0],[-45.948041710820512,-23.533889540610762,0.0],[-45.948234856303003,-23.53413458472869,0.0],[-45.94836972772633,-23.534188316232019,0.0],[-45.948477766421661,-23.534015677810611,0.0],[-45.948473164158727,-23.53380854298247,0.0],[-45.948496769662377,-23.533565301150389,0.0],[-45.948637787155057,-23.533174501413921,0.0],[-45.94944841112931,-23.53262460311613,0.0],[-45.949771730114442,-23.532275594397561,0.0],[-45.950149461609122,-23.531852243376189,0.0],[-45.950378110359011,-23.531474947124849,0.0],[-45.951025139023287,-23.53119546367736,0.0],[-45.951354111738489,-23.530991776753961,0.0],[-45.951827170684247,-23.530709106971759,0.0],[-45.952645390187783,-23.530377581484512,0.0],[-45.952696385984261,-23.53058323404905,0.0],[-45.952327526824661,-23.530753740249111,0.0],[-45.951921913088498,-23.530983731223198,0.0],[-45.951600746060393,-23.531235373902241,0.0],[-45.951292542670693,-23.53141619821865,0.0],[-45.95103072884622,-23.531482127536918,0.0],[-45.950770559784289,-23.531630520620219,0.0],[-45.950491671169743,-23.531822160309279,0.0],[-45.950334646891847,-23.532097727097739,0.0],[-45.949951635704828,-23.53259079923107,0.0],[-45.949772143903438,-23.532789036313751,0.0],[-45.949601025581543,-23.532968162050722,0.0],[-45.949413463625021,-23.533103092046279,0.0],[-45.94906383563837,-23.533226590580419,0.0],[-45.94891711552188,-23.533335653205299,0.0],[-45.948835970830963,-23.533529389819051,0.0],[-45.948798213796387,-23.53372403604056,0.0],[-45.948785136687817,-23.533958602762901,0.0],[-45.948816706793437,-23.534067176550248,0.0],[-45.948739382968718,-23.53421477068019,0.0],[-45.948639779644559,-23.53431570045958,0.0],[-45.948538126643719,-23.534435129433859,0.0],[-45.948404458404028,-23.53446229802185,0.0],[-45.948251268407653,-23.53445451191514,0.0],[-45.947993745353877,-23.53430773528456,0.0],[-45.947645230953697,-23.533959800544071,0.0],[-45.947448322420477,-23.53377281163262,0.0],[-45.947459008741077,-23.53369365358655,0.0],[-45.947431488315019,-23.53343931324445,0.0],[-45.947560518037392,-23.53326792162915,0.0],[-45.947866611280453,-23.532929033998681,0.0],[-45.947921406650067,-23.53277729522615,0.0],[-45.948021622645541,-23.532642428415269,0.0],[-45.948249926182463,-23.53244650300984,0.0],[-45.948455189731931,-23.53226311934338,0.0],[-45.948732607373991,-23.53197603028373,0.0],[-45.94885391074105,-23.53185927767279,0.0],[-45.948955995794819,-23.531608365361329,0.0],[-45.949161675345131,-23.531421745092459,0.0],[-45.949360362814353,-23.53116837197636,0.0],[-45.949469844710762,-23.530975754920082,0.0],[-45.949490067649542,-23.53081560070266,0.0],[-45.949527110398328,-23.530596895207982,0.0],[-45.949509441577128,-23.53050439992067,0.0],[-45.949257062072121,-23.530420704077571,0.0],[-45.948652837425612,-23.530358901269821,0.0],[-45.94853685425209,-23.530279400973011,0.0],[-45.948399165118524,-23.53019794670448,0.0],[-45.947898621953847,-23.530131653675738,0.0],[-45.947499618663151,-23.52993526570425,0.0],[-45.947258349938572,-23.529877092846458,0.0],[-45.946582144022827,-23.52999267355079,0.0],[-45.946127967117022,-23.53001891588373,0.0],[-45.945954649727028,-23.530009144811789,0.0],[-45.94565085439902,-23.529891830936752,0.0],[-45.945239032944983,-23.52971314565718,0.0],[-45.945012852697261,-23.52954681078819,0.0],[-45.944672833831099,-23.529354685012521,0.0],[-45.944318637776533,-23.529255791597439,0.0],[-45.943584205479773,-23.529190936493048,0.0],[-45.943249035876107,-23.529259017385201,0.0],[-45.943074120369303,-23.529369764928202,0.0],[-45.942997231236973,-23.529536214285521,0.0],[-45.94298880675322,-23.529686311894991,0.0],[-45.942666535309833,-23.529672066985711,0.0]]]}}
]
}
