{
"type": "FeatureCollection",
"name": "Lot",
"crs": { "type": "name", "properties": { "name": "urn:ogc:def:crs:OGC:1.3:CRS84" } },
"xy_coordinate_resolution": 1e-15,
"features": [
{"type":"Feature","properties":{"Área (ha)":0.49016805672643821,"Nome do Projeto":null,"Propriedade":null,"Tipo":null,"Ano de Implantação":null,"Metodologia de Restauração":null,"Monitoramento":null,"Município":null,"UGRHI":null,"Região Hidrográfica":null,"Status do Projeto":null,"Fotos do Projeto":null},"geometry":{"type":"Polygon","coordinates":[[[-46.332959008539603,-22.842193568458391,0.0],[-46.332413030079451,-22.8423530524027,0.0],[-46.332171007293283,-22.841870800945259,0.0],[-46.332049818525263,-22.84176882114394,0.0],[-46.332034983446867,-22.841701744475511,0.0],[-46.332031453652718,-22.84163749103266,0.0],[-46.331940418138849,-22.841439582355669,0.0],[-46.332294974221632,-22.841464075943641,0.0],[-46.332611811832251,-22.84156469307765,0.0],[-46.332742102571288,-22.841636095818171,0.0],[-46.33281740702278,-22.84179050313999,0.0],[-46.332813864830129,-22.841851515991699,0.0],[-46.332752417642581,-22.841855332777509,0.0],[-46.332676818058189,-22.841782437397111,0.0],[-46.33267448218875,-22.841777518431861,0.0],[-46.332619250054456,-22.841769107289242,0.0],[-46.332613670601688,-22.84177528978827,0.0],[-46.332609464536027,-22.841865224023199,0.0],[-46.332608462858587,-22.841867593379352,0.0],[-46.332596182497461,-22.841917758830832,0.0],[-46.332587366185187,-22.841921426871071,0.0],[-46.332530162315557,-22.841982209523781,0.0],[-46.332523684700313,-22.841990665722282,0.0],[-46.332501256779153,-22.842044446927211,0.0],[-46.33250333311301,-22.842053278394928,0.0],[-46.332532158627913,-22.842122883184899,0.0],[-46.332534461822213,-22.842127754980432,0.0],[-46.332655118478272,-22.842184059765,0.0],[-46.332757326446277,-22.84214192414802,0.0],[-46.332769845144817,-22.842136990239549,0.0],[-46.332819308537708,-22.84210189053076,0.0],[-46.332861005832328,-22.842044337857271,0.0],[-46.332866471784662,-22.84204217321566,0.0],[-46.332927014737727,-22.84202801986422,0.0],[-46.332959008539603,-22.842193568458391,0.0]]]}}
]
}
