{
"type": "FeatureCollection",
"name": "Lua Nova - SABESP 2º Licitação",
"crs": { "type": "name", "properties": { "name": "urn:ogc:def:crs:OGC:1.3:CRS84" } },
"xy_coordinate_resolution": 1e-15,
"features": [
{"type":"Feature","properties":{"Área (ha)":4.1,"Nome do Projeto":"Lua Nova - SABESP (2º Licitação)","Propriedade":"-","Tipo":"Recuperação Ambiental","Ano de Implantação":"2013","Metodologia de Restauração":null,"Monitoramento":null,"Município":"Bragança Paulista","UGRHI":"05 -  Piracicaba, Capivari e Jundiaí","Região Hidrográfica":"Paraná","Status do Projeto":null,"Fotos do Projeto":null},"geometry":{"type":"Polygon","coordinates":[[[-46.533881400975829,-22.906788782700058,0.0],[-46.533904684927244,-22.906710653823829,0.0],[-46.533875004091954,-22.906622727170362,0.0],[-46.533871567199022,-22.906531435886599,0.0],[-46.533839370860889,-22.9063677631754,0.0],[-46.534479043346231,-22.906440125869722,0.0],[-46.53447911409387,-22.906498777016949,0.0],[-46.534447501623262,-22.90655362104987,0.0],[-46.534377935859908,-22.906595100718,0.0],[-46.534286786934061,-22.906641480597902,0.0],[-46.534216723281197,-22.906727421231739,0.0],[-46.534164934985789,-22.906819399196412,0.0],[-46.534174312614141,-22.906904266774639,0.0],[-46.534223724981238,-22.907036547841869,0.0],[-46.534333514585917,-22.9071179057064,0.0],[-46.534543933435167,-22.907202914551959,0.0],[-46.534671836523309,-22.907287749701901,0.0],[-46.534879388579952,-22.90732173435967,0.0],[-46.534983888034382,-22.907307648145149,0.0],[-46.535032836218932,-22.90729626124287,0.0],[-46.535156581906108,-22.907223144636468,0.0],[-46.535271512320293,-22.907169070909859,0.0],[-46.535338053014229,-22.907153629232319,0.0],[-46.5354313740281,-22.90712822515145,0.0],[-46.535577336451119,-22.90709040679948,0.0],[-46.535668412359207,-22.907068946246451,0.0],[-46.53575516377164,-22.90705880099679,0.0],[-46.535864439982099,-22.906991780633629,0.0],[-46.535992698729977,-22.9069822095151,0.0],[-46.536032810260942,-22.90694861733629,0.0],[-46.536079599514949,-22.906896054978269,0.0],[-46.536132834407447,-22.90672970399908,0.0],[-46.536136821440437,-22.906636793155432,0.0],[-46.536162344842843,-22.906520857601951,0.0],[-46.536179225971082,-22.906445933737508,0.0],[-46.536187463362083,-22.90637929828085,0.0],[-46.536190449014491,-22.90632032095677,0.0],[-46.536181248241689,-22.90624305768597,0.0],[-46.536159614556233,-22.906161055066558,0.0],[-46.536149216334373,-22.906107346065511,0.0],[-46.536125471898032,-22.906031637279462,0.0],[-46.536104263611968,-22.90592236871872,0.0],[-46.53613104787928,-22.90585475969953,0.0],[-46.536173819801071,-22.905833782387589,0.0],[-46.536220607220713,-22.905876873329259,0.0],[-46.53628251907341,-22.90589818301633,0.0],[-46.536334747940529,-22.905925238473849,0.0],[-46.536417564183651,-22.90594136855286,0.0],[-46.536487009054532,-22.905974733403891,0.0],[-46.536528064028893,-22.90599337198265,0.0],[-46.536594744069177,-22.906019989670501,0.0],[-46.536719826625557,-22.906039706361259,0.0],[-46.536807526730378,-22.906040073032749,0.0],[-46.536919031611113,-22.906020835611809,0.0],[-46.537022285707579,-22.90599695770052,0.0],[-46.537168551988302,-22.90600137333935,0.0],[-46.537317220153987,-22.90599121714342,0.0],[-46.537402727547757,-22.905999027277169,0.0],[-46.537453033983567,-22.90599068959736,0.0],[-46.537550421700253,-22.905940245334889,0.0],[-46.537611559493982,-22.905918886684031,0.0],[-46.537670825802337,-22.905891020764201,0.0],[-46.537751953681472,-22.90584752107894,0.0],[-46.537884156043027,-22.905795446117949,0.0],[-46.537979641127258,-22.905724521158309,0.0],[-46.538054016210509,-22.90563689044615,0.0],[-46.538111625307998,-22.90560222438074,0.0],[-46.538132018731972,-22.905569386932779,0.0],[-46.538130398501281,-22.90552747562505,0.0],[-46.5381564849244,-22.905475492005429,0.0],[-46.538214035151249,-22.905387655093119,0.0],[-46.53825376454283,-22.905328575055339,0.0],[-46.538294151582953,-22.905298308097329,0.0],[-46.538431995424929,-22.90517893510291,0.0],[-46.538532613860497,-22.90514085772271,0.0],[-46.538656406425901,-22.905115566770188,0.0],[-46.53871172175981,-22.9051205402431,0.0],[-46.538886502475712,-22.905085028358162,0.0],[-46.539051420666851,-22.904946117967022,0.0],[-46.539391527361182,-22.90477758618928,0.0],[-46.539389596686362,-22.904799502518198,0.0],[-46.539389150616792,-22.904871005828969,0.0],[-46.539409193690432,-22.904948181142402,0.0],[-46.539433568373113,-22.90502749362097,0.0],[-46.539433043293563,-22.905098012008342,0.0],[-46.539448199514702,-22.905185958025079,0.0],[-46.53947810643659,-22.905273681097022,0.0],[-46.539511956926702,-22.905377078450609,0.0],[-46.5394397791542,-22.90541428274528,0.0],[-46.539412002195789,-22.905407081438788,0.0],[-46.539342373742819,-22.905383132698152,0.0],[-46.539261654515172,-22.905361473810022,0.0],[-46.539175853994578,-22.905351623743091,0.0],[-46.539093954907443,-22.905358941980889,0.0],[-46.539040223811789,-22.90536360766254,0.0],[-46.538977773846369,-22.905406830525699,0.0],[-46.538922502090948,-22.90544847778785,0.0],[-46.538862387641942,-22.905502054700442,0.0],[-46.538807314785657,-22.905543545674082,0.0],[-46.538723513537512,-22.905609893105581,0.0],[-46.538706509451657,-22.905635480712391,0.0],[-46.538658415048559,-22.905625159620261,0.0],[-46.538565343235291,-22.905650425477582,0.0],[-46.538512579142797,-22.90568411963152,0.0],[-46.538491953876381,-22.905724688659419,0.0],[-46.538481341323433,-22.905759291053538,0.0],[-46.538459981537741,-22.905796303295091,0.0],[-46.53842338278735,-22.905833350485601,0.0],[-46.538388448089918,-22.905877127855881,0.0],[-46.538327489215888,-22.90589129267407,0.0],[-46.538275355206558,-22.905910527335291,0.0],[-46.538236746855887,-22.905923057906609,0.0],[-46.538239368540843,-22.905979277779139,0.0],[-46.538243010848689,-22.90602444266025,0.0],[-46.53821477266996,-22.906062820284731,0.0],[-46.538183063590708,-22.906101910611429,0.0],[-46.538211930316599,-22.906126673946979,0.0],[-46.53824401126986,-22.906164539432631,0.0],[-46.538263689338358,-22.906198181764111,0.0],[-46.538240272420737,-22.906224481708961,0.0],[-46.538194639663551,-22.906266309572391,0.0],[-46.538140431398567,-22.90630315636372,0.0],[-46.538088205216837,-22.90633259955538,0.0],[-46.53801696740922,-22.906356539668469,0.0],[-46.537940904202252,-22.906406433230728,0.0],[-46.537880200504333,-22.906438349161899,0.0],[-46.537826761683647,-22.906468528259449,0.0],[-46.537748079143768,-22.90648698851588,0.0],[-46.537687704340577,-22.9064799874375,0.0],[-46.537643441106511,-22.906465634721179,0.0],[-46.537583395703102,-22.90643009176998,0.0],[-46.537546085264253,-22.90641395480052,0.0],[-46.537505815271693,-22.90640202979484,0.0],[-46.537464791778163,-22.9064223630143,0.0],[-46.537422408273663,-22.906453678093619,0.0],[-46.53738593305988,-22.906476395495879,0.0],[-46.537325049084806,-22.906526214334299,0.0],[-46.537292949126567,-22.90655143516787,0.0],[-46.537255621484938,-22.906620115255208,0.0],[-46.537233092155972,-22.906653485789139,0.0],[-46.537177568385701,-22.906673516435621,0.0],[-46.537139629475043,-22.906671898066161,0.0],[-46.537090499874502,-22.90668692588784,0.0],[-46.537048865743188,-22.906717699400922,0.0],[-46.536994671066203,-22.906758354850769,0.0],[-46.536924832124257,-22.906795638332252,0.0],[-46.536852223103999,-22.906805689561448,0.0],[-46.536759939630002,-22.906827318660842,0.0],[-46.536718789740441,-22.906857840084879,0.0],[-46.536708638396171,-22.90688105586139,0.0],[-46.536629386168862,-22.90694463106442,0.0],[-46.536566063112971,-22.90701116006197,0.0],[-46.536516171406788,-22.907088054845872,0.0],[-46.536471256436613,-22.907136136637831,0.0],[-46.536407113164927,-22.90721227525151,0.0],[-46.536336174976419,-22.907272757183321,0.0],[-46.536299202034577,-22.907288134924819,0.0],[-46.536211010586712,-22.907335616413,0.0],[-46.536166820280179,-22.907335882231109,0.0],[-46.536103119398888,-22.907317189958839,0.0],[-46.536008518563563,-22.907352782818421,0.0],[-46.535940541638567,-22.907375389465379,0.0],[-46.53583187156903,-22.907410843986181,0.0],[-46.535760750832367,-22.907434154530659,0.0],[-46.5357156559309,-22.907458044164901,0.0],[-46.535663753613377,-22.907483494378059,0.0],[-46.53560679239763,-22.907516737606599,0.0],[-46.535565491221483,-22.907552889557259,0.0],[-46.535518244352367,-22.907567211214531,0.0],[-46.535486605208042,-22.9075977009383,0.0],[-46.535453398733999,-22.907635060824749,0.0],[-46.535402493880383,-22.907686241125599,0.0],[-46.535377966801661,-22.907669018311609,0.0],[-46.535350458527262,-22.90767541466143,0.0],[-46.535316263005747,-22.907683400007819,0.0],[-46.535263579242027,-22.90768916859615,0.0],[-46.53521007228337,-22.9076918375867,0.0],[-46.535177350044151,-22.90767646426541,0.0],[-46.535164328483987,-22.90765311915926,0.0],[-46.535097325117768,-22.907675386600189,0.0],[-46.535063036177412,-22.907683402099199,0.0],[-46.535021876714183,-22.907693023471818,0.0],[-46.534963544030248,-22.907706659199469,0.0],[-46.53491548436687,-22.907717893587431,0.0],[-46.534845856398491,-22.90774408060167,0.0],[-46.534771139661267,-22.907764851394472,0.0],[-46.534716193301392,-22.907751241127212,0.0],[-46.534673140346868,-22.907741406281922,0.0],[-46.534630020511742,-22.90774483934501,0.0],[-46.534584429324433,-22.90777873294773,0.0],[-46.534547072848859,-22.90764710356714,0.0],[-46.53451834223894,-22.90755899764574,0.0],[-46.534479394435458,-22.90752709715975,0.0],[-46.534425455602417,-22.907508758585209,0.0],[-46.534379983811093,-22.907481443517451,0.0],[-46.53434446789219,-22.907475849878342,0.0],[-46.53429246388481,-22.907491314284041,0.0],[-46.53425329236142,-22.907524508794751,0.0],[-46.534202641559681,-22.907556874617161,0.0],[-46.534155960883233,-22.907540111977049,0.0],[-46.534092827989781,-22.907544341743488,0.0],[-46.534017404634312,-22.90753406309895,0.0],[-46.533982832503973,-22.90749683649377,0.0],[-46.533939663957938,-22.90744399909163,0.0],[-46.533940507894307,-22.90739807650781,0.0],[-46.533967719104169,-22.907338587960581,0.0],[-46.533958419535622,-22.907283884945691,0.0],[-46.53392110367809,-22.90724989263467,0.0],[-46.533860972539117,-22.907192375080839,0.0],[-46.533849010069041,-22.907115979506059,0.0],[-46.533844796100723,-22.90705179352571,0.0],[-46.53380394319047,-22.90689010348245,0.0],[-46.533881400975829,-22.906788782700058,0.0]]]}}
]
}
