{
"type": "FeatureCollection",
"name": "Manancial Cantareira II (233)",
"crs": { "type": "name", "properties": { "name": "urn:ogc:def:crs:OGC:1.3:CRS84" } },
"xy_coordinate_resolution": 1e-15,
"features": [
{"type":"Feature","properties":{"Área (ha)":25.788043124594363,"Nome do Projeto":"Manancial Cantareira II","Propriedade":"Gleba 2 - Campinho","Tipo":"Programa Nascentes","Ano de Implantação":"2021","Metodologia de Restauração":null,"Monitoramento":"3 anos","Município":"Piracaia","UGRHI":"05 -  Piracicaba, Capivari e Jundiaí","Região Hidrográfica":"Paraná","Status do Projeto":"Ativo","Fotos do Projeto":null},"geometry":{"type":"MultiPolygon","coordinates":[[[[-46.239963495234498,-23.010781422541601],[-46.239728037756898,-23.010744573501501],[-46.239228305661896,-23.010376065732899],[-46.238683865880603,-23.009688688672199],[-46.238473296857897,-23.009516217383698],[-46.238460905384102,-23.009303502695101],[-46.238449838370599,-23.009235876474602],[-46.2382452010607,-23.009140744489201],[-46.238010232232803,-23.009157091858],[-46.237864300008503,-23.009196925918801],[-46.237796911326797,-23.009255492324499],[-46.237645533854902,-23.0092711856162],[-46.237367974902398,-23.009200805641999],[-46.237054770942301,-23.009232272902601],[-46.236943998681298,-23.009117059252802],[-46.2368078537624,-23.0090842664343],[-46.236598698550601,-23.009066553645798],[-46.236596891253697,-23.008868265917499],[-46.236521500815002,-23.008622186568001],[-46.2363633128179,-23.008463813091399],[-46.236346537714098,-23.008343028309],[-46.2363771792417,-23.0082654029409],[-46.236517886544597,-23.0082256110726],[-46.2366590786499,-23.008239018233098],[-46.236815767750102,-23.008232957689099],[-46.236941066105302,-23.008222305599698],[-46.236939037929297,-23.007999836445901],[-46.2369697672274,-23.007931883549901],[-46.237031622576197,-23.007839504315999],[-46.237097996733702,-23.007669703666501],[-46.237180837731501,-23.007586833673098],[-46.237399601502602,-23.0075125747098],[-46.237567113465502,-23.007547540225001],[-46.237656943106401,-23.007658080562202],[-46.237679296605897,-23.007817514608298],[-46.237825889255298,-23.007850225041299],[-46.237894645108597,-23.007941583459001],[-46.237926609422402,-23.008009046357401],[-46.237984078133799,-23.0080085970251],[-46.238077323482102,-23.007920808597898],[-46.238182209185403,-23.007963518072],[-46.238312643277197,-23.007943151489101],[-46.238412083923102,-23.007961720250101],[-46.2385113480073,-23.007960943814801],[-46.238588919701797,-23.0078732777007],[-46.2386621499097,-23.007882378082801],[-46.238730508936797,-23.007930209566702],[-46.238882679615898,-23.008001568390299],[-46.238925049122599,-23.0080641130237],[-46.238910479862398,-23.008185142722699],[-46.238775527723803,-23.008282931199801],[-46.238744931744499,-23.008365393254898],[-46.238818338859801,-23.008393838681599],[-46.238813820950099,-23.008471260076199],[-46.238783004170898,-23.008529540725998],[-46.238784108108597,-23.008650447783001],[-46.238867611007798,-23.0086401211679],[-46.238930171928203,-23.008625121754999],[-46.239013807294199,-23.008629303909402],[-46.239066405136299,-23.008667585311098],[-46.238999392658002,-23.008767260593501],[-46.239026619101601,-23.008887963213098],[-46.239100092811903,-23.008923662914601],[-46.239129357395903,-23.008981473406799],[-46.239096127181,-23.0090615378239],[-46.239104273070701,-23.0090953304618],[-46.239177614396603,-23.009116521276901],[-46.2392164445181,-23.009077524343301],[-46.239223971999003,-23.009043609037199],[-46.239215892344298,-23.0090170708282],[-46.239215428519699,-23.0089662898752],[-46.239220387939298,-23.008937231295999],[-46.239170247576197,-23.0088820025234],[-46.239130799106498,-23.008853291504199],[-46.239130534083998,-23.0088242738152],[-46.239213749927501,-23.008782511185199],[-46.239278415077003,-23.0087118739531],[-46.239291078626501,-23.008668245188002],[-46.239233101667203,-23.008613077770399],[-46.239198656852899,-23.0085601444651],[-46.2391955145644,-23.0085021295316],[-46.239221040455,-23.0084366352778],[-46.239217876076303,-23.008376202203301],[-46.239199237161799,-23.0083376550662],[-46.2392461025008,-23.008320360063902],[-46.239305697603697,-23.008266690703699],[-46.2393260431447,-23.008206073610101],[-46.239351789806904,-23.008164760745601],[-46.239401046388203,-23.008123263845899],[-46.239486697210303,-23.008062135517701],[-46.239586336900103,-23.008102466794998],[-46.239681083630899,-23.008179111019199],[-46.239702379061299,-23.008222473922899],[-46.239752430992297,-23.008268029971301],[-46.239831062676998,-23.008296434013399],[-46.239875801848498,-23.008332358369099],[-46.239931409800903,-23.0084141455458],[-46.239970858297497,-23.0084428563652],[-46.240062374419203,-23.008451812875599],[-46.240137819377097,-23.008417365577799],[-46.240220813598903,-23.008351421041599],[-46.240564233475801,-23.008196376906799],[-46.240558456297101,-23.008135964350402],[-46.240591641213399,-23.008051063385501],[-46.240667240588301,-23.008033542826499],[-46.240761036969197,-23.0080062063819],[-46.240818306588203,-23.007983992765901],[-46.240817864301498,-23.0079356299766],[-46.240759909191297,-23.007882881266202],[-46.240735846491702,-23.007822612008301],[-46.240795971498201,-23.007826977468099],[-46.240851004780502,-23.007845892685499],[-46.240953876146698,-23.007953910522701],[-46.241021837844897,-23.007958214472801],[-46.241055420561302,-23.007916839930299],[-46.241120836391602,-23.007928418731399],[-46.241162211454899,-23.007882146460201],[-46.2411485974093,-23.007821795364698],[-46.2410985230851,-23.007773821629399],[-46.241079773145202,-23.007723184034202],[-46.240995430580803,-23.007641622488801],[-46.240940353132899,-23.007617871039599],[-46.240890389534002,-23.007581987928202],[-46.240887423488701,-23.0075433181681],[-46.241004353307702,-23.0074746889726],[-46.2410667585903,-23.007442761771099],[-46.241063814618002,-23.0074065101551],[-46.240994924289303,-23.007300644352199],[-46.240970441394701,-23.0071944304743],[-46.2410142294422,-23.007126374516002],[-46.240994993071702,-23.0070225378307],[-46.240978921827498,-23.006979134158001],[-46.241001679587903,-23.0068967331507],[-46.241014010687003,-23.006816832175002],[-46.241204390736499,-23.006781483531199],[-46.241574192853697,-23.006655250300302],[-46.241745822495098,-23.006569263478799],[-46.242137096456801,-23.0065057366999],[-46.2422890014562,-23.006548074590398],[-46.242422709832702,-23.006600228362199],[-46.242695838470901,-23.0067576935887],[-46.242898505098701,-23.0069229663724],[-46.243027765025801,-23.007059795434898],[-46.243169643074197,-23.007148159080199],[-46.243392056127597,-23.0071875239531],[-46.243540995445102,-23.0071911909058],[-46.243608513521004,-23.007147131015799],[-46.243865790448297,-23.007000011433099],[-46.244042776333401,-23.006928489948798],[-46.244319490767602,-23.006906969101699],[-46.244517861688898,-23.006888481875599],[-46.244805157770699,-23.006881386877001],[-46.245037420398603,-23.0068553776219],[-46.245287590932797,-23.006788115914802],[-46.245422758611603,-23.0067145034945],[-46.245482794400601,-23.006709194647399],[-46.245800355883503,-23.006868723173099],[-46.245957908520403,-23.006956960933898],[-46.246093897637301,-23.006972818943598],[-46.246170228459299,-23.007035094261401],[-46.246351291215703,-23.007123146577399],[-46.246704079571899,-23.007420239537801],[-46.246208562186901,-23.007511199531098],[-46.246141622265597,-23.007618132000601],[-46.246191484700198,-23.007927283159301],[-46.246250063753898,-23.008047737552001],[-46.246285808225501,-23.008526281414401],[-46.246269575085797,-23.009034254090999],[-46.246268037957698,-23.0094357054694],[-46.2461969389147,-23.009658749533902],[-46.246157453098697,-23.009910564448301],[-46.2458934471058,-23.010178656213601],[-46.245747694120901,-23.010237842557999],[-46.245544205076399,-23.010268463299798],[-46.2450773159417,-23.010064161146801],[-46.244849778239697,-23.009751570149799],[-46.244695517297401,-23.009452912573099],[-46.244573624215498,-23.0092652426355],[-46.244279102634202,-23.009054746260599],[-46.2439302169469,-23.009183239897201],[-46.2437328401125,-23.009310542669699],[-46.243086778621397,-23.009509081407302],[-46.242799831153199,-23.009554863727001],[-46.242606171084397,-23.009517690811801],[-46.242339634160203,-23.009510109259999],[-46.242120427490299,-23.0095360122993],[-46.2418343649191,-23.009678518404598],[-46.241553658995699,-23.009835491875901],[-46.241262724654703,-23.0100167281811],[-46.241007432024702,-23.0100961154941],[-46.2405241181647,-23.0103804274681],[-46.240228221977098,-23.010590720578101],[-46.240140642968697,-23.010726832123002],[-46.239963495234498,-23.010781422541601]]]]}}
]
}
