{
"type": "FeatureCollection",
"name": "Manancial Cantareira II (231)",
"crs": { "type": "name", "properties": { "name": "urn:ogc:def:crs:OGC:1.3:CRS84" } },
"xy_coordinate_resolution": 1e-15,
"features": [
{"type":"Feature","properties":{"Área (ha)":36.529460715843392,"Nome do Projeto":"Manancial Cantareira II","Propriedade":"Gleba 1 - Torre","Tipo":"Programa Nascentes","Ano de Implantação":"2021","Metodologia de Restauração":null,"Monitoramento":"5 anos","Município":"Piracaia","UGRHI":"05 -  Piracicaba, Capivari e Jundiaí","Região Hidrográfica":"Paraná","Status do Projeto":"Ativo","Fotos do Projeto":null},"geometry":{"type":"MultiPolygon","coordinates":[[[[-46.240004614661601,-23.034258238575301],[-46.239787532424501,-23.0342049637818],[-46.239620598456803,-23.0341426949004],[-46.239389444811302,-23.034083736704901],[-46.2393073537379,-23.034068751596301],[-46.239202374070899,-23.034084462466001],[-46.238951506640397,-23.034104444403699],[-46.238906898684498,-23.0339809756181],[-46.238858301245401,-23.033924870900101],[-46.238826270216798,-23.033806589776798],[-46.238666472473099,-23.033714333724799],[-46.238168870512403,-23.0335592263969],[-46.2379965344251,-23.033392482172701],[-46.237724237811101,-23.032930121585999],[-46.237504085021897,-23.032533305545201],[-46.237324562590402,-23.032231456129399],[-46.237017320693298,-23.0316913869625],[-46.237015885671298,-23.0315341697757],[-46.237125117085199,-23.0312876464479],[-46.237205289151902,-23.031239540866299],[-46.237255150169403,-23.031216108483701],[-46.237563980206303,-23.0310334095503],[-46.237653205984302,-23.030983799662199],[-46.237662552235903,-23.030975095676499],[-46.237696099960502,-23.030902692266402],[-46.237752357653399,-23.030796315509601],[-46.237769945253099,-23.030632139249601],[-46.237792048672503,-23.030473853820499],[-46.237781533960799,-23.030418025195502],[-46.237762853402401,-23.030201714431399],[-46.237730804072598,-23.0300810270328],[-46.237725807387001,-23.0300334445886],[-46.237509991983899,-23.029436613417602],[-46.237382493198197,-23.029052710652898],[-46.237121805627297,-23.028813254184101],[-46.236827454690399,-23.028635535135901],[-46.236591831779798,-23.028523572344898],[-46.236452213785,-23.028472997093001],[-46.236362694953598,-23.028446991567801],[-46.236191979416503,-23.028435822128401],[-46.236032039831997,-23.028472886693098],[-46.235872664606397,-23.028594547327501],[-46.235663019348401,-23.0287709578555],[-46.235402303673098,-23.0289674389178],[-46.2349461116466,-23.0291827190613],[-46.234819434604802,-23.028951277988199],[-46.234898424252101,-23.028663307317],[-46.2349407079735,-23.028425819707198],[-46.234990346350102,-23.028062859605701],[-46.235278122174499,-23.0276811902501],[-46.235315093947399,-23.027307112101699],[-46.235378569775897,-23.027170208522499],[-46.235589430431602,-23.027034123924299],[-46.2356958106025,-23.027033808775801],[-46.235787560164503,-23.027022077830399],[-46.235882175092101,-23.026941764687798],[-46.236000182925402,-23.026905169033601],[-46.236076280355803,-23.026866912707501],[-46.236094664886899,-23.026773043021102],[-46.236143003360603,-23.0267285847426],[-46.236261116245601,-23.026750418840599],[-46.236307773601098,-23.026787380874701],[-46.236434538431403,-23.026682792633199],[-46.236539445692699,-23.026671062227202],[-46.236553695902302,-23.0267308702463],[-46.236868211920502,-23.026956876424901],[-46.237052777484699,-23.0271339043042],[-46.237184630322702,-23.027255628159999],[-46.237269792596102,-23.027309423599199],[-46.237334391361998,-23.027384298321302],[-46.237426781013099,-23.027416067423601],[-46.237529234614897,-23.027354367547801],[-46.237638370792801,-23.027311417235399],[-46.237801510361201,-23.027349173340099],[-46.2379125811782,-23.027413696614399],[-46.2382943615508,-23.027388404462702],[-46.238449320243298,-23.027334854571802],[-46.238590244098702,-23.027306321934699],[-46.238719782344198,-23.027291441190599],[-46.238839946033004,-23.027215540843699],[-46.238912419176501,-23.0272752615926],[-46.238976826663297,-23.027362010800399],[-46.239121542136601,-23.027357019543299],[-46.239229921884302,-23.027443092301901],[-46.239393227399503,-23.027441932526301],[-46.239458081534998,-23.027443906463802],[-46.2394986873284,-23.027340620636402],[-46.239597129458701,-23.027225706161001],[-46.239663568331999,-23.027077175317402],[-46.239766268356298,-23.0271627919434],[-46.239885517080197,-23.027302090959999],[-46.240084908885599,-23.027424796566301],[-46.240168982240199,-23.027498513797301],[-46.240387389268101,-23.027599947796599],[-46.240389572324702,-23.027660305334098],[-46.240416716130802,-23.027771334678299],[-46.240580511627797,-23.027968351705699],[-46.240695864253503,-23.028010976759798],[-46.240899513962901,-23.027994869907101],[-46.240977006302799,-23.027897529873499],[-46.241007117648302,-23.027761868521502],[-46.2409639436205,-23.027612272109],[-46.240874451510201,-23.027540424750701],[-46.240689386360501,-23.027469386741],[-46.2407989637478,-23.027156531992901],[-46.240854184286597,-23.026989354332802],[-46.240915118547001,-23.026903190061098],[-46.241127533790099,-23.026711061747498],[-46.241320559738398,-23.026672714838298],[-46.241450230777197,-23.026636514794099],[-46.241604659939298,-23.026784361403301],[-46.241660239633099,-23.026882138381001],[-46.2416724375529,-23.0273789188516],[-46.241598866357499,-23.027693131603201],[-46.241729479065299,-23.0279089583995],[-46.241926574007401,-23.028201168157199],[-46.242075081862403,-23.028216997851199],[-46.242180495128999,-23.028337898913399],[-46.242507996579803,-23.0282193030116],[-46.2429111030808,-23.0281114578505],[-46.243209008153599,-23.027844272052],[-46.243551201080102,-23.027780234083799],[-46.243565496815101,-23.027767447221901],[-46.243607805054097,-23.027755175155399],[-46.243642981190398,-23.027749294873601],[-46.244175284812599,-23.027684414838401],[-46.244308803617798,-23.027766366393202],[-46.2446434770374,-23.027753230105802],[-46.244971590216601,-23.0277458623063],[-46.245361420237103,-23.027649421947199],[-46.245579474848,-23.027625335983601],[-46.246188212750603,-23.0277653333399],[-46.246671049837303,-23.027943845814502],[-46.247004961792101,-23.028057112540399],[-46.247132274940498,-23.028128616341998],[-46.247318567315503,-23.028356025863001],[-46.247319049043902,-23.0286679181918],[-46.247246819767298,-23.028792457968699],[-46.247077910802801,-23.028756426078701],[-46.246871337064498,-23.028738707705301],[-46.246720250832396,-23.0287882643334],[-46.246654535355901,-23.028745252678],[-46.2466097429934,-23.0287044944473],[-46.246609387155701,-23.0286658044025],[-46.246483537436099,-23.028618429843501],[-46.246408461281497,-23.0286939886781],[-46.2464434035614,-23.0288001187497],[-46.246533010522903,-23.028884053419699],[-46.246644319139001,-23.0290548759492],[-46.246710079251798,-23.0291027238559],[-46.246767749272401,-23.029157960728501],[-46.246501946193298,-23.029274841433299],[-46.245919787803501,-23.029334345226601],[-46.245769290394598,-23.029299563699698],[-46.245847568803299,-23.029180241260299],[-46.245980883538103,-23.029071727903801],[-46.246067684556103,-23.028982755231102],[-46.246045063273101,-23.028824935939301],[-46.245895594471598,-23.0287743397935],[-46.245609484905302,-23.0287142842446],[-46.245507015388903,-23.028745831785301],[-46.245387429967401,-23.028768375188701],[-46.245374366995001,-23.028768101183399],[-46.245357221688799,-23.0287635886441],[-46.245191894138898,-23.028710729278099],[-46.245088286246897,-23.028733381697901],[-46.245009769937496,-23.028764544608499],[-46.244948590690498,-23.028865689112099],[-46.244977019475698,-23.028948931306999],[-46.244787858896501,-23.029129124361098],[-46.2446262250727,-23.0292346741948],[-46.244530125158903,-23.029136513425801],[-46.244309434272601,-23.028898080719301],[-46.244118313460397,-23.028876873902998],[-46.243862950195897,-23.028913929392999],[-46.243746592654603,-23.0289581363167],[-46.243628103187397,-23.029031700296599],[-46.243652681282697,-23.0290984669697],[-46.243822000212099,-23.029230281111399],[-46.243827653367902,-23.029330966532498],[-46.243771777324397,-23.0294402810195],[-46.243705369642299,-23.029499741996499],[-46.2435646655059,-23.029602030319001],[-46.243402170640998,-23.029629885241601],[-46.243253448367703,-23.0296317073403],[-46.243115465707199,-23.0294892306332],[-46.243023605844897,-23.029369685495201],[-46.242859553990002,-23.0292694151997],[-46.242610044367403,-23.029331813656299],[-46.242564828250501,-23.029402468487898],[-46.242637136010998,-23.0295308781694],[-46.2426710287886,-23.0296644378585],[-46.2425682711091,-23.029933972518801],[-46.242409811475703,-23.030138082289501],[-46.242275221999002,-23.030335677157399],[-46.242193268531999,-23.030537394981799],[-46.242205342737499,-23.0309073479891],[-46.242250835813103,-23.031212873075201],[-46.242348084832003,-23.031409001931198],[-46.242479080943802,-23.031580138286401],[-46.242610877024397,-23.031799471119299],[-46.242650040225499,-23.032217689384701],[-46.242647695174703,-23.0324121937401],[-46.242615098508601,-23.032713924796202],[-46.242590181165802,-23.032851798484099],[-46.242385529656602,-23.033078854363399],[-46.242116453050897,-23.033196143870601],[-46.241860457333701,-23.033321670115601],[-46.2415412932842,-23.033392325345901],[-46.241395030170999,-23.0333909497081],[-46.2412329987867,-23.033457179752499],[-46.241153395010201,-23.033496823386699],[-46.2409964024556,-23.033559915756399],[-46.240657983304203,-23.033607442967799],[-46.240178826329903,-23.033343356090999],[-46.240128085178704,-23.033664648030701],[-46.2401316046817,-23.033808668642799],[-46.240108733522497,-23.034004315028898],[-46.240025667114303,-23.034164802417799],[-46.240004614661601,-23.034258238575301]],[[-46.238039333920497,-23.032375067001102],[-46.238177607298098,-23.032352220094101],[-46.238260594492999,-23.032283857966199],[-46.238412063720297,-23.032275417417001],[-46.238500430797998,-23.0322239412051],[-46.238606401435099,-23.032097359603998],[-46.238629296700999,-23.0320294677513],[-46.238601887574603,-23.031889419938199],[-46.2384375327428,-23.031917308569898],[-46.238167057537503,-23.031769490569101],[-46.238028453395799,-23.031756065421501],[-46.237953746182903,-23.031872728786901],[-46.237879524773902,-23.032042591086601],[-46.237875315453898,-23.032153866172902],[-46.237938969582203,-23.032257355318499],[-46.238039333920497,-23.032375067001102]],[[-46.239763573417498,-23.032061693714201],[-46.239961827012998,-23.032026283691401],[-46.2400860847955,-23.031899557819699],[-46.240392609514103,-23.031703690348301],[-46.240579924736302,-23.031615162601401],[-46.240652415289603,-23.031542044968599],[-46.240682748957902,-23.031430565014102],[-46.240613403039298,-23.031276337228899],[-46.2406904103361,-23.031125798369199],[-46.240803773233303,-23.030950791290099],[-46.240869886751703,-23.030751971666],[-46.240617744292599,-23.0306088506747],[-46.240398237685397,-23.030605735170301],[-46.240337614390199,-23.030833531257802],[-46.240250067708999,-23.030974479354899],[-46.240125855144399,-23.031106041592299],[-46.240142637443498,-23.031226825365],[-46.240081039930601,-23.0313482235169],[-46.2399089139818,-23.031383428889502],[-46.239710484343497,-23.031399493741802],[-46.239612087867897,-23.031496997010901],[-46.239502488633804,-23.031512365564399],[-46.239862554214,-23.030885621049201],[-46.240279121001599,-23.030152027376001],[-46.240489063721803,-23.029681229968801],[-46.240460414483501,-23.029405767623899],[-46.240205472841303,-23.029455781316901],[-46.240166915571599,-23.029311336160099],[-46.240050632780203,-23.029167149153999],[-46.240003251666302,-23.029128827584099],[-46.240190519441001,-23.0290354641471],[-46.240136275881497,-23.028818241681002],[-46.239894190120303,-23.0286315109899],[-46.239836049143399,-23.028559417373799],[-46.239803680405203,-23.0284484288706],[-46.239891403022,-23.0283268261004],[-46.240015701900298,-23.028204936639199],[-46.240166524779298,-23.028126368725701],[-46.240014286116001,-23.028050176060699],[-46.239684744878197,-23.028014065413199],[-46.239533125751699,-23.028005580033],[-46.239409313032503,-23.028180668089799],[-46.2393795537686,-23.028355019357502],[-46.239327920745602,-23.028423136411998],[-46.239135206870003,-23.028492358398399],[-46.238920575198698,-23.0284505096114],[-46.238825637318797,-23.0283545206422],[-46.238793402054903,-23.028258040701999],[-46.238719586201299,-23.028186069368498],[-46.238822631656703,-23.028025654266902],[-46.2388580145956,-23.0278947885908],[-46.238711532414399,-23.027876588962201],[-46.238612253761502,-23.027877366156599],[-46.238455718920697,-23.0279027745345],[-46.238289352162298,-23.027995972344598],[-46.238253703563998,-23.028097820288998],[-46.238459253931303,-23.0282896762108],[-46.238549275643898,-23.028419560210398],[-46.2386288912911,-23.028554362229901],[-46.238861011051704,-23.028794375735298],[-46.238941157720902,-23.028987212802999],[-46.238995001584598,-23.0291609093312],[-46.238927957585197,-23.029258166640499],[-46.239082035768,-23.029464804476699],[-46.2390058457108,-23.029489714259501],[-46.238911990072403,-23.0295122139858],[-46.238849043888699,-23.0294861054834],[-46.238803479956303,-23.0293607102377],[-46.238708917177902,-23.029305829526201],[-46.238583378656699,-23.029292302480599],[-46.238504491744997,-23.0292372989257],[-46.238407780522202,-23.029233219313799],[-46.238298580587198,-23.0292921133981],[-46.2383723526723,-23.029359248631302],[-46.238451129131697,-23.029402161575199],[-46.238509247685997,-23.0294718375741],[-46.238571127996202,-23.0296672361115],[-46.238589124066301,-23.0299210175539],[-46.238666371374102,-23.030049733094],[-46.238585688744898,-23.030116927376401],[-46.238408321231802,-23.030195233860599],[-46.238214318366197,-23.030078722985898],[-46.238077842638198,-23.030012078382001],[-46.238024706356398,-23.0299157618539],[-46.238002480013002,-23.029770837280399],[-46.237949476405497,-23.029689029530399],[-46.237887524145798,-23.029771736738699],[-46.237899343994101,-23.0299215793714],[-46.237816048812199,-23.029956087377801],[-46.237838186658301,-23.030091339439899],[-46.237880739805597,-23.0301732289856],[-46.237961128981802,-23.03039266603],[-46.238196520545401,-23.030990564338602],[-46.238159313138603,-23.031493863528201],[-46.238787237107999,-23.031585680319299],[-46.239270975134602,-23.031910781551499],[-46.239589809723597,-23.031917956921301],[-46.239763573417498,-23.032061693714201]],[[-46.237770058416899,-23.0296408579424],[-46.237835307937999,-23.0296330925412],[-46.237882968009203,-23.029558961254001],[-46.2380549045536,-23.029503204005099],[-46.237967329505203,-23.029355163293499],[-46.237929148280699,-23.029322814871399],[-46.237864719367998,-23.0292773711002],[-46.237740133919502,-23.029225142988],[-46.237653917358102,-23.029225817431598],[-46.237604509356402,-23.029251596153401],[-46.237566979579803,-23.0292905826484],[-46.237575281120201,-23.029341302195601],[-46.237611302286197,-23.029423242928001],[-46.237655658206997,-23.029559530392898],[-46.237770058416899,-23.0296408579424]],[[-46.241251685544199,-23.029646229165301],[-46.2412919816609,-23.029481468207202],[-46.241253500441502,-23.029273795767899],[-46.241215727966697,-23.0291435035532],[-46.241287596839001,-23.029002677966702],[-46.241434257652998,-23.029040220198901],[-46.241581715964699,-23.029164815053999],[-46.241702649589897,-23.0292460884204],[-46.242032105528601,-23.0292725221769],[-46.241987999187799,-23.0290213646011],[-46.2418610870997,-23.0288579159702],[-46.241712698487099,-23.028631759810398],[-46.241596237527098,-23.028468228915099],[-46.241537475577701,-23.028328428247701],[-46.241336836158602,-23.028102681665999],[-46.240971293820699,-23.0281297321323],[-46.240956503767201,-23.028226580402901],[-46.240837298140903,-23.0283339207902],[-46.240638164864698,-23.028272606344501],[-46.240472064843701,-23.0283948240025],[-46.240436417821201,-23.028496672366899],[-46.240531445423002,-23.0286023328472],[-46.240657116218998,-23.0286303671671],[-46.240783406868402,-23.0287261091133],[-46.240700644447202,-23.028818653776501],[-46.240513554397701,-23.028931362858199],[-46.240436061159897,-23.029028702692699],[-46.240432385035,-23.0291980129929],[-46.240506600705899,-23.029313509852599],[-46.240627401062,-23.0293802752632],[-46.2406792993675,-23.0293411754018],[-46.240831805510702,-23.029446384929901],[-46.240968990373702,-23.029590407375299],[-46.241251685544199,-23.029646229165301]]]]}}
]
}
