{
"type": "FeatureCollection",
"name": "Marco Gouveia - WWF - 2014",
"crs": { "type": "name", "properties": { "name": "urn:ogc:def:crs:OGC:1.3:CRS84" } },
"features": [
{"type":"Feature","properties":{"id":null,"Name":"Polígono sem título","description":null,"timestamp":null,"begin":null,"end":null,"altitudeMode":null,"tessellate":1,"extrude":0,"visibility":-1,"drawOrder":null,"icon":null},"geometry":{"type":"Polygon","coordinates":[[[-46.222661307002689,-22.90032945134551,0.0],[-46.222683788062291,-22.900158548630621,0.0],[-46.222720294429323,-22.900140977224432,0.0],[-46.222734977055147,-22.900131985827059,0.0],[-46.222998573059677,-22.900094486728651,0.0],[-46.223173955404448,-22.899951297289419,0.0],[-46.223386468068703,-22.899833965174921,0.0],[-46.223513540241008,-22.89978046885815,0.0],[-46.223613613489,-22.899957000589829,0.0],[-46.223808966347001,-22.900095705857851,0.0],[-46.223781662091291,-22.900212840088081,0.0],[-46.223458139292539,-22.900233300755819,0.0],[-46.223093467869496,-22.900216150536298,0.0],[-46.222928691243489,-22.90034432270884,0.0],[-46.222661307002689,-22.90032945134551,0.0]]]}}
]
}
