{
"type": "FeatureCollection",
"name": "Mario - Salesopolis - Licitação Pref",
"crs": { "type": "name", "properties": { "name": "urn:ogc:def:crs:OGC:1.3:CRS84" } },
"xy_coordinate_resolution": 1e-15,
"features": [
{"type":"Feature","properties":{"Área (ha)":0.44440564507659147,"Nome do Projeto":null,"Propriedade":null,"Tipo":null,"Ano de Implantação":null,"Metodologia de Restauração":null,"Monitoramento":null,"Município":null,"UGRHI":null,"Região Hidrográfica":null,"Status do Projeto":null,"Fotos do Projeto":null},"geometry":{"type":"Polygon","coordinates":[[[-45.783033155114531,-23.616463059870529,0.0],[-45.783065172674434,-23.61649596527398,0.0],[-45.78335065071537,-23.616798312934669,0.0],[-45.783580409111323,-23.616995584264739,0.0],[-45.783820498331529,-23.617167297880659,0.0],[-45.783854991414323,-23.617199415870068,0.0],[-45.783823162913123,-23.617233019989371,0.0],[-45.783507619153042,-23.617457031024131,0.0],[-45.783474062375909,-23.617483501382779,0.0],[-45.783438886179823,-23.617460768033151,0.0],[-45.783032413341857,-23.61705242486153,0.0],[-45.783006258057988,-23.61701633426539,0.0],[-45.782997528216733,-23.616974749188952,0.0],[-45.782997893187193,-23.61669259257085,0.0],[-45.782940418041207,-23.616558231204898,0.0],[-45.782998886966929,-23.616481299516899,0.0],[-45.783033155114531,-23.616463059870529,0.0]]]}}
]
}
