{
"type": "FeatureCollection",
"name": "Morada do Gigante 1 - 2015",
"crs": { "type": "name", "properties": { "name": "urn:ogc:def:crs:OGC:1.3:CRS84" } },
"xy_coordinate_resolution": 1e-15,
"features": [
{"type":"Feature","properties":{"Área (ha)":1.115,"Nome do Projeto":"Acacio","Propriedade":"-","Tipo":"Recuperação Ambiental","Ano de Implantação":"2015","Metodologia de Restauração":null,"Monitoramento":null,"Município":"Atibaia","UGRHI":"05 -  Piracicaba, Capivari e Jundiaí","Região Hidrográfica":"Paraná","Status do Projeto":null,"Fotos do Projeto":null},"geometry":{"type":"Polygon","coordinates":[[[-46.29701762345703,-22.94099053440496,0.0],[-46.296316681565919,-22.941340585259091,0.0],[-46.29576188920889,-22.941538891760359,0.0],[-46.295621618928557,-22.941242250460729,0.0],[-46.296998585358459,-22.94073821244411,0.0],[-46.297308048758943,-22.941176815770621,0.0],[-46.297525439600612,-22.94152333583795,0.0],[-46.297748611041698,-22.941834466057418,0.0],[-46.298396350445891,-22.94283051079956,0.0],[-46.299088605197447,-22.94402653523516,0.0],[-46.299006943857847,-22.944088034395389,0.0],[-46.29701762345703,-22.94099053440496,0.0]]]}}
]
}
