{
"type": "FeatureCollection",
"name": "Nancy - Atibaia",
"crs": { "type": "name", "properties": { "name": "urn:ogc:def:crs:OGC:1.3:CRS84" } },
"features": [
{"type":"Feature","properties":{"id":null,"Name":"Nancy - 47 mudas","description":null,"timestamp":null,"begin":null,"end":null,"altitudeMode":null,"tessellate":1,"extrude":0,"visibility":-1,"drawOrder":null,"icon":null},"geometry":{"type":"Polygon","coordinates":[[[-46.544438774554962,-23.122298790272922,0.0],[-46.544506615682309,-23.122263919231091,0.0],[-46.544565963763901,-23.122262230179199,0.0],[-46.544605128490197,-23.12226304377835,0.0],[-46.544634076587371,-23.12231331764076,0.0],[-46.54463611755142,-23.122327239106749,0.0],[-46.544585738469969,-23.12234104562901,0.0],[-46.544506682973939,-23.122390536808091,0.0],[-46.544424100897587,-23.122465034450329,0.0],[-46.544422218627723,-23.12246621280746,0.0],[-46.544380411964489,-23.122454387103112,0.0],[-46.544358312748273,-23.122394759253002,0.0],[-46.544438774554962,-23.122298790272922,0.0]]]}}
]
}
