{
"type": "FeatureCollection",
"name": "Orlando - WWF - 2014",
"crs": { "type": "name", "properties": { "name": "urn:ogc:def:crs:OGC:1.3:CRS84" } },
"features": [
{"type":"Feature","properties":{"id":null,"Name":"Polígono sem título","description":null,"timestamp":null,"begin":null,"end":null,"altitudeMode":null,"tessellate":1,"extrude":0,"visibility":-1,"drawOrder":null,"icon":null},"geometry":{"type":"Polygon","coordinates":[[[-46.175161647171599,-22.922145801023689,0.0],[-46.174798088260623,-22.922546273458011,0.0],[-46.174644004355763,-22.922968480468981,0.0],[-46.174472960256587,-22.923193602939911,0.0],[-46.174255421629567,-22.923710307140809,0.0],[-46.174198175507769,-22.92389790206412,0.0],[-46.174250778193333,-22.92406353468045,0.0],[-46.174098863769551,-22.924152309551939,0.0],[-46.17402824654863,-22.92431885654781,0.0],[-46.174037593461343,-22.9245563048371,0.0],[-46.174046800779962,-22.924927234812401,0.0],[-46.173743457377888,-22.924867416176291,0.0],[-46.173645735291487,-22.92460104414085,0.0],[-46.173560145692683,-22.924257183358229,0.0],[-46.173916361778907,-22.923965216051268,0.0],[-46.173768245304863,-22.923859994410279,0.0],[-46.173889061187381,-22.923575376239281,0.0],[-46.173901243200362,-22.923541017169072,0.0],[-46.173976259380069,-22.92339426944304,0.0],[-46.174074608309368,-22.92312069560078,0.0],[-46.174364460849468,-22.922756059118949,0.0],[-46.174490546343641,-22.922446750806561,0.0],[-46.174554533976227,-22.922141853168,0.0],[-46.173874214853868,-22.922149417734751,0.0],[-46.173418435483711,-22.922427135025661,0.0],[-46.172797388544907,-22.922944695240691,0.0],[-46.17270166654275,-22.923252041573939,0.0],[-46.172579307559879,-22.923311752988958,0.0],[-46.172479858815869,-22.923208706653121,0.0],[-46.172462416096337,-22.923211348088952,0.0],[-46.172358742927429,-22.923058002040669,0.0],[-46.172493812136047,-22.922752347952549,0.0],[-46.172913493342143,-22.922337789539171,0.0],[-46.172614116751163,-22.922307658872889,0.0],[-46.172593870218073,-22.922314584430872,0.0],[-46.172292886317962,-22.92226299415109,0.0],[-46.172241146396303,-22.922162100062849,0.0],[-46.171989739410058,-22.922122159736531,0.0],[-46.171652058280152,-22.922274324874191,0.0],[-46.171593828189899,-22.922331243595671,0.0],[-46.171623736507421,-22.922542158242258,0.0],[-46.171390823444142,-22.922804052889092,0.0],[-46.171075211110526,-22.922514925959209,0.0],[-46.17140881754154,-22.922271520543202,0.0],[-46.171616331913583,-22.922098864829842,0.0],[-46.171936847805298,-22.922000121937259,0.0],[-46.172365460816977,-22.921976931072059,0.0],[-46.172706128793557,-22.922004211829059,0.0],[-46.173175124696783,-22.92208974289618,0.0],[-46.173397006316691,-22.922067197179981,0.0],[-46.173586853420588,-22.922018667722099,0.0],[-46.173867563473188,-22.92190155295873,0.0],[-46.174032848921762,-22.9218819206869,0.0],[-46.174378240471597,-22.9217850952645,0.0],[-46.174820795192367,-22.921778988792759,0.0],[-46.175054110272768,-22.921753927371391,0.0],[-46.175279807438223,-22.921858103256479,0.0],[-46.175400200713192,-22.92186136903365,0.0],[-46.175611392887681,-22.921964299750851,0.0],[-46.175161647171599,-22.922145801023689,0.0]]]}},
{"type":"Feature","properties":{"id":null,"Name":"Polígono sem título","description":null,"timestamp":null,"begin":null,"end":null,"altitudeMode":null,"tessellate":1,"extrude":0,"visibility":-1,"drawOrder":null,"icon":null},"geometry":{"type":"Polygon","coordinates":[[[-46.171150146741098,-22.92351329939595,0.0],[-46.171328880519702,-22.92343136924876,0.0],[-46.171299184286553,-22.92356458737498,0.0],[-46.171458129789002,-22.92361872284679,0.0],[-46.171519888408,-22.92357049682893,0.0],[-46.171447881397619,-22.923409071982849,0.0],[-46.171597412280697,-22.923372143853001,0.0],[-46.171594555530888,-22.924114726097471,0.0],[-46.17101000910661,-22.92400506624314,0.0],[-46.171150146741098,-22.92351329939595,0.0]]]}},
{"type":"Feature","properties":{"id":null,"Name":"Polígono sem título","description":null,"timestamp":null,"begin":null,"end":null,"altitudeMode":null,"tessellate":1,"extrude":0,"visibility":-1,"drawOrder":null,"icon":null},"geometry":{"type":"Polygon","coordinates":[[[-46.170238182113323,-22.9225802247099,0.0],[-46.170221974807532,-22.92291438304937,0.0],[-46.16998312051382,-22.92308910289405,0.0],[-46.169979916502228,-22.92309645315197,0.0],[-46.16970961240601,-22.923344345245919,0.0],[-46.169369322856937,-22.92323980667647,0.0],[-46.169362600629427,-22.92311574982924,0.0],[-46.16949491026876,-22.92298337256441,0.0],[-46.169731215619258,-22.922882928555889,0.0],[-46.169920372073229,-22.922790836345591,0.0],[-46.170106005487398,-22.922718059020351,0.0],[-46.170238182113323,-22.9225802247099,0.0]]]}}
]
}
