{
"type": "FeatureCollection",
"name": "Padre - Campinas - SOS 2018",
"crs": { "type": "name", "properties": { "name": "urn:ogc:def:crs:OGC:1.3:CRS84" } },
"xy_coordinate_resolution": 1e-15,
"features": [
{"type":"Feature","properties":{"Área (ha)":6.7079442792827262,"Nome do Projeto":null,"Propriedade":null,"Tipo":null,"Ano de Implantação":null,"Metodologia de Restauração":null,"Monitoramento":null,"Município":null,"UGRHI":null,"Região Hidrográfica":null,"Status do Projeto":null,"Fotos do Projeto":null},"geometry":{"type":"MultiPolygon","coordinates":[[[[-46.966610206557213,-22.8043662906836,0.0],[-46.966642064641697,-22.803964394529729,0.0],[-46.966486382302413,-22.803453880271949,0.0],[-46.966380186012117,-22.803111507079489,0.0],[-46.966299615928399,-22.802850367392899,0.0],[-46.966389247444013,-22.802704980503929,0.0],[-46.966181197618781,-22.80254756403248,0.0],[-46.966054160529133,-22.802493253642581,0.0],[-46.965810925015397,-22.802200632372351,0.0],[-46.965741328906773,-22.802053927578999,0.0],[-46.965621503444972,-22.801817160298569,0.0],[-46.965764065718432,-22.801612991761651,0.0],[-46.965908792838228,-22.80191930370658,0.0],[-46.966185281550203,-22.80231589882689,0.0],[-46.966804594895763,-22.80312116641181,0.0],[-46.967947492837787,-22.803226757764119,0.0],[-46.968312637423153,-22.803730245283301,0.0],[-46.968302725065797,-22.803944941259392,0.0],[-46.968311417498022,-22.8040529635181,0.0],[-46.968477854170622,-22.804233434370559,0.0],[-46.968682741057172,-22.804312173534701,0.0],[-46.969453465845064,-22.804991862520399,0.0],[-46.969149631285511,-22.805098415147121,0.0],[-46.968802920404983,-22.80512356850431,0.0],[-46.968581101973882,-22.805093702423971,0.0],[-46.968168369704017,-22.804901772616301,0.0],[-46.967621096002127,-22.804617770764541,0.0],[-46.967076136563669,-22.804420237166308,0.0],[-46.966610206557213,-22.8043662906836,0.0]]],[[[-46.969951946484592,-22.802501247663258,0.0],[-46.969673954796008,-22.802843566580371,0.0],[-46.969225393115003,-22.802672254806922,0.0],[-46.968639286821301,-22.802678831334291,0.0],[-46.967962409255847,-22.802742313313821,0.0],[-46.967799745967589,-22.802712101344799,0.0],[-46.967732523951007,-22.802459673239881,0.0],[-46.967941100117493,-22.802426684306042,0.0],[-46.967932481274879,-22.802329052294802,0.0],[-46.96836720395487,-22.802337806464859,0.0],[-46.96842338185143,-22.802043348905102,0.0],[-46.96828121054817,-22.801971819043569,0.0],[-46.968127628978493,-22.801838532040691,0.0],[-46.967885360950191,-22.801677757991602,0.0],[-46.967796912757073,-22.80170121696975,0.0],[-46.967710397744987,-22.80162323203518,0.0],[-46.96788128905483,-22.801334270603331,0.0],[-46.96811677612817,-22.801261732605401,0.0],[-46.968691641591057,-22.80162559384684,0.0],[-46.968882084437062,-22.80179702102312,0.0],[-46.969114015768653,-22.80204279727948,0.0],[-46.969951946484592,-22.802501247663258,0.0]]],[[[-46.967793541817677,-22.801171684323371,0.0],[-46.967348186779482,-22.80149132783826,0.0],[-46.966619991889857,-22.800678659815571,0.0],[-46.966624028130191,-22.800370462445461,0.0],[-46.967022266619097,-22.800017027041001,0.0],[-46.967401449118007,-22.800178208437519,0.0],[-46.967351566631322,-22.80057275107513,0.0],[-46.967541376634621,-22.80088091321247,0.0],[-46.967793541817677,-22.801171684323371,0.0]]]]}}
]
}
