{
"type": "FeatureCollection",
"name": "Paulo- TNC - Salesópolis 2020",
"crs": { "type": "name", "properties": { "name": "urn:ogc:def:crs:OGC:1.3:CRS84" } },
"xy_coordinate_resolution": 1e-15,
"features": [
{"type":"Feature","properties":{"Área (ha)":1.2835187024212908,"Nome do Projeto":null,"Propriedade":null,"Tipo":null,"Ano de Implantação":null,"Metodologia de Restauração":null,"Monitoramento":null,"Município":null,"UGRHI":null,"Região Hidrográfica":null,"Status do Projeto":null,"Fotos do Projeto":null},"geometry":{"type":"Polygon","coordinates":[[[-45.834281528060828,-23.522761298176661,0.0],[-45.83420826178029,-23.522627360861861,0.0],[-45.834454363216388,-23.522242535359378,0.0],[-45.834236930505547,-23.522097903460999,0.0],[-45.834103683516659,-23.522023043233599,0.0],[-45.834037823915068,-23.522238914878042,0.0],[-45.833911471045319,-23.522187984388911,0.0],[-45.83363413874369,-23.522113434947009,0.0],[-45.833432764886354,-23.522118386711799,0.0],[-45.83303873595662,-23.522145350893741,0.0],[-45.833036951814726,-23.522144631246832,0.0],[-45.832911846718567,-23.522049487931451,0.0],[-45.832874602811629,-23.52177798949765,0.0],[-45.833593268506633,-23.52179990379398,0.0],[-45.83416099418627,-23.520964666829379,0.0],[-45.834215546051539,-23.521102215384801,0.0],[-45.834316693239778,-23.52125777719052,0.0],[-45.834431552653577,-23.52142082668259,0.0],[-45.834501853206142,-23.52149150498904,0.0],[-45.834579052315277,-23.521595443704989,0.0],[-45.834584649056019,-23.52171049790763,0.0],[-45.834663871984667,-23.521792417139672,0.0],[-45.834714266790463,-23.52186326772588,0.0],[-45.834723494907998,-23.521998556766292,0.0],[-45.834548187944037,-23.52229101021722,0.0],[-45.834281528060828,-23.522761298176661,0.0]]]}}
]
}
