{
"type": "FeatureCollection",
"name": "Paulo Alves - Salesopolis - Licitação Pref",
"crs": { "type": "name", "properties": { "name": "urn:ogc:def:crs:OGC:1.3:CRS84" } },
"xy_coordinate_resolution": 1e-15,
"features": [
{"type":"Feature","properties":{"Área (ha)":0.43,"Nome do Projeto":"Paulo Alves - Licitação","Propriedade":"-","Tipo":"Restauração Ecológica","Ano de Implantação":"2016","Metodologia de Restauração":null,"Monitoramento":"-","Município":"Salesópolis","UGRHI":"06 - Alto Tietê","Região Hidrográfica":"Paraná","Status do Projeto":"Finalizado","Fotos do Projeto":null},"geometry":{"type":"Polygon","coordinates":[[[-45.782667147619463,-23.59512791138437,0.0],[-45.782645976607832,-23.595126323536469,0.0],[-45.78256578052563,-23.59505399067546,0.0],[-45.782557289139881,-23.595025229643159,0.0],[-45.782610626123819,-23.59489347353912,0.0],[-45.782611715501858,-23.59485812774502,0.0],[-45.782609779491629,-23.594676218894811,0.0],[-45.782516196364561,-23.594274866757139,0.0],[-45.782460072522838,-23.59414422697105,0.0],[-45.782460763401581,-23.594094217376941,0.0],[-45.782446052317233,-23.593998377714438,0.0],[-45.782491935615411,-23.593795167998032,0.0],[-45.782524401628621,-23.59378651265714,0.0],[-45.782557782829251,-23.593830744455719,0.0],[-45.782596763261381,-23.593878004524399,0.0],[-45.782682766578361,-23.593831770466331,0.0],[-45.782710912505962,-23.593852336662799,0.0],[-45.78271626718886,-23.593903310306199,0.0],[-45.782681965722581,-23.59402176085926,0.0],[-45.782683266200692,-23.594079478400801,0.0],[-45.78269955253969,-23.594106265717748,0.0],[-45.78278098329536,-23.594253243514931,0.0],[-45.782785625373101,-23.594306549905969,0.0],[-45.782768673688331,-23.594340243185268,0.0],[-45.782680871718043,-23.594464563929382,0.0],[-45.782687325157553,-23.59450015112272,0.0],[-45.78270897915769,-23.594497056849679,0.0],[-45.782837387153563,-23.594447878908269,0.0],[-45.782856876271573,-23.594461393599961,0.0],[-45.782899752433579,-23.594546416325759,0.0],[-45.782915331590708,-23.594563931576321,0.0],[-45.782995953965688,-23.594661438287979,0.0],[-45.783013716328128,-23.59467974579055,0.0],[-45.783019519498083,-23.5947216638172,0.0],[-45.783046720401259,-23.594938693403709,0.0],[-45.783013247865398,-23.59496539230156,0.0],[-45.782964788147069,-23.59501219226329,0.0],[-45.782928266309973,-23.595080367943918,0.0],[-45.782909907681898,-23.595092896685841,0.0],[-45.782818904180111,-23.595025062590292,0.0],[-45.782720264959792,-23.595028270723841,0.0],[-45.782703138968188,-23.59504420876916,0.0],[-45.782667147619463,-23.59512791138437,0.0]]]}}
]
}
