{
"type": "FeatureCollection",
"name": "Pontal SOS - 2019 - Piracaia",
"crs": { "type": "name", "properties": { "name": "urn:ogc:def:crs:OGC:1.3:CRS84" } },
"xy_coordinate_resolution": 1e-15,
"features": [
{"type":"Feature","properties":{"Área (ha)":9.59,"Nome do Projeto":"Pontal SOS","Propriedade":"-","Tipo":"Recuperação Ambiental","Ano de Implantação":"2019","Metodologia de Restauração":null,"Monitoramento":"-","Município":"Piracaia","UGRHI":"06 - Alto Tietê","Região Hidrográfica":"Paraná","Status do Projeto":null,"Fotos do Projeto":null},"geometry":{"type":"Polygon","coordinates":[[[-46.410972617256562,-23.002614841288882,0.0],[-46.410411565984077,-23.00296145371869,0.0],[-46.410242526611839,-23.00302804984177,0.0],[-46.409823069890543,-23.003065200240702,0.0],[-46.409657610373827,-23.002960886442189,0.0],[-46.409478173668759,-23.002662162854421,0.0],[-46.409299394033482,-23.002228355576129,0.0],[-46.408868387131918,-23.001655328865841,0.0],[-46.408502136634077,-23.001444131643339,0.0],[-46.407922725374192,-23.001109451314939,0.0],[-46.407640857623541,-23.000902777570019,0.0],[-46.407087644852538,-23.000499535519481,0.0],[-46.406542676624547,-23.000024277041181,0.0],[-46.406627008143147,-22.999905081881661,0.0],[-46.40700627073889,-22.999651225116679,0.0],[-46.407033858445573,-22.9996783762011,0.0],[-46.406882686423387,-23.000163643368161,0.0],[-46.407178637972592,-23.000321200070189,0.0],[-46.407355511230698,-23.000092498804829,0.0],[-46.407756056389438,-23.000414121326461,0.0],[-46.408018021168047,-23.0005084965081,0.0],[-46.408375366724513,-23.00055660289657,0.0],[-46.408700373919302,-23.000566702065441,0.0],[-46.408770345556619,-23.00068730681005,0.0],[-46.408869593597622,-23.000726669530689,0.0],[-46.40894806033571,-23.000760938515491,0.0],[-46.409135176983767,-23.00041200342401,0.0],[-46.409527885131617,-23.000248441572019,0.0],[-46.409965846278347,-22.999933505261229,0.0],[-46.41049823741551,-22.99990295553253,0.0],[-46.410871689151648,-23.000184659370621,0.0],[-46.410550612714367,-23.00063397684357,0.0],[-46.410956633295221,-23.000807683097609,0.0],[-46.41125956904397,-23.000523033605599,0.0],[-46.411711707141812,-23.001039987808589,0.0],[-46.411309924879653,-23.001390083908301,0.0],[-46.41162216082251,-23.0016158414122,0.0],[-46.411997835873343,-23.001369446407821,0.0],[-46.412499990451018,-23.002152958797481,0.0],[-46.411216537968031,-23.0028608966897,0.0],[-46.410972617256562,-23.002614841288882,0.0]]]}},
{"type":"Feature","properties":{"Área (ha)":1.594,"Nome do Projeto":"Pontal SOS","Propriedade":"-","Tipo":"Recuperação Ambiental","Ano de Implantação":"2019","Metodologia de Restauração":null,"Monitoramento":"-","Município":"Piracaia","UGRHI":"06 - Alto Tietê","Região Hidrográfica":"Paraná","Status do Projeto":null,"Fotos do Projeto":null},"geometry":{"type":"Polygon","coordinates":[[[-46.406794978984379,-23.000320039651971,0.0],[-46.407450314084493,-23.000858768613149,0.0],[-46.407442966926752,-23.000856740868269,0.0],[-46.408272866583879,-23.00142508125462,0.0],[-46.407793782335872,-23.001769323233379,0.0],[-46.407426840529943,-23.001847262749539,0.0],[-46.407053910126791,-23.001547802028838,0.0],[-46.40667925209469,-23.000810535194091,0.0],[-46.406728717264471,-23.00059021548936,0.0],[-46.406566507912068,-23.000510320378829,0.0],[-46.40635860574227,-23.00064525213681,0.0],[-46.406204533350227,-23.000580197985698,0.0],[-46.406150900132857,-23.00041647936672,0.0],[-46.406238551267982,-23.000020933627081,0.0],[-46.406362430879113,-22.999924255155921,0.0],[-46.406794978984379,-23.000320039651971,0.0]]]}},
{"type":"Feature","properties":{"Área (ha)":1.631,"Nome do Projeto":"Pontal SOS","Propriedade":"-","Tipo":"Recuperação Ambiental","Ano de Implantação":"2019","Metodologia de Restauração":null,"Monitoramento":"-","Município":"Piracaia","UGRHI":"06 - Alto Tietê","Região Hidrográfica":"Paraná","Status do Projeto":null,"Fotos do Projeto":null},"geometry":{"type":"Polygon","coordinates":[[[-46.408787847309313,-23.001650676644569,0.0],[-46.409068754722007,-23.00204038721953,0.0],[-46.409339554749117,-23.00261648670115,0.0],[-46.408885861178312,-23.00296628946078,0.0],[-46.408481582734652,-23.0030480619922,0.0],[-46.408418501270269,-23.00280765976952,0.0],[-46.408325477952999,-23.00263178740607,0.0],[-46.407796086365217,-23.00214009971803,0.0],[-46.407790782232432,-23.00207043780426,0.0],[-46.407836673575197,-23.001971145268001,0.0],[-46.407855628042732,-23.001803607149149,0.0],[-46.40833718398742,-23.001445321063411,0.0],[-46.408787847309313,-23.001650676644569,0.0]]]}},
{"type":"Feature","properties":{"Área (ha)":1.321,"Nome do Projeto":"Pontal SOS","Propriedade":"-","Tipo":"Recuperação Ambiental","Ano de Implantação":"2019","Metodologia de Restauração":null,"Monitoramento":"-","Município":"Piracaia","UGRHI":"06 - Alto Tietê","Região Hidrográfica":"Paraná","Status do Projeto":null,"Fotos do Projeto":null},"geometry":{"type":"Polygon","coordinates":[[[-46.409443179619139,-23.00285019842352,0.0],[-46.409546764836222,-23.002984067547189,0.0],[-46.409661630405218,-23.00310642832272,0.0],[-46.409843998370611,-23.003142058537009,0.0],[-46.409971999579099,-23.003145657691839,0.0],[-46.410094246433452,-23.003270180260412,0.0],[-46.410210234934688,-23.00334289059164,0.0],[-46.409835867832427,-23.003506390935861,0.0],[-46.408553696213211,-23.004227288572181,0.0],[-46.408550651788119,-23.003423534803972,0.0],[-46.408791852638281,-23.003276058575821,0.0],[-46.408923226562088,-23.003113503942998,0.0],[-46.408960453468048,-23.002948075205239,0.0],[-46.409359341529019,-23.00265298603076,0.0],[-46.409443179619139,-23.00285019842352,0.0]]]}},
{"type":"Feature","properties":{"Área (ha)":2.117,"Nome do Projeto":"Pontal SOS","Propriedade":"-","Tipo":"Recuperação Ambiental","Ano de Implantação":"2019","Metodologia de Restauração":null,"Monitoramento":"-","Município":"Piracaia","UGRHI":"06 - Alto Tietê","Região Hidrográfica":"Paraná","Status do Projeto":null,"Fotos do Projeto":null},"geometry":{"type":"Polygon","coordinates":[[[-46.406030533171567,-22.999706874699591,0.0],[-46.405874206528289,-23.00041869603303,0.0],[-46.405592123121792,-23.000103035218551,0.0],[-46.405056202580219,-22.99916819403693,0.0],[-46.40525393417807,-22.998951996191341,0.0],[-46.405232766389233,-22.998886645726,0.0],[-46.404868355989457,-22.998785249117869,0.0],[-46.404514883292897,-22.9975346275417,0.0],[-46.404979727122068,-22.997456620687242,0.0],[-46.405439883333088,-22.99799812716298,0.0],[-46.405733143099958,-22.998802739642549,0.0],[-46.40590095138311,-22.999400076074298,0.0],[-46.406030533171567,-22.999706874699591,0.0]]]}},
{"type":"Feature","properties":{"Área (ha)":1.474,"Nome do Projeto":"Pontal SOS","Propriedade":"-","Tipo":"Recuperação Ambiental","Ano de Implantação":"2019","Metodologia de Restauração":null,"Monitoramento":"-","Município":"Piracaia","UGRHI":"06 - Alto Tietê","Região Hidrográfica":"Paraná","Status do Projeto":null,"Fotos do Projeto":null},"geometry":{"type":"Polygon","coordinates":[[[-46.410052455496213,-23.001489295510758,0.0],[-46.41036962867922,-23.001640155514121,0.0],[-46.410600807425567,-23.001792317214299,0.0],[-46.410795357346927,-23.002036798356929,0.0],[-46.410796151414743,-23.002253598214551,0.0],[-46.41061368383685,-23.002455373145089,0.0],[-46.410461442472347,-23.002630588841189,0.0],[-46.410374984269737,-23.00274072073503,0.0],[-46.4101207731537,-23.002780293828469,0.0],[-46.409876196207598,-23.0026953686104,0.0],[-46.409806849670197,-23.00264931562106,0.0],[-46.409602584865567,-23.00226742642986,0.0],[-46.40943661354116,-23.002008729095341,0.0],[-46.409361498453528,-23.0018550242429,0.0],[-46.409436227141398,-23.00166851145822,0.0],[-46.409568122763133,-23.00148276805805,0.0],[-46.409905523596173,-23.001416429579709,0.0],[-46.410052455496213,-23.001489295510758,0.0]]]}}
]
}
