{
"type": "FeatureCollection",
"name": "Recanto Sole 2",
"crs": { "type": "name", "properties": { "name": "urn:ogc:def:crs:OGC:1.3:CRS84" } },
"features": [
{"type":"Feature","properties":{"id":null,"Name":"14188","description":null,"timestamp":null,"begin":null,"end":null,"altitudeMode":null,"tessellate":-1,"extrude":0,"visibility":-1,"drawOrder":null,"icon":null},"geometry":{"type":"Polygon","coordinates":[[[-46.212608281708398,-23.003850179635702],[-46.2118922863514,-23.003221884196002],[-46.211998671823501,-23.003127242635401],[-46.212238050047198,-23.003022436518702],[-46.212283459007402,-23.002956022103501],[-46.212380265032998,-23.002872769213099],[-46.212535832158999,-23.002615261265898],[-46.212763489514998,-23.002654179273598],[-46.2129237247457,-23.002584326410599],[-46.213052681757702,-23.002470290278598],[-46.2131796371159,-23.002377094502702],[-46.213213976047399,-23.002311523201499],[-46.213090824007502,-23.002319700227499],[-46.212877569712298,-23.002304716680399],[-46.212467249255198,-23.002457895013901],[-46.212224301734103,-23.002380030454798],[-46.21315778,-23.00110444],[-46.213368062334602,-23.001297670795601],[-46.213294966207798,-23.0015455869747],[-46.213381836264503,-23.0016581089439],[-46.213440971528399,-23.0017120144744],[-46.213558875421299,-23.0017669922306],[-46.213661012963499,-23.001872378161298],[-46.213782716110501,-23.002021787203201],[-46.2137557767036,-23.0020864446122],[-46.2134086545909,-23.002255793604999],[-46.213366130924499,-23.0023065959783],[-46.213364331666398,-23.002367576519301],[-46.213429712567603,-23.002397295906],[-46.213765239825001,-23.002391823153602],[-46.214010643353703,-23.002362215218099],[-46.214085923404298,-23.002359207806801],[-46.214226280037998,-23.002438746931698],[-46.2145262844139,-23.002802831978698],[-46.214350787949201,-23.002887901870999],[-46.214241931883102,-23.0029838366261],[-46.214183236236799,-23.002991016127702],[-46.214001030260199,-23.0029922995592],[-46.213754950718503,-23.0030591051115],[-46.213510428191299,-23.0031405924606],[-46.213367049778,-23.0032528917272],[-46.2131889131538,-23.003294959399099],[-46.213047461889602,-23.003373840719],[-46.212957955705299,-23.0034872595315],[-46.212783607953803,-23.003659973395699],[-46.212754111320102,-23.0037519061406],[-46.212608281708398,-23.003850179635702]]]}},
{"type":"Feature","properties":{"id":null,"Name":"14189","description":null,"timestamp":null,"begin":null,"end":null,"altitudeMode":null,"tessellate":-1,"extrude":0,"visibility":-1,"drawOrder":null,"icon":null},"geometry":{"type":"Polygon","coordinates":[[[-46.21295306,-23.00415361],[-46.212801448173501,-23.0040195924519],[-46.212912138854598,-23.003813050285501],[-46.2132328199109,-23.0036030877468],[-46.2134044151056,-23.003544530281701],[-46.2135282279786,-23.003470896008199],[-46.2136188882764,-23.003462997907999],[-46.213670132228003,-23.003548492807099],[-46.213749640215603,-23.003577715208699],[-46.2138837097256,-23.003393678023201],[-46.213989199497398,-23.003425524284602],[-46.214065739281203,-23.003288890665701],[-46.214215014370097,-23.003377795751302],[-46.2142500832026,-23.003376768728099],[-46.214307208326403,-23.003353017861901],[-46.214352635992697,-23.0032519015828],[-46.214245866043299,-23.003160329928399],[-46.214514398749998,-23.0030409161247],[-46.214609541990903,-23.0030888738955],[-46.214696361895598,-23.003036281026599],[-46.214861853118897,-23.002979698042399],[-46.215670061681202,-23.0037014703144],[-46.215522950095597,-23.003843493489999],[-46.215702062126098,-23.004018987095598],[-46.215942687379098,-23.004196289913601],[-46.215523030919002,-23.004647993368899],[-46.214826478250302,-23.004498101712901],[-46.214972946879001,-23.0043096719141],[-46.215011223287199,-23.004249980051402],[-46.215010235928901,-23.004195400047699],[-46.214891413973298,-23.004038196580101],[-46.214844839588302,-23.003909160161001],[-46.214698942569797,-23.003925616872099],[-46.214635691176198,-23.003984923325302],[-46.214572126580101,-23.004004483214199],[-46.214510591166203,-23.003905454144299],[-46.214396390966499,-23.0039118947726],[-46.2140931317415,-23.0042223901889],[-46.2142217857823,-23.004348393777398],[-46.2133643886025,-23.004180117153101],[-46.21295306,-23.00415361]]]}},
{"type":"Feature","properties":{"id":null,"Name":"14190","description":null,"timestamp":null,"begin":null,"end":null,"altitudeMode":null,"tessellate":-1,"extrude":0,"visibility":-1,"drawOrder":null,"icon":null},"geometry":{"type":"Polygon","coordinates":[[[-46.21594861,-23.00395056],[-46.215857126005197,-23.0038687259851],[-46.215943705472903,-23.003780818818601],[-46.215957720895801,-23.003748462745399],[-46.216108540128097,-23.002871467363398],[-46.2161359936891,-23.002891019100499],[-46.216165375554702,-23.002903687244299],[-46.2162123770756,-23.002897924642401],[-46.216251258272401,-23.002876965334199],[-46.216281366089603,-23.0028145230185],[-46.216295233386802,-23.002769454281999],[-46.216351806294298,-23.002479467335],[-46.216333570695198,-23.0023447990304],[-46.216341287930398,-23.002330834506001],[-46.216633060332398,-23.002088913359302],[-46.216704872986398,-23.002025099297299],[-46.217048502310497,-23.002098803235999],[-46.217295670729499,-23.0021111020218],[-46.21644389,-23.00329333],[-46.21594861,-23.00395056]]]}}
]
}
