{
"type": "FeatureCollection",
"name": "Recanto Sole",
"crs": { "type": "name", "properties": { "name": "urn:ogc:def:crs:OGC:1.3:CRS84" } },
"features": [
{"type":"Feature","properties":{"id":null,"Name":"14192","description":null,"timestamp":null,"begin":null,"end":null,"altitudeMode":null,"tessellate":-1,"extrude":0,"visibility":-1,"drawOrder":null,"icon":null,"id_2":null,"Name_2":null,"description_2":null,"timestamp_2":null,"begin_2":null,"end_2":null,"altitudeMode_2":null,"tessellate_2":null,"extrude_2":null,"visibility_2":null,"drawOrder_2":null,"icon_2":null},"geometry":{"type":"MultiPolygon","coordinates":[[[[-46.215665443540701,-23.006966389453499],[-46.215867382334999,-23.006906009670701],[-46.216034798800898,-23.0069098945315],[-46.216178011169198,-23.007002233494902],[-46.216472645638802,-23.006859007209101],[-46.216620892143098,-23.006878636155999],[-46.216808977947998,-23.006862924816499],[-46.216861176581403,-23.006902069135698],[-46.21754444,-23.00533444],[-46.217282820526201,-23.005071923913398],[-46.216110376274301,-23.004756403747798],[-46.215523030919002,-23.004647993368899],[-46.215942687379098,-23.004196289913601],[-46.215702062126098,-23.004018987095598],[-46.215522950095597,-23.003843493489999],[-46.215670061681202,-23.0037014703144],[-46.214861853118897,-23.002979698042399],[-46.214696361895598,-23.003036281026599],[-46.214609541990903,-23.0030888738955],[-46.214514398749998,-23.0030409161247],[-46.214245866043299,-23.003160329928399],[-46.214352635992697,-23.0032519015828],[-46.214307208326403,-23.003353017861901],[-46.2142500832026,-23.003376768728099],[-46.214215014370097,-23.003377795751302],[-46.214065739281203,-23.003288890665701],[-46.213989199497398,-23.003425524284602],[-46.2138837097256,-23.003393678023201],[-46.213749640215603,-23.003577715208699],[-46.213670132228003,-23.003548492807099],[-46.2136188882764,-23.003462997907999],[-46.2135282279786,-23.003470896008199],[-46.2134044151056,-23.003544530281701],[-46.2132328199109,-23.0036030877468],[-46.212912138854598,-23.003813050285501],[-46.212801448173501,-23.0040195924519],[-46.21295306,-23.00415361],[-46.21334944,-23.00440806],[-46.21384222,-23.00485778],[-46.21489333,-23.00609444],[-46.215665443540701,-23.006966389453499]],[[-46.2140931317415,-23.0042223901889],[-46.214396390966499,-23.0039118947726],[-46.214510591166203,-23.003905454144299],[-46.214572126580101,-23.004004483214199],[-46.214635691176198,-23.003984923325302],[-46.214698942569797,-23.003925616872099],[-46.214844839588302,-23.003909160161001],[-46.214891413973298,-23.004038196580101],[-46.215010235928901,-23.004195400047699],[-46.215011223287199,-23.004249980051402],[-46.214972946879001,-23.0043096719141],[-46.214826478250302,-23.004498101712901],[-46.214511728280399,-23.004436300471301],[-46.2142217857823,-23.004348393777398],[-46.2140931317415,-23.0042223901889]]],[[[-46.217048502310497,-23.002098803235999],[-46.216704872986398,-23.002025099297299],[-46.216633060332398,-23.002088913359302],[-46.216341287930398,-23.002330834506001],[-46.216333570695198,-23.0023447990304],[-46.216351806294298,-23.002479467335],[-46.216295233386802,-23.002769454281999],[-46.216281366089603,-23.0028145230185],[-46.216251258272401,-23.002876965334199],[-46.2162123770756,-23.002897924642401],[-46.216165375554702,-23.002903687244299],[-46.2161359936891,-23.002891019100499],[-46.216108540128097,-23.002871467363398],[-46.215957720895801,-23.003748462745399],[-46.215943705472903,-23.003780818818601],[-46.215857126005197,-23.0038687259851],[-46.21594861,-23.00395056],[-46.21644389,-23.00329333],[-46.217295670729499,-23.0021111020218],[-46.217048502310497,-23.002098803235999]]],[[[-46.216074813773503,-23.002838717603002],[-46.216083202001698,-23.0028251054548],[-46.2160889187194,-23.002822076112299],[-46.2161019029746,-23.002821942919901],[-46.216155241496899,-23.002859538285101],[-46.216171610373003,-23.002867123862],[-46.216202720853097,-23.002862742104199],[-46.216221199157502,-23.002852520064199],[-46.216244187355599,-23.0028034785873],[-46.2162574373138,-23.002760416242801],[-46.216312808713397,-23.002476578715001],[-46.216294093958197,-23.002343856672901],[-46.216296075933599,-23.002333326073501],[-46.216312601621802,-23.002306108928501],[-46.216672726812902,-23.002004707713201],[-46.216742476056602,-23.001919647671698],[-46.216895635365098,-23.001703508519402],[-46.216974216755801,-23.001602392775101],[-46.217036198211801,-23.001532170599798],[-46.217148923426301,-23.001434488428199],[-46.217030092116801,-23.001396794508899],[-46.216863397166797,-23.0014031882897],[-46.216762179429999,-23.001456263742099],[-46.216685954076603,-23.001508764542901],[-46.216572437829399,-23.001515375735401],[-46.216532399573303,-23.001574630363301],[-46.216434806317899,-23.001632251253898],[-46.2162302083903,-23.001677615808099],[-46.216087659587799,-23.001719661108599],[-46.2159910872087,-23.0017768663397],[-46.215920623861003,-23.001872010211901],[-46.215819191584401,-23.0020478564713],[-46.2156564907527,-23.0020877004097],[-46.215471907249501,-23.0021260823912],[-46.215317794190703,-23.0022335619961],[-46.215270837599903,-23.002315603122199],[-46.215142613117202,-23.002510309611001],[-46.215074198493703,-23.002585667215499],[-46.214973594425999,-23.002676323851801],[-46.214879921257399,-23.0028123850866],[-46.214947941467102,-23.002931783714999],[-46.214915186783301,-23.003026084884901],[-46.215830113654398,-23.0038443859792],[-46.215912206898103,-23.003759211950399],[-46.215919485916302,-23.003741014411101],[-46.216074813773503,-23.002838717603002]]],[[[-46.212957955705299,-23.0034872595315],[-46.213047461889602,-23.003373840719],[-46.2131889131538,-23.003294959399099],[-46.213367049778,-23.0032528917272],[-46.213510428191299,-23.0031405924606],[-46.213754950718503,-23.0030591051115],[-46.214001030260199,-23.0029922995592],[-46.214183236236799,-23.002991016127702],[-46.214241931883102,-23.0029838366261],[-46.214350787949201,-23.002887901870999],[-46.2145262844139,-23.002802831978698],[-46.214226280037998,-23.002438746931698],[-46.214085923404298,-23.002359207806801],[-46.214010643353703,-23.002362215218099],[-46.213765239825001,-23.002391823153602],[-46.213429712567603,-23.002397295906],[-46.213364331666398,-23.002367576519301],[-46.213366130924499,-23.0023065959783],[-46.2134086545909,-23.002255793604999],[-46.2137557767036,-23.0020864446122],[-46.213782716110501,-23.002021787203201],[-46.213661012963499,-23.001872378161298],[-46.213558875421299,-23.0017669922306],[-46.213440971528399,-23.0017120144744],[-46.213381836264503,-23.0016581089439],[-46.213294966207798,-23.0015455869747],[-46.213368062334602,-23.001297670795601],[-46.21315778,-23.00110444],[-46.212224301734103,-23.002380030454798],[-46.212467249255198,-23.002457895013901],[-46.212877569712298,-23.002304716680399],[-46.213090824007502,-23.002319700227499],[-46.213213976047399,-23.002311523201499],[-46.2131796371159,-23.002377094502702],[-46.213052681757702,-23.002470290278598],[-46.2129237247457,-23.002584326410599],[-46.212763489514998,-23.002654179273598],[-46.212535832158999,-23.002615261265898],[-46.212380265032998,-23.002872769213099],[-46.212283459007402,-23.002956022103501],[-46.212238050047198,-23.003022436518702],[-46.211998671823501,-23.003127242635401],[-46.2118922863514,-23.003221884196002],[-46.212608281708398,-23.003850179635702],[-46.212754111320102,-23.0037519061406],[-46.212783607953803,-23.003659973395699],[-46.212957955705299,-23.0034872595315]]],[[[-46.21815,-23.00006],[-46.21825306,-22.99996278],[-46.21830861,-22.99987194],[-46.21840972,-22.99979417],[-46.21883444,-22.99973722],[-46.2190325,-22.99970028],[-46.21914583,-22.99968694],[-46.21931333,-22.99959889],[-46.21956583,-22.99972139],[-46.21942056,-22.99928139],[-46.21938778,-22.99910833],[-46.219319148779398,-22.998904989847102],[-46.2192496899318,-22.998967895917101],[-46.219103060943802,-22.999092856487],[-46.219042467052397,-22.999137030020201],[-46.2189754417495,-22.999173431695201],[-46.218873027226401,-22.999188703404698],[-46.218766181143799,-22.999228214197],[-46.2186011768597,-22.999331768615001],[-46.218521417335197,-22.999391728691499],[-46.2184042022147,-22.999425523915999],[-46.218174813878797,-22.999422057091099],[-46.218033177171797,-22.999397565354901],[-46.2179815178323,-22.999407518072701],[-46.217943091212,-22.999457921827901],[-46.2179170646492,-22.999528952682201],[-46.217909886200097,-22.999617136543598],[-46.2178931298848,-22.999685895256299],[-46.218131565862898,-22.9998221019003],[-46.218051531503498,-22.999903632137901],[-46.217998939678601,-22.999947295724201],[-46.2176588593886,-23.000290130706301],[-46.217609268849699,-23.000351126922201],[-46.21779139,-23.00054111],[-46.21789833,-23.00039],[-46.21800056,-23.00027722],[-46.21815,-23.00006]]],[[[-46.217909579602299,-22.999439226741199],[-46.2179593076239,-22.9993761818534],[-46.2180366126724,-22.999361400704601],[-46.218177116050001,-22.9993859602397],[-46.218401624255499,-22.999389353313202],[-46.218505872973502,-22.999358404476201],[-46.2185784694625,-22.999302373799001],[-46.218749743499799,-22.999195390377899],[-46.218865081861701,-22.999153269615199],[-46.218958972258697,-22.999140491633899],[-46.219021549831503,-22.999106505539299],[-46.219078271099697,-22.9990649473853],[-46.219222513575502,-22.9989419677553],[-46.219296231169601,-22.998874585273601],[-46.219307010384,-22.998869580403799],[-46.219210048851998,-22.998560138228701],[-46.219083255967,-22.9985724328914],[-46.218999940327102,-22.998483037099898],[-46.218851331800998,-22.9984858090111],[-46.218782170780202,-22.998506125309699],[-46.218620879982701,-22.998577286042401],[-46.218493966302098,-22.998710657591001],[-46.218361306745798,-22.9988713981027],[-46.218230971539001,-22.998971727480299],[-46.2180973537046,-22.998956173572299],[-46.217858567129298,-22.998744762424099],[-46.217791773610401,-22.9986378826171],[-46.217739470358303,-22.998533163942302],[-46.217776709284699,-22.998363748021301],[-46.218094003474803,-22.998189758604099],[-46.218174132155802,-22.997983197712699],[-46.21807167,-22.99801056],[-46.21751417,-22.99785306],[-46.217453599273497,-22.997823267980198],[-46.217347258261498,-22.997966968765301],[-46.217124496268397,-22.9984033068028],[-46.217042055010999,-22.998665515918098],[-46.216985621122497,-22.998984540400599],[-46.216965401242199,-22.9990427483107],[-46.217856470590597,-22.999672167910301],[-46.217871498788199,-22.9996105005125],[-46.217879308568797,-22.999519532408101],[-46.217909579602299,-22.999439226741199]]],[[[-46.217088553784698,-22.998389164514101],[-46.217312741898198,-22.997950033272101],[-46.217424275705497,-22.997809400677099],[-46.21735139,-22.99777389],[-46.21731361,-22.99777278],[-46.21692222,-22.99789861],[-46.21637583,-22.99808472],[-46.21622389,-22.9981575],[-46.215780891950899,-22.998482867696499],[-46.215837746,-22.998510184999901],[-46.215843936999903,-22.998527566999901],[-46.215875008,-22.998550507],[-46.216064283,-22.998639152],[-46.216338787,-22.998774655],[-46.21654117,-22.99886328],[-46.216926497304897,-22.999024378659598],[-46.2169475231346,-22.998976369129402],[-46.217003735346601,-22.9986585983056],[-46.217088553784698,-22.998389164514101]]]]}}
]
}
