{
"type": "FeatureCollection",
"name": "Reserva Mantiqueira",
"crs": { "type": "name", "properties": { "name": "urn:ogc:def:crs:OGC:1.3:CRS84" } },
"xy_coordinate_resolution": 1e-15,
"features": [
{"type":"Feature","properties":{"Área (ha)":7.7121703132121899,"Nome do Projeto":"Reserva Mantiqueira","Propriedade":"-","Tipo":"Programa Nascentes","Ano de Implantação":"2021","Metodologia de Restauração":null,"Monitoramento":"5 anos","Município":"Joanópolis","UGRHI":"05 - Piracicaba, Capivari e Jundiaí","Região Hidrográfica":"Paraná","Status do Projeto":"Ativo","Fotos do Projeto":null},"geometry":{"type":"MultiPolygon","coordinates":[[[[-46.127382388420202,-22.9679988806041],[-46.127357615960904,-22.968100034812998],[-46.127184452569097,-22.968210145468799],[-46.127175099930099,-22.968223862672598],[-46.127134468768297,-22.968228139636999],[-46.1270784869115,-22.968292118901999],[-46.1271024791358,-22.968318776929099],[-46.127051828884397,-22.968369427180601],[-46.126979852211299,-22.968430740642901],[-46.126982518014003,-22.968500051513299],[-46.126990696889401,-22.9685763876838],[-46.126949861930797,-22.9686659977319],[-46.126635297211202,-22.968889925159399],[-46.126470017443303,-22.969145842219401],[-46.126352722124103,-22.9694337489119],[-46.126251421621198,-22.969540381020199],[-46.126146788864901,-22.969762309095699],[-46.126125795668599,-22.969992401191899],[-46.126128794696598,-22.970047549985399],[-46.126022162588299,-22.9702574819487],[-46.126030159996397,-22.970385440478701],[-46.125962182027401,-22.970702004550301],[-46.125952185267202,-22.970936595188601],[-46.126038157404601,-22.971003906707001],[-46.126336727307901,-22.971025233128699],[-46.126486012259498,-22.9711158704208],[-46.126704608081603,-22.971094543999101],[-46.126773918951997,-22.970977248679901],[-46.126923203903701,-22.970934595836599],[-46.127184452569097,-22.9708546217554],[-46.127674960267399,-22.970678678776601],[-46.127850903246198,-22.970390772084102],[-46.128048172646601,-22.970129523418699],[-46.128229447230702,-22.969953580439999],[-46.128243842565404,-22.969895999101499],[-46.128206454682299,-22.969858611218498],[-46.128099822574001,-22.9698106267697],[-46.128121148995703,-22.969789300348101],[-46.1282171178932,-22.969802629361599],[-46.128262633445097,-22.9698208355824],[-46.128266768468698,-22.969804295488299],[-46.1283360793391,-22.969681668563702],[-46.128389395393199,-22.9696390157204],[-46.128581333188201,-22.969644347325801],[-46.128661307269503,-22.969660342142099],[-46.128885234697002,-22.969500393979601],[-46.129002530016102,-22.9694044250821],[-46.129173141389501,-22.969388430265798],[-46.129237120654501,-22.969308456184599],[-46.129231789049101,-22.969217818892499],[-46.129263778681597,-22.969153839627499],[-46.129301099919502,-22.9691325132058],[-46.129338421157399,-22.969121849994998],[-46.129397068816999,-22.9691325132058],[-46.129445053265698,-22.9691645028383],[-46.129535690557802,-22.969169834443701],[-46.129594338217402,-22.9691325132058],[-46.129647654271501,-22.9690738655462],[-46.129594338217402,-22.968993891465001],[-46.129442063493897,-22.968971199745098],[-46.129409064929099,-22.968952571523001],[-46.1293437527628,-22.968908585778301],[-46.129219792936901,-22.968884593554002],[-46.129171808488103,-22.968861934230901],[-46.129153147869197,-22.968843273611999],[-46.129135820151603,-22.968820614289001],[-46.129141151756997,-22.968772629840199],[-46.129134487250198,-22.9687219795887],[-46.129143817559701,-22.968688657054901],[-46.129197679368701,-22.9686108869838],[-46.129218460035503,-22.968611348776399],[-46.129261112878801,-22.968592688157401],[-46.129321093439799,-22.968559365623499],[-46.129391262269699,-22.968552348740602],[-46.129418395238602,-22.968583357847901],[-46.1295610156835,-22.968626010691299],[-46.129589006612001,-22.968626010691299],[-46.1296369910607,-22.968764632432102],[-46.129658317482402,-22.968913917383802],[-46.1297009703257,-22.968999223070401],[-46.129882244909901,-22.9691645028383],[-46.1299302293586,-22.9691111867842],[-46.130090177521097,-22.968764632432102],[-46.130152334324301,-22.9686544949388],[-46.130214137346996,-22.968598019762801],[-46.130238129571403,-22.9685433708073],[-46.130284781118803,-22.968482057345],[-46.130326101060803,-22.968403416165099],[-46.130359423594598,-22.9683620962231],[-46.130384748720402,-22.968343435604201],[-46.130376751312198,-22.9683061143663],[-46.130411406747399,-22.968252798312101],[-46.130398077733901,-22.968231471890402],[-46.130348760383797,-22.968203480962],[-46.130311439145899,-22.9681861532444],[-46.130196809629403,-22.9681568294146],[-46.1299302293586,-22.9681568294146],[-46.129611665935002,-22.968151497809199],[-46.129563681486196,-22.968090184346899],[-46.1294783757996,-22.968114176571301],[-46.129427725548098,-22.9681568294146],[-46.129314428933,-22.9681888190471],[-46.129229123246297,-22.968234137693202],[-46.129098498913599,-22.968290119550002],[-46.129013193227003,-22.9683700936313],[-46.128970540383598,-22.968447401909799],[-46.128997198410701,-22.9685167127802],[-46.128983869397203,-22.968596686861499],[-46.1289278875403,-22.968623344888599],[-46.128874571486101,-22.968586023650602],[-46.128823921234698,-22.968623344888599],[-46.128642646650498,-22.9687219795888],[-46.128445377250102,-22.968671329337301],[-46.128325416128199,-22.968098181755],[-46.128245442047003,-22.967874254327501],[-46.128234506454199,-22.967756696704502],[-46.128224115625301,-22.967644995294599],[-46.128192125992797,-22.967490378737502],[-46.128117483517002,-22.967522368369998],[-46.128090825489899,-22.967591679240499],[-46.1280428410412,-22.967639663689202],[-46.127957535354497,-22.967676984927099],[-46.1277442711378,-22.967687648138],[-46.127712281505303,-22.967623668872999],[-46.127525675315802,-22.967650326899999],[-46.127499017288699,-22.967794280246299],[-46.127424374812897,-22.967900912354601],[-46.127424374812897,-22.9679369006912],[-46.127424374812897,-22.9679807243262],[-46.127382388420202,-22.9679988806041]],[[-46.127531322255201,-22.967914773634099],[-46.127525342090401,-22.967869922398201],[-46.127524009189003,-22.967821937949399],[-46.127517344682303,-22.967777952204798],[-46.127558664624303,-22.967701976827598],[-46.127590654256799,-22.967692646518099],[-46.127614646481099,-22.967728634854701],[-46.127627975494697,-22.967743296769601],[-46.127641304508202,-22.9677326335587],[-46.127646636113603,-22.967701976827598],[-46.127693287661003,-22.967675318800499],[-46.127722611490803,-22.967707308432999],[-46.127718612786701,-22.967739298065499],[-46.127679958647498,-22.967789948316899],[-46.127605316171604,-22.967851261779199],[-46.1275666620324,-22.967887250115801],[-46.1275607684519,-22.967908681317599],[-46.127560768452788,-22.967908681317432],[-46.127424374812897,-22.9679369006912],[-46.127531322255201,-22.967914773634099]],[[-46.1274680273321,-22.969005554351899],[-46.127478690543001,-22.968950905396401],[-46.127541336906603,-22.968885593229999],[-46.127595985862101,-22.968856269400199],[-46.127702617970499,-22.9689522382977],[-46.127726610194799,-22.969061536208699],[-46.127655966423099,-22.969114852262901],[-46.127591987158098,-22.969120183868299],[-46.127530673695802,-22.9690921929399],[-46.1274680273321,-22.969005554351899]],[[-46.128061168434698,-22.968513713752198],[-46.128063834237402,-22.9684710609089],[-46.128189126964699,-22.9684390712764],[-46.128210453386401,-22.968497718936],[-46.128175797951201,-22.9686150142551],[-46.128122481897002,-22.968628343268701],[-46.128063834237402,-22.9685270427658],[-46.128061168434698,-22.968513713752198]],[[-46.127823911993701,-22.968361762997802],[-46.127743937912399,-22.968305781141002],[-46.127759932728701,-22.968239136073301],[-46.1278718964424,-22.968193817427199],[-46.127935875707401,-22.968191151624499],[-46.128037176210299,-22.9682044806381],[-46.128069165842902,-22.968287120522],[-46.128149139924098,-22.968329773365301],[-46.128175797951201,-22.9683777578141],[-46.128050505223896,-22.968388421024901],[-46.128007852380598,-22.968423076460098],[-46.127975862748102,-22.9684683951062],[-46.127887891258702,-22.968417744854701],[-46.127823911993701,-22.968361762997802]],[[-46.1275440027093,-22.968103180135198],[-46.127552000117497,-22.968031203462001],[-46.127562663328298,-22.968012542843098],[-46.127642637409501,-22.967977887407901],[-46.127711948280002,-22.9679965480268],[-46.127698619266397,-22.968127172359502],[-46.1276959534637,-22.968183154216401],[-46.1276373058041,-22.968193817427199],[-46.127559997525601,-22.968148498781201],[-46.1275440027093,-22.968103180135198]]]]}}
]
}
