{
"type": "FeatureCollection",
"name": "Reserva AMME",
"crs": { "type": "name", "properties": { "name": "urn:ogc:def:crs:OGC:1.3:CRS84" } },
"features": [
{"type":"Feature","properties":{"id":123,"area_ha":0.247},"geometry":{"type":"MultiPolygon","coordinates":[[[[-45.562523561249442,-23.563601339759089],[-45.562535,-23.563585],[-45.562548,-23.563576],[-45.562517,-23.563551],[-45.562483,-23.563536],[-45.562425987108242,-23.563521614546151],[-45.562403661611498,-23.563549532838294],[-45.562316,-23.563702],[-45.562295,-23.563756],[-45.562271,-23.563802],[-45.562242616612203,-23.563857618923997],[-45.562243,-23.563868],[-45.562214,-23.563866],[-45.562179,-23.563841],[-45.562139,-23.563818],[-45.56209,-23.563806],[-45.562044,-23.563773],[-45.561992,-23.563734],[-45.561936,-23.563703],[-45.561878,-23.563667],[-45.561825,-23.563624],[-45.561781,-23.5636],[-45.561731,-23.56355],[-45.561688,-23.563506],[-45.56164,-23.563456],[-45.561609101157856,-23.563429990047716],[-45.561560994610311,-23.563476785511998],[-45.561700469479099,-23.563643967511496],[-45.561893588379377,-23.563951286796119],[-45.562134987339469,-23.564091424169526],[-45.562226182445997,-23.564052087381501],[-45.5623656573148,-23.564101258364595],[-45.562387536038202,-23.564092363352191],[-45.562464861612305,-23.564021986819895],[-45.562358685028201,-23.563883539359498],[-45.562498715728303,-23.563588128508897],[-45.562523561249442,-23.563601339759089]]]]}},
{"type":"Feature","properties":{"id":134,"area_ha":0.197},"geometry":{"type":"MultiPolygon","coordinates":[[[[-45.560847516977603,-23.564353835624988],[-45.560821,-23.564373],[-45.560766,-23.564377],[-45.560747,-23.564377],[-45.560733,-23.56442],[-45.560697,-23.564475],[-45.560708,-23.564528],[-45.560709,-23.56457],[-45.560713,-23.564592],[-45.560681,-23.564636],[-45.560632566460164,-23.564681001597886],[-45.560592,-23.564712],[-45.560554,-23.564765],[-45.560501,-23.564809],[-45.560426,-23.564853],[-45.560358,-23.564888],[-45.560304,-23.564916],[-45.560283,-23.564902],[-45.56025,-23.564856],[-45.560205,-23.564805],[-45.560187,-23.564783],[-45.560115,-23.564793],[-45.560075,-23.564812],[-45.560057186425304,-23.564824735050792],[-45.560107619179597,-23.5648691088068],[-45.5602216643913,-23.564967804934309],[-45.5602513725837,-23.565027221319099],[-45.560455368838099,-23.564991571488196],[-45.560774236769703,-23.564813322333897],[-45.560893069539297,-23.564732119941407],[-45.560938622100899,-23.56466280082579],[-45.5608811862623,-23.564589520617901],[-45.560897030631601,-23.564381563271194],[-45.560847516977603,-23.564353835624988]]]]}},
{"type":"Feature","properties":{"id":145,"area_ha":4.432},"geometry":{"type":"MultiPolygon","coordinates":[[[[-45.560736549646677,-23.562626826457628],[-45.560661,-23.562399],[-45.560623,-23.562409],[-45.560592,-23.562434],[-45.560545,-23.56247],[-45.560507,-23.562517],[-45.560457,-23.562555],[-45.560396,-23.562597],[-45.560339,-23.562639],[-45.560296,-23.562703],[-45.560245,-23.562719],[-45.560237,-23.562766],[-45.560213,-23.562804],[-45.560193,-23.562821],[-45.560144,-23.56284],[-45.560072,-23.562882],[-45.560023,-23.562925],[-45.559976,-23.562966],[-45.559911,-23.563032],[-45.559877,-23.563095],[-45.559804,-23.563116],[-45.559748,-23.563129],[-45.559646,-23.563129],[-45.559583,-23.563121],[-45.559527,-23.563104],[-45.559414,-23.563047],[-45.559339,-23.563022],[-45.559265,-23.56301],[-45.559209,-23.563004],[-45.559205,-23.562953],[-45.559214,-23.56291],[-45.55926,-23.562865],[-45.559319,-23.562816],[-45.559381,-23.562803],[-45.559445,-23.562801],[-45.559537782612715,-23.562820548308135],[-45.559720238323898,-23.562850693164766],[-45.560026446604411,-23.562812615451126],[-45.560237460600824,-23.562565110312477],[-45.560181732280334,-23.562462181492801],[-45.560075630317854,-23.562360442601673],[-45.559952671034232,-23.562246209460763],[-45.559948,-23.562211],[-45.559965,-23.562175],[-45.559971,-23.562128],[-45.559997,-23.562057],[-45.560089,-23.562109],[-45.56014,-23.562109],[-45.560206,-23.562114],[-45.56026,-23.562119],[-45.560323,-23.562137],[-45.560392,-23.562134],[-45.560459,-23.562153],[-45.560497,-23.562167],[-45.560531,-23.562188],[-45.56058,-23.562217],[-45.560616,-23.562248],[-45.560714,-23.562322],[-45.560709,-23.562398],[-45.560731,-23.562437],[-45.560736,-23.562476],[-45.560744,-23.562553],[-45.560736977283938,-23.562626813619996],[-45.5608079060544,-23.562629770193606],[-45.560912875000803,-23.562819902624799],[-45.560950755639197,-23.562850212433496],[-45.561009921762597,-23.5628912022866],[-45.561322848055802,-23.562724836409195],[-45.561457525194598,-23.562649575655197],[-45.561582299602598,-23.562453501585392],[-45.561720937833698,-23.562215836046288],[-45.561990292111403,-23.562051450715099],[-45.562012078119103,-23.561879143199299],[-45.561827887326302,-23.561898948660904],[-45.561746684933802,-23.561956384499496],[-45.561623891071903,-23.561974209414892],[-45.561495155571599,-23.561924695761],[-45.561404050448303,-23.561950442861001],[-45.561207976378498,-23.561926676307095],[-45.561162423816903,-23.561910831937801],[-45.561027746678107,-23.561932617945601],[-45.560912875000803,-23.561855376645401],[-45.5607633437658,-23.561949452587896],[-45.560710859292598,-23.5618543863723],[-45.560737596665803,-23.561769222887499],[-45.560350399891703,-23.561820717087599],[-45.5597925470977,-23.561767311174705],[-45.559478959581703,-23.561732582783598],[-45.559278924419601,-23.561727631418101],[-45.559196,-23.561748],[-45.5590414283146,-23.561803472274448],[-45.558958,-23.561825],[-45.558883,-23.561831],[-45.558803993339453,-23.561859086038755],[-45.558752429768901,-23.561868605467165],[-45.558607,-23.561859],[-45.5584616297145,-23.561859228529201],[-45.558248008842803,-23.5620029371177],[-45.558116343824302,-23.562219797138695],[-45.558023258154797,-23.562519849881696],[-45.557872736646701,-23.562836737267201],[-45.557845264929703,-23.562913658164302],[-45.557722215138703,-23.563321971076189],[-45.557781631523397,-23.563327912714602],[-45.557793514800409,-23.563306126706902],[-45.558019297062501,-23.563325932168503],[-45.558100499455001,-23.563391290191699],[-45.558241118232303,-23.563353659814698],[-45.558445114486702,-23.5632744379683],[-45.558587713810098,-23.563272457422201],[-45.55870258548741,-23.563310087799202],[-45.558835282079997,-23.563310087799199],[-45.558934309388007,-23.5632387881375],[-45.559090772534503,-23.563185313391202],[-45.559243274588802,-23.563171449568102],[-45.559379932273799,-23.563195216122001],[-45.5597681193209,-23.563369504184003],[-45.559896854821297,-23.5633001850684],[-45.560043415236997,-23.563308107253004],[-45.560146403637297,-23.563331873806899],[-45.56022562548371,-23.563254632506705],[-45.560336536068597,-23.563127877552603],[-45.560356341530102,-23.562957550582905],[-45.560417738461098,-23.562820892897903],[-45.560649462361702,-23.562668390843701],[-45.560736549646677,-23.562626826457628]]]]}},
{"type":"Feature","properties":{"id":145,"area_ha":4.432},"geometry":{"type":"MultiPolygon","coordinates":[]}}
]
}
