{
"type": "FeatureCollection",
"name": "Rio do Peixe",
"crs": { "type": "name", "properties": { "name": "urn:ogc:def:crs:OGC:1.3:CRS84" } },
"xy_coordinate_resolution": 1e-15,
"features": [
{"type":"Feature","properties":{"Área (ha)":117.88153302737832,"Nome do Projeto":null,"Propriedade":null,"Tipo":null,"Ano de Implantação":null,"Metodologia de Restauração":null,"Monitoramento":null,"Município":null,"UGRHI":null,"Região Hidrográfica":null,"Status do Projeto":null,"Fotos do Projeto":null},"geometry":{"type":"MultiPolygon","coordinates":[[[[-51.739732114266999,-21.579841920110201],[-51.740988796380798,-21.579015515024501],[-51.741863010025199,-21.578615972069901],[-51.742614287375801,-21.578615972069901],[-51.743382639211703,-21.578670610422702],[-51.745339375220397,-21.577434417691201],[-51.746397993305401,-21.577113417368601],[-51.746832898168101,-21.577111984540601],[-51.746767216247001,-21.5769409627923],[-51.7466851138457,-21.576760778946301],[-51.7465373295232,-21.576592810752398],[-51.746222056302003,-21.576214118109899],[-51.746107112940102,-21.5760644731639],[-51.745952760425602,-21.575786560711101],[-51.745873942120298,-21.575652185268101],[-51.745670328164898,-21.575429243917199],[-51.7453944640964,-21.575181870236001],[-51.745171145564697,-21.5749741981775],[-51.744869008727697,-21.574720715702799],[-51.744077541578598,-21.574131290884502],[-51.743716291012603,-21.573810618344201],[-51.743479836096697,-21.573609052384199],[-51.742947812536002,-21.5728302721772],[-51.7425208800489,-21.572265272152499],[-51.7418180834933,-21.571291023692702],[-51.741538935328698,-21.5709214794602],[-51.741215002492901,-21.570472299940398],[-51.735578174240999,-21.5744239846669],[-51.735541838551399,-21.574541470420801],[-51.73551918407,-21.5765275132845],[-51.7355219606427,-21.576532488662401],[-51.735519059447,-21.576538438567098],[-51.735518843400399,-21.5765573786543],[-51.735927996769398,-21.577940317041602],[-51.735952543304698,-21.577983701615501],[-51.736168441120803,-21.578258948475],[-51.736279289028403,-21.578549866923002],[-51.736273032323098,-21.578550147322499],[-51.736279868666799,-21.5785622301625],[-51.738752038814198,-21.5799102180512],[-51.739732114266999,-21.579841920110201]]],[[[-51.747865388027499,-21.576858281404199],[-51.748653532805797,-21.576527762524801],[-51.749271629171503,-21.576681432891998],[-51.749869236155,-21.5765175178337],[-51.750494162314901,-21.576466294378001],[-51.7516279081349,-21.576203347305199],[-51.752376803525102,-21.575914001358999],[-51.752257129279798,-21.575714056592101],[-51.7441943221245,-21.568383655163998],[-51.741333799332899,-21.570389017704802],[-51.741512662560297,-21.570640503049599],[-51.741873913126199,-21.571138319578701],[-51.7421202203303,-21.571495646953299],[-51.742435493551497,-21.571907946675498],[-51.742694937139802,-21.572259164032101],[-51.742997073976802,-21.572637867010702],[-51.743194119739996,-21.5729127314561],[-51.743384597311199,-21.573184541339302],[-51.743578358978397,-21.573450242642501],[-51.743703154628399,-21.573612106416],[-51.743910052679801,-21.5737984022334],[-51.744208905420798,-21.5740274541396],[-51.744727792597303,-21.574436692644099],[-51.745190850141,-21.574754309791199],[-51.745447009633203,-21.574980306183502],[-51.745640771300401,-21.575169654240799],[-51.746021726442699,-21.575517809700401],[-51.746245044974401,-21.5758598563548],[-51.746376408816602,-21.5760858510228],[-51.746655556981203,-21.5763881946895],[-51.747013523451102,-21.5767852106673],[-51.747164591869598,-21.576986772209001],[-51.747251717567501,-21.5770843907437],[-51.747865388027499,-21.576858281404199]]]]}}
]
}
