{
"type": "FeatureCollection",
"name": "Santa Maria - Joa - Área maior 2 ha",
"crs": { "type": "name", "properties": { "name": "urn:ogc:def:crs:OGC:1.3:CRS84" } },
"xy_coordinate_resolution": 1e-15,
"features": [
{"type":"Feature","properties":{"Área (ha)":2.038,"Nome do Projeto":"Santa Maria (2)","Propriedade":"-","Tipo":"Recuperação Ambiental","Ano de Implantação":"2016","Metodologia de Restauração":null,"Monitoramento":"-","Município":"Joanópolis","UGRHI":"05 -  Piracicaba, Capivari e Jundiaí","Região Hidrográfica":"Paraná","Status do Projeto":"Finalizado","Fotos do Projeto":null},"geometry":{"type":"Polygon","coordinates":[[[-46.065430364394942,-22.96021897994541,0.0],[-46.065364186402022,-22.960134150694241,0.0],[-46.065384677524939,-22.96001556128202,0.0],[-46.065448994510767,-22.959898510068331,0.0],[-46.065455364596509,-22.959743108967711,0.0],[-46.06537790377962,-22.959667464895858,0.0],[-46.065240193251512,-22.959714941363909,0.0],[-46.065127437410389,-22.95969287119722,0.0],[-46.064966144081751,-22.959667475001481,0.0],[-46.064709557104322,-22.95934048684488,0.0],[-46.064522672409232,-22.95924149421025,0.0],[-46.064539432144187,-22.95918916084873,0.0],[-46.064567141857751,-22.95908293143966,0.0],[-46.06457885413834,-22.958845207312319,0.0],[-46.064496959400493,-22.95854947479053,0.0],[-46.064393052683627,-22.958451053154381,0.0],[-46.064178789791093,-22.958375341793651,0.0],[-46.064001804263313,-22.95822878697879,0.0],[-46.063978661067203,-22.958002296139039,0.0],[-46.063926478286781,-22.957938250600169,0.0],[-46.064024799012842,-22.957875419069691,0.0],[-46.064098657455403,-22.957834513260369,0.0],[-46.064161486635278,-22.957943879839849,0.0],[-46.064258501343318,-22.958080102505178,0.0],[-46.064420828257703,-22.958196660908339,0.0],[-46.064548302518347,-22.95832604500599,0.0],[-46.064624925987097,-22.958464971184,0.0],[-46.064654270153198,-22.958490254160001,0.0],[-46.064708232879603,-22.958576079226901,0.0],[-46.064736390197993,-22.958608537510489,0.0],[-46.064790129315043,-22.958686160407009,0.0],[-46.064852565031792,-22.95875071611227,0.0],[-46.064843966412781,-22.958894246372569,0.0],[-46.064852910792041,-22.959045969163061,0.0],[-46.065040650683471,-22.95918508497272,0.0],[-46.065040269447692,-22.959294664728901,0.0],[-46.064929411445263,-22.959271723044932,0.0],[-46.064834887850409,-22.959319675397229,0.0],[-46.064994609457997,-22.959489922260701,0.0],[-46.065010852086402,-22.9595149107416,0.0],[-46.065026844932198,-22.9595484602347,0.0],[-46.065104490334512,-22.959481225758839,0.0],[-46.065195889114847,-22.959444958301081,0.0],[-46.065357331013317,-22.95944163878924,0.0],[-46.065498668962093,-22.959474663332919,0.0],[-46.06563996524099,-22.95952997236817,0.0],[-46.065715156668468,-22.959631330493419,0.0],[-46.065763233333193,-22.95968376531178,0.0],[-46.065797399664767,-22.959823891450529,0.0],[-46.066023341367938,-22.959849940385428,0.0],[-46.066340742624007,-22.959812224768829,0.0],[-46.066590040347499,-22.959828276573401,0.0],[-46.066714525222999,-22.959786248115101,0.0],[-46.0668210508843,-22.959675900687099,0.0],[-46.066870351158713,-22.9596482460774,0.0],[-46.067101633533092,-22.959559276661398,0.0],[-46.067682960097201,-22.959391987724501,0.0],[-46.067721535486903,-22.9593858184667,0.0],[-46.067840979516603,-22.959381145058298,0.0],[-46.068092248828997,-22.959392722192099,0.0],[-46.068307848317801,-22.959428656213699,0.0],[-46.068573486993387,-22.959499781046301,0.0],[-46.068580684095799,-22.959764766816601,0.0],[-46.068343691384008,-22.959715510045999,0.0],[-46.068281655831598,-22.9596977041877,0.0],[-46.067971463496789,-22.959646006810001,0.0],[-46.067751459695302,-22.9596534946002,0.0],[-46.067456817089997,-22.959738397115402,0.0],[-46.067417263984602,-22.9597417931232,0.0],[-46.0673708021165,-22.959763183689201,0.0],[-46.067201648651412,-22.959811927770801,0.0],[-46.067137270682487,-22.959836645607901,0.0],[-46.067106127738903,-22.959845521415101,0.0],[-46.067065705902792,-22.959864131204402,0.0],[-46.066995559254202,-22.9598910747631,0.0],[-46.066886186599703,-22.959988765116201,0.0],[-46.066410937729103,-22.960214668919999,0.0],[-46.066203901441497,-22.960318130396399,0.0],[-46.066057600825097,-22.960336366349001,0.0],[-46.065941411803593,-22.960361101111001,0.0],[-46.065840125083902,-22.960418495309401,0.0],[-46.065707916070508,-22.96031473914595,0.0],[-46.065552852198707,-22.960237825245201,0.0],[-46.065430364394942,-22.96021897994541,0.0]]]}}
]
}
