{
"type": "FeatureCollection",
"name": "SAnta Maria das Pitangueiras - Geoville - Santa Branca",
"crs": { "type": "name", "properties": { "name": "urn:ogc:def:crs:OGC:1.3:CRS84" } },
"xy_coordinate_resolution": 1e-15,
"features": [
{"type":"Feature","properties":{"Área (ha)":0.727,"Nome do Projeto":"Santa Maria das pitangueiras","Propriedade":"Santa Maria das pitangueiras","Tipo":"Programa Nascentes","Ano de Implantação":"2020","Metodologia de Restauração":null,"Monitoramento":"-","Município":"Pedra Bela","UGRHI":"02 - Paraíba do Sul","Região Hidrográfica":"Paraná","Status do Projeto":"Ativo","Fotos do Projeto":null},"geometry":{"type":"MultiPolygon","coordinates":[[[[-46.373815332802593,-22.750192300903691,0.0],[-46.373557265389152,-22.750308759496399,0.0],[-46.373542895741068,-22.749963373261231,0.0],[-46.373527355188287,-22.749658534877309,0.0],[-46.373570921915153,-22.749424231173268,0.0],[-46.37373236719305,-22.749362612033678,0.0],[-46.373825121154937,-22.749546960717471,0.0],[-46.373815332802593,-22.750192300903691,0.0]]],[[[-46.372864475805443,-22.752082457282562,0.0],[-46.372894528679367,-22.751973274622781,0.0],[-46.372938119694652,-22.751831525725429,0.0],[-46.373038244366313,-22.751708441693729,0.0],[-46.373114034032866,-22.751603582387339,0.0],[-46.373183764622837,-22.751495837921421,0.0],[-46.373299652777924,-22.751392479951249,0.0],[-46.373415734648468,-22.751250981338181,0.0],[-46.373540470388647,-22.750962977420901,0.0],[-46.373690787836637,-22.751017857189691,0.0],[-46.373595319915289,-22.75116473351147,0.0],[-46.373517704131608,-22.751348889918411,0.0],[-46.373432855488417,-22.75157591196167,0.0],[-46.373380618851577,-22.751843265959391,0.0],[-46.373304503142002,-22.75206304943578,0.0],[-46.373129347382239,-22.75225708100324,0.0],[-46.37286472167736,-22.752179658728139,0.0],[-46.372864475805443,-22.752082457282562,0.0]]],[[[-46.373709057385,-22.74930490238426,0.0],[-46.373570793422402,-22.749351801485009,0.0],[-46.373563587069007,-22.74927303463075,0.0],[-46.373534686785611,-22.749170613859249,0.0],[-46.373527972227201,-22.7490445746086,0.0],[-46.373617698690659,-22.749081637935621,0.0],[-46.373710548897613,-22.749105322057328,0.0],[-46.373709057385,-22.74930490238426,0.0]]]]}}
]
}
