{
"type": "FeatureCollection",
"name": "Santa Maria - Joa - Serraria 2014_2015",
"crs": { "type": "name", "properties": { "name": "urn:ogc:def:crs:OGC:1.3:CRS84" } },
"features": [
{"type":"Feature","properties":{"id":null,"Name":"Santa maria Serraria","description":null,"timestamp":null,"begin":null,"end":null,"altitudeMode":null,"tessellate":1,"extrude":0,"visibility":-1,"drawOrder":null,"icon":null},"geometry":{"type":"Polygon","coordinates":[[[-46.060672320455758,-22.95497196486054,0.0],[-46.060396187515302,-22.954603884561148,0.0],[-46.060558933601442,-22.954614631359011,0.0],[-46.060612102981672,-22.954492425965739,0.0],[-46.060510836930568,-22.954422985367859,0.0],[-46.06062318817829,-22.954104384882999,0.0],[-46.060573721853586,-22.954057668254141,0.0],[-46.060477950701923,-22.953926104625161,0.0],[-46.060342980983741,-22.9538362082661,0.0],[-46.060405610717041,-22.953594033912481,0.0],[-46.060903785597922,-22.95393744453872,0.0],[-46.060943442803868,-22.953955485475589,0.0],[-46.060922220830591,-22.954190592030461,0.0],[-46.060672320455758,-22.95497196486054,0.0]]]}}
]
}
