{
"type": "FeatureCollection",
"name": "Sitio Bella Luna",
"crs": { "type": "name", "properties": { "name": "urn:ogc:def:crs:OGC:1.3:CRS84" } },
"features": [
{"type":"Feature","properties":{"id":"restauracao_exoticas_5733_polygon.1","Name":null,"description":null,"timestamp":null,"begin":null,"end":null,"altitudeMode":null,"tessellate":-1,"extrude":0,"visibility":-1,"drawOrder":null,"icon":null,"id2":14115.0,"id_2":"restauracao_pastagem_5732_polygon.1","Name_2":null,"description_2":null,"timestamp_2":null,"begin_2":null,"end_2":null,"altitudeMode_2":null,"tessellate_2":-1,"extrude_2":0,"visibility_2":-1,"drawOrder_2":null,"icon_2":null,"id2_2":14119.0},"geometry":{"type":"MultiPolygon","coordinates":[[[[-46.569081581684102,-23.193889085369602],[-46.568654823044398,-23.194151867465202],[-46.568475818558298,-23.194354806886299],[-46.568611182525402,-23.194454240973201],[-46.568754991420001,-23.1944846627425],[-46.568901522174897,-23.1943901580843],[-46.569056234725402,-23.1942970609037],[-46.5691353975444,-23.194232238856301],[-46.569329238153699,-23.194101016737299],[-46.569427906033198,-23.193984035121201],[-46.569416053591503,-23.193832201224001],[-46.569248064973202,-23.193842899102801],[-46.569081581684102,-23.193889085369602]]],[[[-46.571082750313003,-23.193880116457201],[-46.5710533109471,-23.1938405537352],[-46.571103574011602,-23.193796597658999],[-46.571113124733998,-23.193686960632402],[-46.571069859391201,-23.1936239066018],[-46.571096466971802,-23.193519769608599],[-46.571189031318198,-23.193505156227001],[-46.571195394374001,-23.193401825586601],[-46.570981734055401,-23.1933838713318],[-46.570968119965599,-23.1935098200026],[-46.571014225170998,-23.1935960378555],[-46.571005188825701,-23.193644817724699],[-46.570881831549997,-23.193638770097699],[-46.570565878392998,-23.1937724742839],[-46.570375898367097,-23.193483086104902],[-46.570188163998502,-23.193482135890498],[-46.570023262267199,-23.1934755580535],[-46.569829939847502,-23.193441686584801],[-46.5696911161644,-23.1934256736441],[-46.569645345331097,-23.1934231564776],[-46.569700346249,-23.1936618107956],[-46.569889107388697,-23.193643318558198],[-46.569912407304201,-23.193724861990098],[-46.570020039193601,-23.193741854837899],[-46.5700814730723,-23.193821046821501],[-46.570177105389,-23.193842914533398],[-46.570245858543799,-23.193816028341701],[-46.570306529171297,-23.193915081591001],[-46.570417859641097,-23.193997106598299],[-46.570486103728399,-23.193997105499701],[-46.570616134477604,-23.194099370639201],[-46.570693341662398,-23.194085687705499],[-46.570789616897599,-23.194035304850299],[-46.5708625797769,-23.1939909404399],[-46.570926241942502,-23.194015218628],[-46.570996490846902,-23.194009427154601],[-46.571050106709201,-23.194016178771399],[-46.571089919584402,-23.193925852157498],[-46.571082750313003,-23.193880116457201]]],[[[-46.570442058114203,-23.1934087650693],[-46.570602475624099,-23.193390320483399],[-46.5706041688887,-23.193359835742399],[-46.570592262574898,-23.193327237603],[-46.570520788589498,-23.193316853569801],[-46.570377907061598,-23.193316855712901],[-46.570283167215997,-23.193253608738999],[-46.570214087565901,-23.193151915760701],[-46.570162768228599,-23.193040172847901],[-46.570085707202701,-23.192921715156899],[-46.569976065331304,-23.192793708070599],[-46.569825583552003,-23.192702679971401],[-46.569714289194998,-23.192662540115901],[-46.5695006873434,-23.192648337399099],[-46.569239813726497,-23.1924837592328],[-46.569092748480102,-23.192395189528401],[-46.568578396244497,-23.192162192647299],[-46.5684228672974,-23.192060577871299],[-46.569447092066198,-23.1934030594497],[-46.569521688450997,-23.193372610722001],[-46.569585060145698,-23.1933685649566],[-46.569673627627402,-23.193380523035199],[-46.569848905586298,-23.193397052010301],[-46.569947290837199,-23.193416011322402],[-46.570176004457799,-23.193441673323999],[-46.5703273331291,-23.193425365792901],[-46.570442058114203,-23.1934087650693]]],[[[-46.5713145866386,-23.192685264757699],[-46.571383697068498,-23.191857668092599],[-46.571099950573299,-23.191951361101601],[-46.5710000018112,-23.1919194700661],[-46.570776820312197,-23.192031115858601],[-46.570511591743497,-23.192187376358],[-46.57037644511,-23.192237731045399],[-46.570201902493601,-23.192192718536798],[-46.569971287538301,-23.192184705404301],[-46.569828259511901,-23.192208685251401],[-46.569828652241902,-23.192221924360801],[-46.569818633908397,-23.1922743049793],[-46.569728613378601,-23.192279493185001],[-46.569660800319902,-23.192266506327201],[-46.569543228975597,-23.192333427529299],[-46.569522449932101,-23.192623831383401],[-46.569676800626397,-23.192624099061302],[-46.569769992768698,-23.192642080053002],[-46.569915666535898,-23.192703467552398],[-46.570025254707602,-23.192784766831299],[-46.570087862867702,-23.192846351592301],[-46.5701613057741,-23.192963862431299],[-46.570299622950699,-23.1932210249322],[-46.570338388507103,-23.1932542386192],[-46.570385022585498,-23.193283192864499],[-46.570458858957103,-23.193286622859599],[-46.5705545215001,-23.1932866210675],[-46.570612448914503,-23.193300253977601],[-46.570634332476899,-23.193332611962902],[-46.5706386753046,-23.193386322828999],[-46.570749433524298,-23.193371891405501],[-46.570775213942703,-23.1933159165165],[-46.570882903097697,-23.193282067560698],[-46.570989062558397,-23.193278476099099],[-46.571040572744501,-23.193335298679301],[-46.571255909766698,-23.193345805122799],[-46.5713145866386,-23.192685264757699]]],[[[-46.5696388327897,-23.1917260233725],[-46.569649116247803,-23.191998638629499],[-46.569815283010399,-23.191986066674001],[-46.569901243487102,-23.191890977328601],[-46.569917446913998,-23.191746819626701],[-46.569892925313503,-23.191633844772198],[-46.569828969806302,-23.191555618700001],[-46.5697444217681,-23.1915068106068],[-46.569648257600797,-23.191488056100599],[-46.569501621322502,-23.1914535986059],[-46.569224419529199,-23.1913779182007],[-46.569009852841901,-23.1913347096711],[-46.568704001009898,-23.191311023027499],[-46.5686009896502,-23.1913401896458],[-46.568450834878,-23.191288965183499],[-46.568340763503002,-23.191257377585],[-46.568309480040703,-23.191171901508199],[-46.568316203260899,-23.191109436945698],[-46.568446228721101,-23.191043488985901],[-46.568622856280598,-23.191069635062401],[-46.5688237381611,-23.191191084726899],[-46.569074467014502,-23.191234360972398],[-46.569200947373901,-23.191253555710201],[-46.569356991363598,-23.191292573094302],[-46.569518260814,-23.191359963692801],[-46.569817825629002,-23.191402751207502],[-46.569839952738498,-23.191320058311401],[-46.569836441445197,-23.191312221116998],[-46.569882688894801,-23.191296351806901],[-46.569850232688502,-23.191240199466101],[-46.569803738703101,-23.191213123157102],[-46.569711460560598,-23.191011491069201],[-46.569553218050302,-23.190595492589299],[-46.569393386510903,-23.190369271726201],[-46.569336859996397,-23.1902203132992],[-46.569489645543698,-23.190113910458699],[-46.569540749067201,-23.190132617783199],[-46.569555242212402,-23.190226651467199],[-46.569639587586103,-23.1903051293326],[-46.569682378442202,-23.190349396303201],[-46.569754896320298,-23.190376470893199],[-46.569820010392498,-23.190334310762299],[-46.569923940685001,-23.190252433423101],[-46.570074073011803,-23.190146511121299],[-46.570172582401298,-23.1900566100962],[-46.5702130853252,-23.189966837682899],[-46.570208375581799,-23.189876777891001],[-46.570165670017502,-23.189807722504199],[-46.569974339856202,-23.1897240166142],[-46.569864557045001,-23.189710441016601],[-46.569624632928303,-23.189771363888301],[-46.569451494787003,-23.1898111586185],[-46.569266688125097,-23.189811160216099],[-46.569080728152301,-23.189828207240499],[-46.569234493967102,-23.190007345248901],[-46.569302431310099,-23.190096032224101],[-46.569157284928501,-23.189922482234],[-46.569012314705297,-23.1902402569633],[-46.568964764472,-23.190402623613402],[-46.5689404094745,-23.190735475245901],[-46.5688675805863,-23.190927185317001],[-46.568786186873702,-23.190961504798398],[-46.568729213279703,-23.190961389748502],[-46.568424846126803,-23.1908273826871],[-46.5683235926412,-23.190860956652799],[-46.568202229720498,-23.190918375335201],[-46.568158048319198,-23.190957823014902],[-46.568115477698001,-23.191028467234801],[-46.568080533628397,-23.1910955611635],[-46.568060776915402,-23.1911799463252],[-46.568044997843501,-23.1912635754063],[-46.568031322647798,-23.191503943268501],[-46.568037404165104,-23.191578400764101],[-46.568372907170101,-23.1915763716624],[-46.568756265868302,-23.1916025130474],[-46.568805574725197,-23.191561259196099],[-46.5690162474435,-23.1915555647983],[-46.569287391334697,-23.191614686334201],[-46.569495355178702,-23.191670409006601],[-46.5696388327897,-23.1917260233725]]],[[[-46.569436777396,-23.193415146185501],[-46.568477775932202,-23.192161077439401],[-46.568206996713599,-23.192597345646],[-46.5686492341841,-23.192900759926101],[-46.569436777396,-23.193415146185501]]],[[[-46.568077723367303,-23.192153838014001],[-46.5681322956451,-23.192234135554799],[-46.568105188855299,-23.19229003705],[-46.568057143376897,-23.192340430957699],[-46.567980465372003,-23.192391989885301],[-46.5679506706147,-23.1923491061054],[-46.567845641491502,-23.192254427346199],[-46.567788892981802,-23.1921445356028],[-46.5681159895775,-23.191955748983499],[-46.568060970764698,-23.191872634180299],[-46.5680334990003,-23.191783101627401],[-46.568008389717598,-23.191688097250399],[-46.567992328290302,-23.191514303457001],[-46.568022857824801,-23.191194063458099],[-46.568063436348602,-23.191061557009899],[-46.568110349036203,-23.190979178843701],[-46.568163051311998,-23.190910239767],[-46.568245885152798,-23.190867882305],[-46.568360546408798,-23.190818441213001],[-46.568429448356099,-23.190810025708],[-46.5687091324058,-23.1909328394844],[-46.568741873980002,-23.190939677082199],[-46.5687797437526,-23.190938625144099],[-46.568828341792887,-23.190916295991972],[-46.568835577431798,-23.190918296410299],[-46.568899817812003,-23.190740114293099],[-46.568926492333098,-23.1903736295687],[-46.568984480422401,-23.190188067683],[-46.569122610009401,-23.189887084935201],[-46.569080001901199,-23.189828632061499],[-46.5689632597065,-23.189816597432699],[-46.568868748691102,-23.189952757874501],[-46.568962004908698,-23.1898178182362],[-46.568839860505399,-23.1898512462189],[-46.568583708622199,-23.189929131470802],[-46.568161505451599,-23.1898934159533],[-46.568060532595602,-23.189559437295699],[-46.568006494936299,-23.1894371546781],[-46.567813873421301,-23.189094660414298],[-46.567763177560799,-23.189039512758601],[-46.567737275083303,-23.1890922069535],[-46.567630126552899,-23.1893101791179],[-46.567577788837099,-23.189447723069101],[-46.567551875157498,-23.189558202646399],[-46.5674983281491,-23.189709630380001],[-46.567477849418097,-23.189754501691301],[-46.5673281968715,-23.190029085492501],[-46.567152824113599,-23.190533321474501],[-46.567068262652597,-23.190737385339599],[-46.566870853957901,-23.191652748071601],[-46.566681512393401,-23.192413186386901],[-46.5666679332111,-23.192644307954399],[-46.5666537210219,-23.192801804086699],[-46.566642240157599,-23.192918744528001],[-46.567683122314499,-23.1925435266532],[-46.567758236487997,-23.1925122879362],[-46.568136370308899,-23.192699727227701],[-46.568474274539099,-23.192156121476501],[-46.568392908019902,-23.1920662031809],[-46.568323664069297,-23.1920347477934],[-46.568259606323601,-23.1921280711422],[-46.568185496473397,-23.192037196960001],[-46.568115734509497,-23.192059006461399],[-46.568085928439601,-23.192128090651099],[-46.568077723367303,-23.192153838014001]]]]}}
]
}
