{
"type": "FeatureCollection",
"name": "Valinhos - Pedreira 3",
"crs": { "type": "name", "properties": { "name": "urn:ogc:def:crs:OGC:1.3:CRS84" } },
"xy_coordinate_resolution": 1e-15,
"features": [
{"type":"Feature","properties":{"Área (ha)":1.1,"Nome do Projeto":"Pedreira","Propriedade":"Pedreira","Tipo":"Recuperação Ambiental","Ano de Implantação":"2021","Metodologia de Restauração":null,"Monitoramento":null,"Município":"Valinhos","UGRHI":"05 -  Piracicaba, Capivari e Jundiaí","Região Hidrográfica":"Paraná","Status do Projeto":null,"Fotos do Projeto":null},"geometry":{"type":"Polygon","coordinates":[[[-46.973480473294977,-22.987358679592219,0.0],[-46.973727292762,-22.987447505720109,0.0],[-46.97376371854169,-22.987640501067531,0.0],[-46.973922673880793,-22.9880483414792,0.0],[-46.974199645314123,-22.988483016770591,0.0],[-46.974388900702301,-22.988679108709981,0.0],[-46.97414143315094,-22.989018812653701,0.0],[-46.97394905760622,-22.988909680574281,0.0],[-46.973832242157378,-22.988859687076712,0.0],[-46.973575900957748,-22.9885932423926,0.0],[-46.973424973098368,-22.988389050537549,0.0],[-46.973337176735129,-22.98828762401233,0.0],[-46.973209448184868,-22.987811618195789,0.0],[-46.973392181850613,-22.987776270380319,0.0],[-46.973558450978857,-22.98773833192514,0.0],[-46.973480473294977,-22.987358679592219,0.0]]]}}
]
}
