{
"type": "FeatureCollection",
"name": "Valinhos - Pedreira 1",
"crs": { "type": "name", "properties": { "name": "urn:ogc:def:crs:OGC:1.3:CRS84" } },
"xy_coordinate_resolution": 1e-15,
"features": [
{"type":"Feature","properties":{"Área (ha)":0.069,"Nome do Projeto":"Pedreira","Propriedade":"Pedreira","Tipo":"Recuperação Ambiental","Ano de Implantação":"2021","Metodologia de Restauração":null,"Monitoramento":null,"Município":"Valinhos","UGRHI":"05 -  Piracicaba, Capivari e Jundiaí","Região Hidrográfica":"Paraná","Status do Projeto":null,"Fotos do Projeto":null},"geometry":{"type":"Polygon","coordinates":[[[-46.96842019579443,-22.98486349142161,0.0],[-46.968513437803367,-22.984982061281251,0.0],[-46.968565538230699,-22.985114396209891,0.0],[-46.968536788606507,-22.985250594393801,0.0],[-46.968377569886101,-22.985230480402201,0.0],[-46.968315077679847,-22.985216897931402,0.0],[-46.968302644578067,-22.985091206138119,0.0],[-46.968356484522673,-22.985049156554091,0.0],[-46.96841312849412,-22.984992810146199,0.0],[-46.968398163791683,-22.9849209774844,0.0],[-46.96842019579443,-22.98486349142161,0.0]]]}}
]
}
