{
"type": "FeatureCollection",
"name": "veolia_guarulhos plantio total_",
"crs": { "type": "name", "properties": { "name": "urn:ogc:def:crs:OGC:1.3:CRS84" } },
"features": [
{"type":"Feature","properties":{"id":"veolia_guarulhos_plantio_total.1","Name":"Plantios de Restauração Ecológica","description":null,"timestamp":null,"begin":null,"end":null,"altitudeMode":null,"tessellate":-1,"extrude":0,"visibility":-1,"drawOrder":null,"icon":null,"descriptio":"<html xmlns:fo=\"http://www.w3.org/1999/XSL/Format\" xmlns:msxsl=\"urn:schemas-microsoft-com:xslt\">\n\n<head>\n\n<META http-equiv=\"Content-Type\" content=\"text/html\">\n\n<meta http-equiv=\"content-type\" content=\"text/html; charset=UTF-8\">\n\n</head>\n\n<body style=\"mar","altitudeMo":null,"timestamp2":null,"begin2":null,"end2":null,"altitude_1":null,"tessella_1":-1.0,"extrude2":0.0,"visibili_1":-1.0,"drawOrder2":null,"icon2":null},"geometry":{"type":"Polygon","coordinates":[[[-46.551477079997603,-23.401430535654299,0.0],[-46.551408446915303,-23.4014030871014,0.0],[-46.551346658519599,-23.401363272246002,0.0],[-46.551205939482386,-23.401316155257199,0.0],[-46.551056900554997,-23.4013068537915,0.0],[-46.550960796075103,-23.4013293694384,0.0],[-46.550855837755897,-23.401343887239701,0.0],[-46.550744882691902,-23.401344988384,0.0],[-46.550633172599802,-23.401300199606698,0.0],[-46.550382442096691,-23.401316242140702,0.0],[-46.550324138854698,-23.4013249062487,0.0],[-46.550286557172207,-23.4013576217402,0.0],[-46.550287153507902,-23.401408825005799,0.0],[-46.550240655248103,-23.4014281528477,0.0],[-46.550167658428713,-23.401428877008701,0.0],[-46.550150390258899,-23.401450610073301,0.0],[-46.550150861010898,-23.401491033706201,0.0],[-46.550139966096992,-23.401558522289299,0.0],[-46.550104267272602,-23.401752932272601,0.0],[-46.550056135650202,-23.4018827802944,0.0],[-46.549952149545902,-23.401980839692801,0.0],[-46.549850832149701,-23.402057310796199,0.0],[-46.549763831690392,-23.402109382862601,0.0],[-46.549621133642098,-23.4021431407003,0.0],[-46.54944006912929,-23.4021422409816,0.0],[-46.549293729611001,-23.402114044556299,0.0],[-46.549208770537803,-23.402090629901501,0.0],[-46.549120734786207,-23.402053769595899,0.0],[-46.549079480002199,-23.402021835927101,0.0],[-46.548996876410698,-23.401949883822901,0.0],[-46.548949781917713,-23.401918008004898,0.0],[-46.548934100628387,-23.4019214612063,0.0],[-46.548885701233907,-23.401932119302099,0.0],[-46.548895056707501,-23.401983235770299,0.0],[-46.548936468236199,-23.402028644042002,0.0],[-46.548962700943598,-23.4020547086966,0.0],[-46.54899555593019,-23.402087353184999,0.0],[-46.548981297873603,-23.402155199308801,0.0],[-46.548979268650903,-23.402164855240599,0.0],[-46.548973419883403,-23.402192686235601,0.0],[-46.548941896921697,-23.402244207912901,0.0],[-46.548860767103413,-23.402298916522899,0.0],[-46.548802870947291,-23.4023426139238,0.0],[-46.548710092781192,-23.402400133136599,0.0],[-46.548594300240602,-23.402487527816,0.0],[-46.548495431267803,-23.402523545500902,0.0],[-46.548500359564699,-23.4025840185218,0.0],[-46.5486712182243,-23.402545842037298,0.0],[-46.549168807209497,-23.402374853913699,0.0],[-46.549478592199897,-23.402268400483699,0.0],[-46.549542906562003,-23.4022462996247,0.0],[-46.549626931801001,-23.402217425309299,0.0],[-46.549817059334899,-23.402243580754401,0.0],[-46.549985002442909,-23.402266684131799,0.0],[-46.550090076377501,-23.402223093964899,0.0],[-46.550343464982198,-23.402117974710801,0.0],[-46.550376809662403,-23.4020766122655,0.0],[-46.550389380086898,-23.402006964331999,0.0],[-46.550412603602098,-23.4019497987561,0.0],[-46.55054177873491,-23.401780802487199,0.0],[-46.5505680225113,-23.401760437786201,0.0],[-46.5506355752863,-23.401708017993691,0.0],[-46.550707693159097,-23.4016298166821,0.0],[-46.550730216824597,-23.401605393028099,0.0],[-46.550800375046002,-23.4015393094347,0.0],[-46.550824434804099,-23.401516646990199,0.0],[-46.550991405057303,-23.401521056937401,0.0],[-46.551111427922798,-23.401529500614402,0.0],[-46.551254033829402,-23.401506132262,0.0],[-46.551302522477499,-23.401499891268301,0.0],[-46.551477079997603,-23.401430535654299,0.0]]]}},
{"type":"Feature","properties":{"id":"veolia_guarulhos_plantio_total.2","Name":"Plantios de Restauração Ecológica","description":null,"timestamp":null,"begin":null,"end":null,"altitudeMode":null,"tessellate":-1,"extrude":0,"visibility":-1,"drawOrder":null,"icon":null,"descriptio":"<html xmlns:fo=\"http://www.w3.org/1999/XSL/Format\" xmlns:msxsl=\"urn:schemas-microsoft-com:xslt\">\n\n<head>\n\n<META http-equiv=\"Content-Type\" content=\"text/html\">\n\n<meta http-equiv=\"content-type\" content=\"text/html; charset=UTF-8\">\n\n</head>\n\n<body style=\"mar","altitudeMo":null,"timestamp2":null,"begin2":null,"end2":null,"altitude_1":null,"tessella_1":-1.0,"extrude2":0.0,"visibili_1":-1.0,"drawOrder2":null,"icon2":null},"geometry":{"type":"Polygon","coordinates":[[[-46.550353196321701,-23.408763499074599,0.0],[-46.550398776549891,-23.408734150128101,0.0],[-46.550482115343101,-23.408687447002599,0.0],[-46.550590706290507,-23.408674900234601,0.0],[-46.5506809928143,-23.408691207605699,0.0],[-46.550802543997001,-23.408724408088499,0.0],[-46.550867912407597,-23.4087352281954,0.0],[-46.550929740014297,-23.408708809145399,0.0],[-46.551022397833798,-23.408662013225602,0.0],[-46.551136599967499,-23.4085977998338,0.0],[-46.551188707169402,-23.408537070171199,0.0],[-46.551222510070502,-23.4085051947633,0.0],[-46.5512597870053,-23.408504824626299,0.0],[-46.55133788178901,-23.408541323440701,0.0],[-46.551381705800409,-23.408569560781199,0.0],[-46.551455992290798,-23.408545885061098,0.0],[-46.551576440348207,-23.4084844765848,0.0],[-46.551786740107801,-23.408402104800999,0.0],[-46.552061839409198,-23.4082818147333,0.0],[-46.552197852383699,-23.408223118418299,0.0],[-46.552480066790103,-23.408180172730699,0.0],[-46.55258802172591,-23.408105146793901,0.0],[-46.552774367261598,-23.407841779578501,0.0],[-46.552801655724799,-23.4077841633387,0.0],[-46.552850387807297,-23.4077005287009,0.0],[-46.5528837886228,-23.4076342499425,0.0],[-46.552910742441902,-23.4075479645036,0.0],[-46.552943842085213,-23.4074558834699,0.0],[-46.552946178972398,-23.407389913471,0.0],[-46.552957701176901,-23.4073123831662,0.0],[-46.552934618275501,-23.407197922570099,0.0],[-46.552884247130201,-23.407141078220601,0.0],[-46.552784642349799,-23.407124864699899,0.0],[-46.552679678021498,-23.407090692331,0.0],[-46.552582955534099,-23.406993257097799,0.0],[-46.552510983565199,-23.406860167233202,0.0],[-46.552493479774299,-23.406780058124699,0.0],[-46.552500381004087,-23.406661476484299,0.0],[-46.552611050662698,-23.4065609786865,0.0],[-46.5527175337389,-23.406456699421302,0.0],[-46.552748906976802,-23.406390198339199,0.0],[-46.552238530382297,-23.4064283237959,0.0],[-46.552226207188809,-23.406436775941099,0.0],[-46.5522114911345,-23.406448169028309,0.0],[-46.552197613962903,-23.406460426008099,0.0],[-46.552191023676102,-23.406466847091401,0.0],[-46.552165243232103,-23.406492801408199,0.0],[-46.552158854651701,-23.406499448710299,0.0],[-46.552157940089003,-23.406541802276799,0.0],[-46.55216419257389,-23.4065819968223,0.0],[-46.552164639179892,-23.406635589549602,0.0],[-46.552172308717601,-23.406734871547709,0.0],[-46.552172289630498,-23.406742035255299,0.0],[-46.552173124695102,-23.406759746034599,0.0],[-46.552173628025898,-23.406765123265899,0.0],[-46.552197241422398,-23.406859115883201,0.0],[-46.552215998877003,-23.406942631216701,0.0],[-46.552243121999503,-23.407007692627701,0.0],[-46.5522452753724,-23.4070111074364,0.0],[-46.552255593601103,-23.4070260600657,0.0],[-46.552303858911188,-23.4071217964872,0.0],[-46.55231276405911,-23.407130298593199,0.0],[-46.5523721190999,-23.407121801563999,0.0],[-46.552447805151303,-23.407159925710101,0.0],[-46.552503662140097,-23.407188062395001,0.0],[-46.552536028109202,-23.407204060508001,0.0],[-46.552576869021799,-23.407214934461599,0.0],[-46.552615320893402,-23.407225171719301,0.0],[-46.552632260936903,-23.407229682513201,0.0],[-46.552636863102599,-23.4072309080262,0.0],[-46.552677910062698,-23.407204611754501,0.0],[-46.552698830144102,-23.4071634953801,0.0],[-46.552767342174498,-23.407239726687699,0.0],[-46.5528081934509,-23.407279462186899,0.0],[-46.552814941465193,-23.407325271134901,0.0],[-46.552815744348393,-23.407394077179699,0.0],[-46.552788322148892,-23.407440225746001,0.0],[-46.552776398404212,-23.407483353020499,0.0],[-46.552780675643703,-23.407583664294599,0.0],[-46.552750147008098,-23.40762984373,0.0],[-46.552729439303192,-23.407718934318801,0.0],[-46.552677333134099,-23.407779664446998,0.0],[-46.552578530664903,-23.407832256868499,0.0],[-46.552454810062287,-23.407879362340399,0.0],[-46.5523064723019,-23.407946783075399,0.0],[-46.552247417322803,-23.407944502584499,0.0],[-46.552111270892809,-23.4079917312513,0.0],[-46.552021285661702,-23.408001226964299,0.0],[-46.551956884450192,-23.407984935005199,0.0],[-46.551938963290603,-23.407987157906799,0.0],[-46.551902945582491,-23.407993764472199,0.0],[-46.551854862428392,-23.408009772130701,0.0],[-46.551829503695302,-23.408020849564998,0.0],[-46.551609043056587,-23.408117152957001,0.0],[-46.551596946128498,-23.4081227570801,0.0],[-46.5513723269789,-23.408232871300999,0.0],[-46.551175580868502,-23.408316402786198,0.0],[-46.551154635388613,-23.408298684108399,0.0],[-46.551129671187397,-23.408280187161498,0.0],[-46.551103449628712,-23.408263236675701,0.0],[-46.551076082996602,-23.408247905234909,0.0],[-46.551047688478697,-23.4082342584902,0.0],[-46.551018387663802,-23.4082223548786,0.0],[-46.550640372693202,-23.4084168778245,0.0],[-46.550386314101097,-23.408448625559799,0.0],[-46.550375672985801,-23.408470571633,0.0],[-46.550374158749698,-23.4084739317884,0.0],[-46.550371901745002,-23.4084790275739,0.0],[-46.550360947601,-23.408506790074501,0.0],[-46.550351984342093,-23.408535154334299,0.0],[-46.550345050351503,-23.408563998893399,0.0],[-46.550340175322901,-23.408593200235291,0.0],[-46.5503373801333,-23.4086226333153,0.0],[-46.550336676753503,-23.408652172096598,0.0],[-46.550338068196801,-23.408681690089399,0.0],[-46.550341548506303,-23.4087110608933,0.0],[-46.550347102780201,-23.408740158737501,0.0],[-46.550347208269699,-23.408740620886199,0.0],[-46.550347753841493,-23.408743004849399,0.0],[-46.550353196321701,-23.408763499074599,0.0]]]}}
]
}
