{
"type": "FeatureCollection",
"name": "veolia_guarulhos adensamento_",
"crs": { "type": "name", "properties": { "name": "urn:ogc:def:crs:OGC:1.3:CRS84" } },
"xy_coordinate_resolution": 1e-15,
"features": [
{"type":"Feature","properties":{"Área (ha)":6.3,"Nome do Projeto":"Veolia","Propriedade":"Veolia","Tipo":"Restauração Ecológica","Ano de Implantação":"2022","Metodologia de Restauração":null,"Monitoramento":null,"Município":"Guarulhos","UGRHI":"06 - Alto Tietê","Região Hidrográfica":"Paraná","Status do Projeto":null,"Fotos do Projeto":null},"geometry":{"type":"Polygon","coordinates":[[[-46.545437412080993,-23.4042248100316,0.0],[-46.5455116846503,-23.404193454954299,0.0],[-46.545475922999898,-23.404128248311402,0.0],[-46.545447603999897,-23.4040528773115,0.0],[-46.54541348,-23.403996806311401,0.0],[-46.545400276958297,-23.403976541755998,0.0],[-46.545381849999899,-23.403948259311399,0.0],[-46.545375342999897,-23.4039222623115,0.0],[-46.545387626999897,-23.403885831311499,0.0],[-46.545401835,-23.403861267311498,0.0],[-46.545446529999893,-23.403845432311499,0.0],[-46.545487998999903,-23.403838646311499,0.0],[-46.545489091547999,-23.403838339651301,0.0],[-46.545521705999903,-23.403829185311501,0.0],[-46.545540238,-23.403812101311399,0.0],[-46.545544191999902,-23.403773974311491,0.0],[-46.545565171,-23.403755034311502,0.0],[-46.545613594,-23.403742319311501,0.0],[-46.545639224999903,-23.403726095311502,0.0],[-46.545672097999891,-23.403698044311501,0.0],[-46.545716637999902,-23.403677950311501,0.0],[-46.545719158999901,-23.4036738173115,0.0],[-46.545751274999901,-23.403642074311399,0.0],[-46.545768809,-23.403606982311501,0.0],[-46.545771249,-23.403605057311498,0.0],[-46.545797923999913,-23.403586124311499,0.0],[-46.545805173999902,-23.403580401311501,0.0],[-46.545833867999903,-23.4035661713115,0.0],[-46.545857752000011,-23.403545188311501,0.0],[-46.545885734999892,-23.403554482311499,0.0],[-46.545884275780899,-23.4035640545099,0.0],[-46.545883459,-23.4035643763115,0.0],[-46.545884252696602,-23.403564205938199,0.0],[-46.545878052,-23.403604881311502,0.0],[-46.54585155,-23.403660116311499,0.0],[-46.545828768002103,-23.403672021313099,0.0],[-46.545805986,-23.403683926311501,0.0],[-46.545767153,-23.403704331311499,0.0],[-46.54573718399989,-23.403749999311501,0.0],[-46.545702204999898,-23.403780325311399,0.0],[-46.545681580999897,-23.403816685311501,0.0],[-46.545676350999898,-23.403827520311498,0.0],[-46.545658013,-23.403862291311398,0.0],[-46.545634215999897,-23.4039039723115,0.0],[-46.545625307999899,-23.403947220311501,0.0],[-46.54563727,-23.403977967311398,0.0],[-46.545659115,-23.4040165923114,0.0],[-46.545660652,-23.404056497311402,0.0],[-46.545660593,-23.4040588443115,0.0],[-46.545659292,-23.404110734311502,0.0],[-46.545660724,-23.404156073311501,0.0],[-46.545672679999903,-23.4041926343114,0.0],[-46.545669537,-23.404216585311499,0.0],[-46.545675019100692,-23.404235629387401,0.0],[-46.5458169992663,-23.4041684077322,0.0],[-46.54580685723689,-23.404134151226,0.0],[-46.545807225349201,-23.404049161554301,0.0],[-46.545805785508897,-23.404011780169299,0.0],[-46.545805452627903,-23.404006285086101,0.0],[-46.545804408889801,-23.403997473791598,0.0],[-46.545802742981188,-23.403988744365801,0.0],[-46.545800462035992,-23.4039801341894,0.0],[-46.545797575821609,-23.4039716801325,0.0],[-46.545794096697399,-23.4039634183966,0.0],[-46.545790039561602,-23.403955384359701,0.0],[-46.545789219986503,-23.403953913415599,0.0],[-46.545780448874197,-23.4039384048973,0.0],[-46.545787853220702,-23.403925435986,0.0],[-46.545789973745897,-23.403921573358701,0.0],[-46.5458083117176,-23.4038868023449,0.0],[-46.545808666882209,-23.403886124123801,0.0],[-46.545810412300703,-23.403882641676098,0.0],[-46.545813755235393,-23.403875716097801,0.0],[-46.545820741080398,-23.403863400070701,0.0],[-46.545837667492897,-23.403848725241499,0.0],[-46.545842067408998,-23.403844746937601,0.0],[-46.545848557049403,-23.403838212996199,0.0],[-46.545852507968299,-23.403833671375001,0.0],[-46.545867402150193,-23.403834876649999,0.0],[-46.545886605295898,-23.4038352667271,0.0],[-46.545905794968398,-23.403834496807502,0.0],[-46.545924888994001,-23.4038325701883,0.0],[-46.545943805608793,-23.4038294951194,0.0],[-46.545949952740102,-23.403828239568401,0.0],[-46.546025656909791,-23.4038119890376,0.0],[-46.546038167974487,-23.4038090342322,0.0],[-46.546041658213497,-23.403808112460801,0.0],[-46.546107726323697,-23.403790255180599,0.0],[-46.546122555961098,-23.403785849334891,0.0],[-46.546123054387998,-23.4037856871944,0.0],[-46.5461238923575,-23.403785413816198,0.0],[-46.546154501948202,-23.4037897674385,0.0],[-46.546186392586002,-23.4037923480474,0.0],[-46.546218397815998,-23.403792998109701,0.0],[-46.546241567159001,-23.403792261823899,0.0],[-46.546245858552702,-23.403792031389099,0.0],[-46.546254671979298,-23.403791484406799,0.0],[-46.546286495331891,-23.403788273303299,0.0],[-46.546318022993809,-23.403783148115501,0.0],[-46.546349119957299,-23.4037761307907,0.0],[-46.546379653059297,-23.4037672513785,0.0],[-46.546409491551202,-23.403756547902201,0.0],[-46.546438507659197,-23.4037440661963,0.0],[-46.5464665771309,-23.403729859709902,0.0],[-46.546493579767791,-23.4037139892779,0.0],[-46.546519399940102,-23.403696522860599,0.0],[-46.546543927081302,-23.403677535252498,0.0],[-46.546567056162502,-23.403657107762001,0.0],[-46.546568298182798,-23.4036559323328,0.0],[-46.546571806237509,-23.403652600263602,0.0],[-46.546592196195,-23.403631995793901,0.0],[-46.546612238439003,-23.4036089567524,0.0],[-46.546630605125792,-23.403584757225701,0.0],[-46.546647217606903,-23.403559500840409,0.0],[-46.546662004745997,-23.403533295748801,0.0],[-46.546674903223007,-23.403506254165499,0.0],[-46.546685857805592,-23.403478491887299,0.0],[-46.546694821585902,-23.403450127796791,0.0],[-46.546701756180703,-23.403421283353701,0.0],[-46.546706631896413,-23.403392082074401,0.0],[-46.54670942785571,-23.403362649003501,0.0],[-46.546710132087199,-23.403333110178099,0.0],[-46.546708741576801,-23.4033035920876,0.0],[-46.546708006642497,-23.403295633210401,0.0],[-46.546707568382303,-23.4032913366614,0.0],[-46.546704824020303,-23.403269924584201,0.0],[-46.546699270837998,-23.403240826536301,0.0],[-46.546691667550697,-23.4032121259972,0.0],[-46.546682046717997,-23.403183945866498,0.0],[-46.546670449539,-23.403156406815501,0.0],[-46.5466569256753,-23.403129626770099,0.0],[-46.5466415330392,-23.403103720406101,0.0],[-46.546624337544998,-23.403078798657901,0.0],[-46.546605412826899,-23.403054968243701,0.0],[-46.546584839923803,-23.403032331208301,0.0],[-46.546562706931709,-23.403010984485999,0.0],[-46.546558887082497,-23.4030075337953,0.0],[-46.546535288781399,-23.402987568796409,0.0],[-46.546510326219099,-23.402969071011999,0.0],[-46.546484106289597,-23.4029521196525,0.0],[-46.546456741270099,-23.402936787306,0.0],[-46.546428348341202,-23.402923139627099,0.0],[-46.54639904908489,-23.402911235057001,0.0],[-46.546368968964103,-23.402901124572299,0.0],[-46.546338236785303,-23.402892851467499,0.0],[-46.5463069841473,-23.402886451169,0.0],[-46.546275344877408,-23.402881951083501,0.0],[-46.546243454458399,-23.402879370481099,0.0],[-46.546211449448499,-23.4028787204122,0.0],[-46.546179466896902,-23.402880003660499,0.0],[-46.5461476437562,-23.402883214731201,0.0],[-46.546116116296702,-23.402888339874199,0.0],[-46.5460850195226,-23.402895357142999,0.0],[-46.546054486593803,-23.402904236489,0.0],[-46.546024648255901,-23.40291493989,0.0],[-46.545995632280302,-23.4029274215127,0.0],[-46.545967562916999,-23.402941627909499,0.0],[-46.545964782510502,-23.402943157873899,0.0],[-46.545958814756602,-23.402946466477601,0.0],[-46.545953242160898,-23.4029497656527,0.0],[-46.545934592607502,-23.402960806849901,0.0],[-46.545908772489199,-23.4029782731686,0.0],[-46.545884245373799,-23.402997260676599,0.0],[-46.545861116289913,-23.403017688067099,0.0],[-46.545839484279902,-23.4030394678676,0.0],[-46.545819441975503,-23.403062506814098,0.0],[-46.545801075201503,-23.403086706250999,0.0],[-46.5457844626075,-23.403111962553201,0.0],[-46.545769675332103,-23.403138167569701,0.0],[-46.545756776697488,-23.403165209087302,0.0],[-46.545745821938603,-23.4031929713103,0.0],[-46.545736857966503,-23.403221335357099,0.0],[-46.545736261153003,-23.403223505205499,0.0],[-46.545735076023497,-23.403227859240001,0.0],[-46.545728738037702,-23.403254533803199,0.0],[-46.545723862108701,-23.4032837350635,0.0],[-46.545721065930792,-23.403313168128498,0.0],[-46.545720445472398,-23.403339184985398,0.0],[-46.545717778704713,-23.403340752327502,0.0],[-46.545702286573807,-23.403351232100501,0.0],[-46.54568757024731,-23.403362624588901,0.0],[-46.545673692742497,-23.403374881008499,0.0],[-46.54566071348529,-23.4033879488758,0.0],[-46.545648688054897,-23.403401772232201,0.0],[-46.545637667946004,-23.403416291884401,0.0],[-46.545627700348803,-23.403431445657201,0.0],[-46.545618827946193,-23.403447168659891,0.0],[-46.545611088731498,-23.403463393564301,0.0],[-46.545604515845703,-23.403480050893201,0.0],[-46.545599137435097,-23.403497069317499,0.0],[-46.545594976531603,-23.4035143759615,0.0],[-46.54559205095299,-23.403531896716,0.0],[-46.545590373227803,-23.403549556554101,0.0],[-46.545589950540602,-23.403567279853899,0.0],[-46.545590232112808,-23.403573258181801,0.0],[-46.545590784702,-23.403584990721399,0.0],[-46.545590822813097,-23.403585312463399,0.0],[-46.545589257861607,-23.403586232230701,0.0],[-46.5455815117773,-23.403591472111799,0.0],[-46.5455741535961,-23.4035971683513,0.0],[-46.545572465343703,-23.403598586642602,0.0],[-46.545549267145987,-23.403618381983598,0.0],[-46.545525009850103,-23.4036247515049,0.0],[-46.545516509021112,-23.403627243742001,0.0],[-46.545508418836,-23.403630145752299,0.0],[-46.545507557457803,-23.403630454735101,0.0],[-46.545498852603792,-23.4036341991965,0.0],[-46.545490431734613,-23.4036384610921,0.0],[-46.545482330909401,-23.403643222171901,0.0],[-46.545474584817391,-23.4036484620481,0.0],[-46.545467226628404,-23.403654158282901,0.0],[-46.545462544494903,-23.403658204385899,0.0],[-46.545441565493903,-23.403677144372399,0.0],[-46.545439308849502,-23.403679226470299,0.0],[-46.545432819195192,-23.403685760395501,0.0],[-46.54542680645541,-23.4036926720661,0.0],[-46.545421296377597,-23.403699931885502,0.0],[-46.545416312556902,-23.403707508766001,0.0],[-46.545412812746697,-23.403713602377699,0.0],[-46.545407028043797,-23.403714977934101,0.0],[-46.545397868094199,-23.403717641702201,0.0],[-46.545393933868802,-23.4037189763858,0.0],[-46.545349238903199,-23.403734811369102,0.0],[-46.5453442215547,-23.403736687670801,0.0],[-46.545335516688802,-23.403740432123701,0.0],[-46.545327095807302,-23.403744694011099,0.0],[-46.5453257811917,-23.4037454666448,0.0],[-46.545318994969598,-23.403749455082899,0.0],[-46.545311248864699,-23.403754694951701,0.0],[-46.545303890662602,-23.4037603911794,0.0],[-46.545296951872203,-23.403766519373999,0.0],[-46.545290462206587,-23.403773053293801,0.0],[-46.545284449455401,-23.403779964959501,0.0],[-46.545278939366192,-23.403787224774401,0.0],[-46.54527451042901,-23.403793958049,0.0],[-46.5452739555341,-23.4037948016508,0.0],[-46.545272365190399,-23.403797478131299,0.0],[-46.545258157171901,-23.403822042120598,0.0],[-46.54525531128121,-23.403827227132709,0.0],[-46.54525144164181,-23.403835339577299,0.0],[-46.545248155168302,-23.403843668235599,0.0],[-46.545247492924801,-23.403845582119601,0.0],[-46.545235208888698,-23.4038820131106,0.0],[-46.545233181896997,-23.4038886084337,0.0],[-46.54523110141669,-23.403897261752,0.0],[-46.545229638600702,-23.4039060221269,0.0],[-46.545228799713108,-23.403914852044998,0.0],[-46.545228588346298,-23.403923713695299,0.0],[-46.545229005405602,-23.403932569130909,0.0],[-46.545230049105108,-23.403941380431299,0.0],[-46.545231714975699,-23.403950109865299,0.0],[-46.5452323458397,-23.4039527502187,0.0],[-46.545238852813988,-23.4039787472258,0.0],[-46.545240502859002,-23.4039847170591,0.0],[-46.545243389038902,-23.4039931711281,0.0],[-46.545246868130498,-23.404001432878001,0.0],[-46.545250925235997,-23.404009466930599,0.0],[-46.545255542982297,-23.404017238883,0.0],[-46.545256075124897,-23.404018062222001,0.0],[-46.545275323036499,-23.404047604739102,0.0],[-46.545286584832603,-23.404064889817199,0.0],[-46.545313231504707,-23.4041086744826,0.0],[-46.545315922752202,-23.404115837255802,0.0],[-46.545437412080993,-23.4042248100316,0.0]]]}},
{"type":"Feature","properties":{"Área (ha)":6.3,"Nome do Projeto":"Veolia","Propriedade":"Veolia","Tipo":"Restauração Ecológica","Ano de Implantação":"2022","Metodologia de Restauração":null,"Monitoramento":null,"Município":"Guarulhos","UGRHI":"06 - Alto Tietê","Região Hidrográfica":"Paraná","Status do Projeto":null,"Fotos do Projeto":null},"geometry":{"type":"Polygon","coordinates":[[[-46.54538574604441,-23.406495830499999,0.0],[-46.545868569384808,-23.406133481416401,0.0],[-46.545623675763302,-23.405743738433799,0.0],[-46.545697602335601,-23.405610413383801,0.0],[-46.545701575416402,-23.4056032480064,0.0],[-46.545651827999599,-23.405533282754799,0.0],[-46.545518157684597,-23.405345287052601,0.0],[-46.545496781263203,-23.405315222906999,0.0],[-46.545297989561298,-23.405035638196999,0.0],[-46.5452933355986,-23.404984786370701,0.0],[-46.545283681227403,-23.405001944237,0.0],[-46.5451225602202,-23.405449994034399,0.0],[-46.545063087091897,-23.4056153778332,0.0],[-46.545031363509601,-23.405703595101102,0.0],[-46.544845269404703,-23.406221085245502,0.0],[-46.544786632072302,-23.406384143024798,0.0],[-46.54478607723491,-23.406385685906098,0.0],[-46.54538574604441,-23.406495830499999,0.0]]]}},
{"type":"Feature","properties":{"Área (ha)":6.3,"Nome do Projeto":"Veolia","Propriedade":"Veolia","Tipo":"Restauração Ecológica","Ano de Implantação":"2022","Metodologia de Restauração":null,"Monitoramento":null,"Município":"Guarulhos","UGRHI":"06 - Alto Tietê","Região Hidrográfica":"Paraná","Status do Projeto":null,"Fotos do Projeto":null},"geometry":{"type":"Polygon","coordinates":[[[-46.552860600129293,-23.405506286072601,0.0],[-46.552831395837003,-23.405564808340799,0.0],[-46.552774838009398,-23.4056877065075,0.0],[-46.552788333790801,-23.4057793244334,0.0],[-46.552854334876002,-23.405755730461699,0.0],[-46.552940955687014,-23.405724285513401,0.0],[-46.553052471805913,-23.405696416061499,0.0],[-46.55313022901629,-23.405615360093201,0.0],[-46.553220545325701,-23.405545648244001,0.0],[-46.553286769280703,-23.405541166889599,0.0],[-46.553291446439502,-23.405586996410602,0.0],[-46.553259293645297,-23.405671422091601,0.0],[-46.553198505165597,-23.405786716450599,0.0],[-46.553141858382091,-23.405901969617499,0.0],[-46.553039384049313,-23.405994740293,0.0],[-46.552896339023903,-23.406160551186598,0.0],[-46.552835416215103,-23.4062643777504,0.0],[-46.552770083895609,-23.406345310105898,0.0],[-46.552748906976802,-23.406390198339199,0.0],[-46.5527175337389,-23.406456699421302,0.0],[-46.552611050662698,-23.4065609786865,0.0],[-46.552500381004087,-23.406661476484299,0.0],[-46.552493479774299,-23.406780058124699,0.0],[-46.552510983565199,-23.406860167233202,0.0],[-46.552582955534099,-23.406993257097799,0.0],[-46.552679678021498,-23.407090692331,0.0],[-46.5526676260153,-23.407046180545599,0.0],[-46.552656733149597,-23.406988111739299,0.0],[-46.552647451825301,-23.406931545414999,0.0],[-46.55266648896459,-23.406874507726901,0.0],[-46.552678400924101,-23.406834798408699,0.0],[-46.5526599449082,-23.4068171777675,0.0],[-46.552699335040202,-23.406791609247598,0.0],[-46.5527047778114,-23.406781490423999,0.0],[-46.552749406073801,-23.406723413410699,0.0],[-46.55277588585821,-23.4066947245684,0.0],[-46.552831449863191,-23.406640069599302,0.0],[-46.5528762938239,-23.4065810566354,0.0],[-46.552919594856803,-23.406524208647902,0.0],[-46.552943229795197,-23.4064894748056,0.0],[-46.552988008810502,-23.406444134787598,0.0],[-46.553053369994103,-23.406382475525,0.0],[-46.553054558997189,-23.406381645040501,0.0],[-46.553160456757801,-23.406177271245198,0.0],[-46.553164381256501,-23.406169374371601,0.0],[-46.55317195368081,-23.4061534689348,0.0],[-46.5531756017064,-23.4061454601785,0.0],[-46.553179035395502,-23.406137181006599,0.0],[-46.553185607423501,-23.4061205234078,0.0],[-46.553188745762498,-23.406112144981101,0.0],[-46.553189299328992,-23.406110568633501,0.0],[-46.553190396004098,-23.406107412842399,0.0],[-46.553190939112902,-23.406105833399,0.0],[-46.553247346448998,-23.405940034973099,0.0],[-46.553408934754302,-23.405875374250201,0.0],[-46.5534169347345,-23.405872040978601,0.0],[-46.553431724708602,-23.4058656312043,0.0],[-46.553479170167897,-23.405782125542601,0.0],[-46.553544768103201,-23.405695331509001,0.0],[-46.553619818204901,-23.405608852714799,0.0],[-46.553687030827703,-23.405502554826899,0.0],[-46.553699656088497,-23.405483361720599,0.0],[-46.553803835044498,-23.405405915411698,0.0],[-46.553892022914603,-23.4053283086112,0.0],[-46.553966432123097,-23.405235078708099,0.0],[-46.554009738072388,-23.4051832407464,0.0],[-46.554023561100202,-23.405154273925,0.0],[-46.5540297280088,-23.405141351003699,0.0],[-46.554033073922398,-23.405108974687298,0.0],[-46.554034924119598,-23.4050912684101,0.0],[-46.554046920999902,-23.405038962311501,0.0],[-46.554059754031996,-23.405006555764601,0.0],[-46.554064046288801,-23.405001393895098,0.0],[-46.554079381792697,-23.4049569905598,0.0],[-46.554148460157009,-23.404943613754799,0.0],[-46.554142051798202,-23.404917546645301,0.0],[-46.5541294518314,-23.404899356452798,0.0],[-46.5541092352059,-23.404870170942601,0.0],[-46.554129166637402,-23.4047886287279,0.0],[-46.554135109912487,-23.404747034848199,0.0],[-46.554137775713293,-23.404707753168701,0.0],[-46.55413557308561,-23.404674719748499,0.0],[-46.5541627848513,-23.404652919786798,0.0],[-46.554181246084099,-23.404647350956001,0.0],[-46.554217220007097,-23.404609311882901,0.0],[-46.554231796068599,-23.404588856520991,0.0],[-46.554247594844497,-23.4045537517257,0.0],[-46.554254512971298,-23.4045108247124,0.0],[-46.554256586009288,-23.404487174333791,0.0],[-46.55425772,-23.4044787773115,0.0],[-46.554275929239893,-23.404469990789,0.0],[-46.554261220382891,-23.404459004608501,0.0],[-46.5542089968678,-23.404429140464099,0.0],[-46.554153129653898,-23.404405552698702,0.0],[-46.554094499793997,-23.404388613302199,0.0],[-46.554034031907399,-23.404378589417,0.0],[-46.553972679599497,-23.404375639124599,0.0],[-46.553911410423098,-23.404379808953099,0.0],[-46.553851190620001,-23.4043910331429,0.0],[-46.553792969883801,-23.404409134684101,0.0],[-46.553737666382702,-23.4044338281075,0.0],[-46.553686152280399,-23.404464723987001,0.0],[-46.553639239981599,-23.404501335080401,0.0],[-46.553597669320197,-23.404543084013302,0.0],[-46.553562095891706,-23.404589312384601,0.0],[-46.553533080714097,-23.404639291149099,0.0],[-46.553511081380002,-23.404692232115501,0.0],[-46.553496444839801,-23.404747300375501,0.0],[-46.553489401929191,-23.404803627471299,0.0],[-46.553490063728901,-23.4048603250917,0.0],[-46.553498419811802,-23.4049164990805,0.0],[-46.5535143384066,-23.404971263538801,0.0],[-46.553517546870403,-23.404978513468301,0.0],[-46.553510407036811,-23.4049857027535,0.0],[-46.5534983823256,-23.404999526675901,0.0],[-46.553487362986601,-23.405014046840598,0.0],[-46.553480204949899,-23.405024698826999,0.0],[-46.553461497570197,-23.405054031527399,0.0],[-46.5534494863617,-23.405068547889499,0.0],[-46.5534455086759,-23.405073079811299,0.0],[-46.553433369690502,-23.4050854964804,0.0],[-46.553428541198301,-23.405090560801,0.0],[-46.553423380990502,-23.405096267456301,0.0],[-46.553177053330003,-23.405376404059499,0.0],[-46.553175307936002,-23.405378161529502,0.0],[-46.553174971855398,-23.405378331643099,0.0],[-46.553171379277003,-23.405379888615801,0.0],[-46.552890726242801,-23.405492193654101,0.0],[-46.552874837859399,-23.405499079413602,0.0],[-46.552860600129293,-23.405506286072601,0.0]]]}},
{"type":"Feature","properties":{"Área (ha)":6.3,"Nome do Projeto":"Veolia","Propriedade":"Veolia","Tipo":"Restauração Ecológica","Ano de Implantação":"2022","Metodologia de Restauração":null,"Monitoramento":null,"Município":"Guarulhos","UGRHI":"06 - Alto Tietê","Região Hidrográfica":"Paraná","Status do Projeto":null,"Fotos do Projeto":null},"geometry":{"type":"Polygon","coordinates":[[[-46.55231276405911,-23.407130298593199,0.0],[-46.552326310574109,-23.407244760217001,0.0],[-46.552450263030309,-23.4074460860285,0.0],[-46.5524517611547,-23.4074482570133,0.0],[-46.552450148606603,-23.407450708771499,0.0],[-46.552261103526803,-23.407711767379499,0.0],[-46.5522609004218,-23.407712031916301,0.0],[-46.552254596596498,-23.407720583948301,0.0],[-46.55224462948739,-23.407735738112301,0.0],[-46.552235757635103,-23.407751461456201,0.0],[-46.552228019030203,-23.407767686650399,0.0],[-46.552221446811302,-23.4077843442162,0.0],[-46.552216069121798,-23.407801362823491,0.0],[-46.552211908990401,-23.407818669596001,0.0],[-46.552211323163597,-23.407821640591902,0.0],[-46.552185558375299,-23.407956570604799,0.0],[-46.551956884450192,-23.407984935005199,0.0],[-46.552021285661702,-23.408001226964299,0.0],[-46.552111270892809,-23.4079917312513,0.0],[-46.552247417322803,-23.407944502584499,0.0],[-46.5523064723019,-23.407946783075399,0.0],[-46.552454810062287,-23.407879362340399,0.0],[-46.552578530664903,-23.407832256868499,0.0],[-46.552677333134099,-23.407779664446998,0.0],[-46.552729439303192,-23.407718934318801,0.0],[-46.552750147008098,-23.40762984373,0.0],[-46.552780675643703,-23.407583664294599,0.0],[-46.552776398404212,-23.407483353020499,0.0],[-46.552788322148892,-23.407440225746001,0.0],[-46.552815744348393,-23.407394077179699,0.0],[-46.552814941465193,-23.407325271134901,0.0],[-46.5528081934509,-23.407279462186899,0.0],[-46.552767342174498,-23.407239726687699,0.0],[-46.552698830144102,-23.4071634953801,0.0],[-46.552677910062698,-23.407204611754501,0.0],[-46.552636863102599,-23.4072309080262,0.0],[-46.552632260936903,-23.407229682513201,0.0],[-46.552615320893402,-23.407225171719301,0.0],[-46.552576869021799,-23.407214934461599,0.0],[-46.552536028109202,-23.407204060508001,0.0],[-46.552503662140097,-23.407188062395001,0.0],[-46.552447805151303,-23.407159925710101,0.0],[-46.5523721190999,-23.407121801563999,0.0],[-46.55231276405911,-23.407130298593199,0.0]]]}},
{"type":"Feature","properties":{"Área (ha)":6.3,"Nome do Projeto":"Veolia","Propriedade":"Veolia","Tipo":"Restauração Ecológica","Ano de Implantação":"2022","Metodologia de Restauração":null,"Monitoramento":null,"Município":"Guarulhos","UGRHI":"06 - Alto Tietê","Região Hidrográfica":"Paraná","Status do Projeto":null,"Fotos do Projeto":null},"geometry":{"type":"Polygon","coordinates":[[[-46.550353196321701,-23.408763499074599,0.0],[-46.550355252807407,-23.4087712429837,0.0],[-46.550364874882,-23.408799422805799,0.0],[-46.550376473373611,-23.408826961496601,0.0],[-46.550389998616701,-23.4088537411304,0.0],[-46.550405392694898,-23.408879647032499,0.0],[-46.550422589689092,-23.408904568269001,0.0],[-46.550441515959697,-23.408928398122899,0.0],[-46.550462090461799,-23.408951034550402,0.0],[-46.550484225092397,-23.408972380618302,0.0],[-46.550487364921501,-23.408975216709099,0.0],[-46.550510964897597,-23.408995181009001,0.0],[-46.550535929159402,-23.409013678050599,0.0],[-46.55056215080571,-23.409030628626201,0.0],[-46.550589517550797,-23.409045960150099,0.0],[-46.550617912205297,-23.409059606970001,0.0],[-46.550647213178301,-23.4090715106476,0.0],[-46.5506772949973,-23.409081620209101,0.0],[-46.550708028846408,-23.409089892363401,0.0],[-46.550739283117103,-23.4090962916877,0.0],[-46.550770923972699,-23.409100790778801,0.0],[-46.550802815920797,-23.409103370370801,0.0],[-46.550834822393803,-23.409104019417502,0.0],[-46.550838964294897,-23.409103978301001,0.0],[-46.550870948234703,-23.409102694022199,0.0],[-46.550873928298998,-23.409102393238701,0.0],[-46.550908241527303,-23.409203617983099,0.0],[-46.550930028090413,-23.409276158519599,0.0],[-46.550953268785896,-23.4092170349574,0.0],[-46.550983274866198,-23.409125940743799,0.0],[-46.551169157980901,-23.408903316793801,0.0],[-46.551238277867498,-23.408791763406391,0.0],[-46.551311405836387,-23.4086687011843,0.0],[-46.551381705800409,-23.408569560781199,0.0],[-46.55133788178901,-23.408541323440701,0.0],[-46.5512597870053,-23.408504824626299,0.0],[-46.551222510070502,-23.4085051947633,0.0],[-46.551188707169402,-23.408537070171199,0.0],[-46.551136599967499,-23.4085977998338,0.0],[-46.551022397833798,-23.408662013225602,0.0],[-46.550929740014297,-23.408708809145399,0.0],[-46.550867912407597,-23.4087352281954,0.0],[-46.550802543997001,-23.408724408088499,0.0],[-46.5506809928143,-23.408691207605699,0.0],[-46.550590706290507,-23.408674900234601,0.0],[-46.550482115343101,-23.408687447002599,0.0],[-46.550398776549891,-23.408734150128101,0.0],[-46.550353196321701,-23.408763499074599,0.0]]]}}
]
}
