{
"type": "FeatureCollection",
"name": "Viação Atibaia - Atibaia - 2019",
"crs": { "type": "name", "properties": { "name": "urn:ogc:def:crs:OGC:1.3:CRS84" } },
"xy_coordinate_resolution": 1e-15,
"features": [
{"type":"Feature","properties":{"Área (ha)":0.3,"Nome do Projeto":"Viação Atibaia","Propriedade":"-","Tipo":"Recuperação Ambiental","Ano de Implantação":"2019","Metodologia de Restauração":null,"Monitoramento":null,"Município":"Atibaia","UGRHI":"05 -  Piracicaba, Capivari e Jundiaí","Região Hidrográfica":"Paraná","Status do Projeto":null,"Fotos do Projeto":null},"geometry":{"type":"Polygon","coordinates":[[[-46.577472125951552,-23.128788118226119,0.0],[-46.577476329856481,-23.12863769689071,0.0],[-46.577418379022923,-23.128449599075779,0.0],[-46.577453257028047,-23.128250656888071,0.0],[-46.57752917834992,-23.128267445328181,0.0],[-46.577619014440828,-23.12799849624971,0.0],[-46.577829601493107,-23.128038767392219,0.0],[-46.577878716811391,-23.12787461240401,0.0],[-46.577932903107182,-23.127893992931909,0.0],[-46.5778231422887,-23.128252023307969,0.0],[-46.577589732016172,-23.128233516440989,0.0],[-46.577572113169623,-23.128460349875589,0.0],[-46.577762708160911,-23.128443391330219,0.0],[-46.577802596896753,-23.128830738029301,0.0],[-46.577472125951552,-23.128788118226119,0.0]]]}}
]
}
