{
"type": "FeatureCollection",
"name": "Visconde - SABESP 2º Licitação",
"crs": { "type": "name", "properties": { "name": "urn:ogc:def:crs:OGC:1.3:CRS84" } },
"features": [
{"type":"Feature","properties":{"id":null,"Name":"plantio","description":null,"timestamp":null,"begin":null,"end":null,"altitudeMode":null,"tessellate":1,"extrude":0,"visibility":-1,"drawOrder":null,"icon":null},"geometry":{"type":"MultiPolygon","coordinates":[[[[-46.535435098291629,-22.904276084091372,0.0],[-46.535560964096312,-22.904562518476869,0.0],[-46.535914517635227,-22.904967883295861,0.0],[-46.536347861358827,-22.90512062049843,0.0],[-46.537682497398322,-22.90475470451107,0.0],[-46.538847947295103,-22.904198474962278,0.0],[-46.538878699838072,-22.90418911005883,0.0],[-46.539439465323397,-22.903996730333251,0.0],[-46.539479182758683,-22.904271515005579,0.0],[-46.539163182365932,-22.904374588684171,0.0],[-46.539026720416267,-22.90441024020469,0.0],[-46.538665788203453,-22.904596706957431,0.0],[-46.53824831660431,-22.90486503103013,0.0],[-46.537893223748327,-22.905185935688671,0.0],[-46.537767286494407,-22.905242530936579,0.0],[-46.53762370160441,-22.905293258162391,0.0],[-46.53746583644228,-22.905426339304078,0.0],[-46.537210257171708,-22.90552263138667,0.0],[-46.536951810065467,-22.905571934584209,0.0],[-46.536655517448033,-22.905583609617199,0.0],[-46.536488130245033,-22.9055869028854,0.0],[-46.536426150513392,-22.905605932735831,0.0],[-46.536183383514683,-22.905566671321822,0.0],[-46.53609481306853,-22.905510834495711,0.0],[-46.5359584857813,-22.905438685934708,0.0],[-46.535681873586263,-22.905329902024359,0.0],[-46.535622112481391,-22.905327055823449,0.0],[-46.535503538909772,-22.905277531452199,0.0],[-46.535397130743533,-22.905209144941882,0.0],[-46.535323667744102,-22.905135790658569,0.0],[-46.53513702241078,-22.90475350388553,0.0],[-46.535101587165933,-22.90464495427608,0.0],[-46.535015061747643,-22.904586323447319,0.0],[-46.535018737147887,-22.904543416384548,0.0],[-46.534995870771077,-22.9045425329079,0.0],[-46.534795880596533,-22.90421225894999,0.0],[-46.53479779089006,-22.904022979662731,0.0],[-46.534803451688248,-22.903809769446809,0.0],[-46.535107134495021,-22.903458988488069,0.0],[-46.535435098291629,-22.904276084091372,0.0]]],[[[-46.532641362924537,-22.902784688101661,0.0],[-46.533028922429622,-22.902842954077421,0.0],[-46.533560980089533,-22.90285909740793,0.0],[-46.533969275196057,-22.902918074789142,0.0],[-46.53459097574266,-22.90294898125682,0.0],[-46.534872365985549,-22.902971658330209,0.0],[-46.534837418768248,-22.90304468073899,0.0],[-46.534915807740198,-22.90327959885909,0.0],[-46.535114855473793,-22.903459644929519,0.0],[-46.534927368643622,-22.903664771583529,0.0],[-46.534487983363178,-22.9031676280959,0.0],[-46.534072174599693,-22.903220819639259,0.0],[-46.533772766341372,-22.903232674923931,0.0],[-46.533536391269251,-22.903248273463639,0.0],[-46.533411677463732,-22.903250260780862,0.0],[-46.533343609227003,-22.903257900282028,0.0],[-46.532782735218063,-22.903390728028899,0.0],[-46.532467674893077,-22.903440427250491,0.0],[-46.532326750302147,-22.90344505618803,0.0],[-46.532200437759947,-22.903475021546889,0.0],[-46.532103930010962,-22.90350560433161,0.0],[-46.531741185603927,-22.903548986256659,0.0],[-46.531522182267643,-22.90355074820949,0.0],[-46.531430039201268,-22.90345731960883,0.0],[-46.531551298464947,-22.90341702821372,0.0],[-46.532402561279369,-22.903202041074039,0.0],[-46.532471146054483,-22.903115023061201,0.0],[-46.53246399914282,-22.9029788127174,0.0],[-46.532532521056787,-22.902834260360549,0.0],[-46.532641362924537,-22.902784688101661,0.0]]],[[[-46.531559387016209,-22.903342383605899,0.0],[-46.53153319695312,-22.903413801674709,0.0],[-46.531466541174566,-22.90343835110313,0.0],[-46.531428002208912,-22.90346003964461,0.0],[-46.531114826082458,-22.903407526860619,0.0],[-46.53073736942207,-22.903366928937249,0.0],[-46.530465590821898,-22.903445868030069,0.0],[-46.530347008511278,-22.903381561817209,0.0],[-46.530220618046613,-22.90338464833583,0.0],[-46.530110308429741,-22.90338323019909,0.0],[-46.529933435546852,-22.903423377216939,0.0],[-46.529953878027392,-22.90318727905046,0.0],[-46.530199901550667,-22.903212964480169,0.0],[-46.530347635856103,-22.90311485832375,0.0],[-46.530388081669869,-22.903036088397151,0.0],[-46.531021806014643,-22.903169228745629,0.0],[-46.531560977066917,-22.903266816579229,0.0],[-46.531559387016209,-22.903342383605899,0.0]]]]}}
]
}
