{
"type": "FeatureCollection",
"name": "Zaida - 1º plantio pré DA SERRA",
"crs": { "type": "name", "properties": { "name": "urn:ogc:def:crs:OGC:1.3:CRS84" } },
"xy_coordinate_resolution": 1e-15,
"features": [
{"type":"Feature","properties":{"Área (ha)":1.0,"Nome do Projeto":"Zaida (1)","Propriedade":"-","Tipo":"Recuperação Ambiental","Ano de Implantação":"2012","Metodologia de Restauração":null,"Monitoramento":null,"Município":"Joanópolis","UGRHI":"05 -  Piracicaba, Capivari e Jundiaí","Região Hidrográfica":"Paraná","Status do Projeto":null,"Fotos do Projeto":null},"geometry":{"type":"Polygon","coordinates":[[[-46.311293334608621,-22.902607243569339,0.0],[-46.311251258558862,-22.902517763875299,0.0],[-46.311312063882333,-22.902247824094069,0.0],[-46.311346518227957,-22.902030589299709,0.0],[-46.31131874227799,-22.901879041528691,0.0],[-46.311470863752497,-22.90175642660871,0.0],[-46.31177843018456,-22.901643393864958,0.0],[-46.311791301533482,-22.901630900437141,0.0],[-46.311976394876048,-22.901508815449489,0.0],[-46.312188225940183,-22.90129762969941,0.0],[-46.31231398281097,-22.901066399216891,0.0],[-46.312590636659813,-22.900773845322838,0.0],[-46.312919032213692,-22.900558160737159,0.0],[-46.313216789804827,-22.90040796610344,0.0],[-46.313448979647731,-22.90032630976442,0.0],[-46.31358426220033,-22.90043804507156,0.0],[-46.31354965327786,-22.900640271371451,0.0],[-46.312961067187658,-22.900851178462251,0.0],[-46.312719475917334,-22.900976995132041,0.0],[-46.312087580925102,-22.901769994423841,0.0],[-46.311815165190147,-22.90196420686614,0.0],[-46.311564775662312,-22.902015734087929,0.0],[-46.311555526946783,-22.902203384382549,0.0],[-46.311586496110053,-22.902676577207799,0.0],[-46.311342470130022,-22.902725156057588,0.0],[-46.311293334608621,-22.902607243569339,0.0]]]}}
]
}
