{
"type": "FeatureCollection",
"name": "Zaraplast 2024 ",
"crs": { "type": "name", "properties": { "name": "urn:ogc:def:crs:OGC:1.3:CRS84" } },
"xy_coordinate_resolution": 1e-15,
"features": [
{"type":"Feature","properties":{"Área (ha)":2.066,"Nome do Projeto":"Zaraplast","Propriedade":"Zaraplast","Tipo":"Recuperação Ambiental","Ano de Implantação":"2021","Metodologia de Restauração":null,"Monitoramento":"-","Município":"Cabreúva","UGRHI":"05 -  Piracicaba, Capivari e Jundiaí","Região Hidrográfica":"Paraná","Status do Projeto":"Finalizado","Fotos do Projeto":null},"geometry":{"type":"MultiPolygon","coordinates":[[[[-47.09155645229977,-23.28342803738154,0.0],[-47.091273797112052,-23.283318050340569,0.0],[-47.09080478944793,-23.283089318690291,0.0],[-47.090531620719091,-23.283074007743998,0.0],[-47.090376652080437,-23.283206022966471,0.0],[-47.090218302154717,-23.2832401599062,0.0],[-47.090214969839607,-23.282994691844252,0.0],[-47.090108906171757,-23.282923359655321,0.0],[-47.089961326449199,-23.282869897655061,0.0],[-47.089785716139097,-23.28275707224412,0.0],[-47.08955805648138,-23.282626767835481,0.0],[-47.089348359456217,-23.282541278674529,0.0],[-47.089370963359698,-23.282481034873811,0.0],[-47.089620828981879,-23.282456849905351,0.0],[-47.089754845326361,-23.282562806603519,0.0],[-47.089850218755203,-23.282476100169141,0.0],[-47.090045590310623,-23.28247264640909,0.0],[-47.090329412929798,-23.282594527578421,0.0],[-47.090483782957698,-23.282412895916039,0.0],[-47.090645350162511,-23.282312107270251,0.0],[-47.090777574100933,-23.28232550190976,0.0],[-47.090816966878293,-23.28242073506814,0.0],[-47.090893575450657,-23.282525244824221,0.0],[-47.091315629970971,-23.282663061812539,0.0],[-47.091558617566257,-23.283121142250561,0.0],[-47.09155645229977,-23.28342803738154,0.0]]],[[[-47.089628512893228,-23.281344046939822,0.0],[-47.089938387740503,-23.28132667305168,0.0],[-47.089927869686612,-23.281522689374459,0.0],[-47.089900723925503,-23.28168706002813,0.0],[-47.089512483645578,-23.281627355385211,0.0],[-47.089291896436478,-23.281617506146571,0.0],[-47.089104244713369,-23.281552512087512,0.0],[-47.088869469082248,-23.281504463995809,0.0],[-47.088738341101212,-23.28145254881791,0.0],[-47.088448089892523,-23.281257414798858,0.0],[-47.088447548972333,-23.281078698873909,0.0],[-47.088542384929333,-23.28102085511161,0.0],[-47.089501931499441,-23.280894960902572,0.0],[-47.089628512893228,-23.281344046939822,0.0]]]]}}
]
}
