{
"type": "FeatureCollection",
"name": "Aguas_do_Pontal",
"crs": { "type": "name", "properties": { "name": "urn:ogc:def:crs:OGC:1.3:CRS84" } },
"xy_coordinate_resolution": 1e-15,
"features": [
{"type":"Feature","properties":{"Área (ha)":60.375573629172301,"Nome do Projeto":"Águas do Pontal","Propriedade":"Fazenda Nova Esperança","Tipo":"Programa Nascentes","Ano de Implantação":"2023","Metodologia de Restauração":null,"Monitoramento":"3 anos","Município":"Euclides da Cunha","UGRHI":"22 - Pontal do Paranapanema ","Região Hidrográfica":"Paraná","Status do Projeto":"Ativo","Fotos do Projeto":""},"geometry":{"type":"MultiPolygon","coordinates":[[[[-52.639352451388902,-22.496495831666699],[-52.639719765555597,-22.496280879444399],[-52.6404287936111,-22.496275836944399],[-52.6409049775,-22.4961890377778],[-52.64133018,-22.4962168002778],[-52.641637006971102,-22.496497148743799],[-52.641629031757702,-22.496317399704498],[-52.641572340296896,-22.496283387779201],[-52.641563470507798,-22.496244952026402],[-52.641569561286801,-22.496239538000601],[-52.641378029234403,-22.4961947113501],[-52.641168188087804,-22.4961179401989],[-52.640809922715498,-22.4961179401989],[-52.640513074264099,-22.4961435305826],[-52.640134336584801,-22.4961998294268],[-52.639985912359201,-22.496235655964099],[-52.639878432747501,-22.496235655964099],[-52.639668591600802,-22.4962100655803],[-52.639581584296103,-22.4961691209663],[-52.639463868530903,-22.4962458921175],[-52.639248909307497,-22.496256128271],[-52.638960110520699,-22.496376090844102],[-52.638944270833299,-22.4964174061111],[-52.6384127458333,-22.4967566894444],[-52.638350537777796,-22.496820329166699],[-52.638645488055602,-22.4968699419444],[-52.638942624444397,-22.496648587500001],[-52.6391522866667,-22.496552188611101],[-52.639352451388902,-22.496495831666699]]],[[[-52.638016431173398,-22.496728571144299],[-52.638249013058797,-22.496233589182999],[-52.638442234932903,-22.495830447248299],[-52.638968824175997,-22.494516657777599],[-52.636002208081003,-22.4958666619006],[-52.6360680162907,-22.496855400544],[-52.636117608806202,-22.497502651368102],[-52.636227339747101,-22.4980608478931],[-52.637253085498202,-22.497409618613901],[-52.637796969291799,-22.496948033025902],[-52.638016431173398,-22.496728571144299]]],[[[-52.639806779673002,-22.495805737517301],[-52.6400933919709,-22.495846682131301],[-52.640364650038499,-22.495780147133502],[-52.640738269640998,-22.495708494059102],[-52.640878841618402,-22.495636974982901],[-52.6394962713889,-22.495758258888898],[-52.639182328611099,-22.495796470833302],[-52.639110481252999,-22.495983873066798],[-52.639182374309797,-22.495995106356901],[-52.639330798535497,-22.495943925589501],[-52.639489458914703,-22.495841564054501],[-52.639806779673002,-22.495805737517301]]],[[[-52.645492962939301,-22.495038026005201],[-52.645073280646002,-22.4952427490751],[-52.644689424889997,-22.495416763684499],[-52.6439933664523,-22.495595896370599],[-52.643194946479802,-22.495728966366102],[-52.642897053987802,-22.495798474614201],[-52.642232237795803,-22.496119082122298],[-52.642076497639302,-22.4961838465616],[-52.641975577361002,-22.496276318089599],[-52.642024117777801,-22.496324874722202],[-52.644880637222201,-22.4955225625],[-52.646106940311697,-22.494921506091298],[-52.645989416383799,-22.494930546393501],[-52.645492962939301,-22.495038026005201]]],[[[-52.641506948546102,-22.4952281198014],[-52.641537959464202,-22.495065908845401],[-52.641558832197497,-22.495019392468301],[-52.641601770391702,-22.494986592458801],[-52.641710606786802,-22.4949982215531],[-52.6421438650939,-22.493911944875499],[-52.642359450610599,-22.4935520393168],[-52.640003487467801,-22.494229834675899],[-52.639015936916898,-22.4945065195928],[-52.638498293130901,-22.4958244836102],[-52.640816061073501,-22.495565959899],[-52.640967537481004,-22.495528985342901],[-52.641134519347403,-22.495459807141],[-52.641506948546102,-22.4952281198014]]],[[[-52.649120523313101,-22.494466881058202],[-52.648609871678403,-22.4945159821769],[-52.647698854017399,-22.494495509869999],[-52.647105157114702,-22.494475037562999],[-52.646705947128403,-22.494567162944399],[-52.646560948402403,-22.494698979968],[-52.646716395833302,-22.494622789444399],[-52.649116874048502,-22.494592983423001],[-52.649120523313101,-22.494466881058202]]],[[[-52.643368961089202,-22.495078970619101],[-52.6438910049174,-22.494915192163202],[-52.644443757206098,-22.494669524479399],[-52.644853203345903,-22.4943624398745],[-52.645477608709101,-22.494116772190701],[-52.646009888690799,-22.493973466041702],[-52.646378390216597,-22.493932521427698],[-52.646470515597997,-22.493993938348702],[-52.646654766361003,-22.494014410655701],[-52.646859489430803,-22.494004174502201],[-52.647197282496201,-22.493778979125299],[-52.647647673249899,-22.4935844922089],[-52.648241370152597,-22.4935742560554],[-52.648599635524903,-22.4935844922089],[-52.649029553971701,-22.493738034511299],[-52.649141615335303,-22.493738034511299],[-52.649150488699398,-22.4934314104861],[-52.647610409166703,-22.4933638369444],[-52.644962069722197,-22.4940770338889],[-52.641947577740098,-22.4952949605625],[-52.642035613391997,-22.4953069682417],[-52.642186862165197,-22.4953357774707],[-52.642304347597303,-22.4953259644074],[-52.642591013423598,-22.4952222767681],[-52.643368961089202,-22.495078970619101]]],[[[-52.643620446324299,-22.494497163917799],[-52.645380310714202,-22.493880106533201],[-52.647545523941503,-22.493285040053301],[-52.648563422262697,-22.493370846257601],[-52.650997482199003,-22.493470635657001],[-52.6512646531854,-22.492087071620599],[-52.648425961455601,-22.491974955224599],[-52.646647604577801,-22.4922373553004],[-52.645191284156802,-22.492599944496099],[-52.642439687253002,-22.493516946130899],[-52.642234512392903,-22.493873777591698],[-52.641734759521,-22.495138367048099],[-52.642099734172,-22.495069188846301],[-52.642688941615098,-22.494928446987501],[-52.643620446324299,-22.494497163917799]]],[[[-52.651185106944403,-22.49352066],[-52.649344477912003,-22.493439919916799],[-52.649347797446502,-22.4937663424408],[-52.649740966639598,-22.493821203258499],[-52.650201593546903,-22.493831439411998],[-52.6510767846707,-22.493831439411998],[-52.651573238115198,-22.493821203258499],[-52.651829141952597,-22.493729077876999],[-52.652151580787603,-22.493601125958399],[-52.652601971541401,-22.4935192367304],[-52.652601971541401,-22.4936215982653],[-52.652545672697201,-22.493810967104999],[-52.652581499234401,-22.493964509407402],[-52.6527299234601,-22.494051516712101],[-52.652893701916,-22.494061752865601],[-52.6528681115323,-22.494256239782001],[-52.652811812688,-22.4943227747797],[-52.652555908850701,-22.4944097820844],[-52.652514600865302,-22.494452886069201],[-52.652632697222202,-22.494443111111099],[-52.658171934478801,-22.495207325384499],[-52.658508480643299,-22.490792631578799],[-52.652448070480901,-22.490070478242799],[-52.651991158055601,-22.4934226502778],[-52.651185106944403,-22.49352066]],[[-52.652575895546299,-22.493733969951698],[-52.652798699053797,-22.493592079296899],[-52.652829459105199,-22.4935981304546],[-52.652890769765598,-22.493580277781302],[-52.653006759315602,-22.493586077258801],[-52.653200075232199,-22.4935319488022],[-52.6534011237854,-22.4935222830063],[-52.653733627161998,-22.493526149324701],[-52.653824485642801,-22.493487486141301],[-52.654066130538503,-22.493458488753902],[-52.654201451680102,-22.493386961864701],[-52.654398633915001,-22.493367630273099],[-52.654636412492401,-22.493375362909699],[-52.654835527886497,-22.493313501816399],[-52.655150632830598,-22.493234242290601],[-52.6553400824288,-22.493234242290601],[-52.6556300563037,-22.493125985377301],[-52.655925829656098,-22.493021594782402],[-52.656269931987602,-22.492839877820799],[-52.656256399873499,-22.492791548841598],[-52.656316327807602,-22.492737420385001],[-52.656412985765897,-22.4926948908833],[-52.656687494367503,-22.4923662538251],[-52.656749355460803,-22.492261863230201],[-52.656813149713301,-22.492109143656101],[-52.656967802446502,-22.491964156718598],[-52.657190115750602,-22.491765041324498],[-52.657253910003099,-22.491625853864601],[-52.657344768483902,-22.491448003221301],[-52.657478156466297,-22.491275952055499],[-52.6574085627364,-22.491221823598899],[-52.657379565348897,-22.4911097003673],[-52.657435626964698,-22.491038173478099],[-52.657483955943803,-22.491115499844799],[-52.657592212857097,-22.4911251656406],[-52.6576772718604,-22.491022708204799],[-52.657758464545402,-22.4910091760906],[-52.657915050437801,-22.4910323740006],[-52.657992376804501,-22.4910787698206],[-52.6580967673994,-22.491287551010501],[-52.658017507873602,-22.491502131678001],[-52.657818392479498,-22.4916761160029],[-52.6577603977046,-22.491712846026999],[-52.657549683355498,-22.492093678382702],[-52.657456891715498,-22.492219333728499],[-52.657462691192997,-22.492259930071],[-52.657416295372997,-22.492302459572599],[-52.657387297985601,-22.492317924845999],[-52.657364100075597,-22.492416515963399],[-52.657250043684797,-22.492559569741701],[-52.657101190429003,-22.492662027177499],[-52.656859545533301,-22.492876607844899],[-52.656731957028299,-22.493011928986501],[-52.656540574270899,-22.493129851695699],[-52.6564516489493,-22.493205244903098],[-52.656194538780198,-22.493357964477202],[-52.655964492839402,-22.493417892411401],[-52.655788575355302,-22.4934546224355],[-52.655657120532098,-22.493419825570498],[-52.655483136207103,-22.493493285618801],[-52.655042375917297,-22.493582210940499],[-52.654976648505702,-22.493599609373],[-52.654827795249901,-22.493564812508001],[-52.654736936769098,-22.493618940964598],[-52.654561019284998,-22.4936982004904],[-52.654371569686703,-22.493773593697899],[-52.6540680636977,-22.493773593697899],[-52.653919210441899,-22.493802591085402],[-52.653501648062097,-22.493901182202901],[-52.653327663737102,-22.4939456448637],[-52.653213607346302,-22.4939591769778],[-52.653029798571197,-22.493970546592799],[-52.653021687023198,-22.493976155124599],[-52.652978114509899,-22.494035341012001],[-52.652896029007103,-22.494059380337799],[-52.652731271676501,-22.494048826487401],[-52.652585276746599,-22.493963223034498],[-52.652549510920402,-22.493809019554298],[-52.652575895546299,-22.493733969951698]]],[[[-52.6514096441364,-22.4916550060411],[-52.651061367672099,-22.493502541120701],[-52.651204494986203,-22.493502541120701],[-52.651986924303301,-22.4934178574599],[-52.652447391709103,-22.490070392855799],[-52.651736451503602,-22.4899932382881],[-52.6514096441364,-22.4916550060411]]]]}}
]
}
