{
"type": "FeatureCollection",
"name": "Batata - Salesopolis - Licitação Pref",
"crs": { "type": "name", "properties": { "name": "urn:ogc:def:crs:OGC:1.3:CRS84" } },
"xy_coordinate_resolution": 1e-15,
"features": [
{"type":"Feature","properties":{"Área (ha)":0.44944906478464619,"Nome do Projeto":null,"Propriedade":null,"Tipo":null,"Ano de Implantação":null,"Metodologia de Restauração":null,"Monitoramento":null,"Município":null,"UGRHI":null,"Região Hidrográfica":null,"Status do Projeto":null,"Fotos do Projeto":null},"geometry":{"type":"Polygon","coordinates":[[[-45.821041616782473,-23.531409392433019,0.0],[-45.821016312754978,-23.531398270611341,0.0],[-45.821083813862671,-23.530971646859928,0.0],[-45.821095581721657,-23.530947155681769,0.0],[-45.821117931430607,-23.530941604390179,0.0],[-45.821363244618553,-23.53102032464928,0.0],[-45.821451763875586,-23.5312211712478,0.0],[-45.821570862128873,-23.531206700292699,0.0],[-45.821576433140201,-23.53131239646666,0.0],[-45.821623782531411,-23.531292512113549,0.0],[-45.821731452347052,-23.53125429413419,0.0],[-45.821776168206512,-23.531227515045551,0.0],[-45.821782188608587,-23.531175395627692,0.0],[-45.821876167839093,-23.53115112031729,0.0],[-45.821995932797527,-23.531088096809292,0.0],[-45.822028696777863,-23.531217689894909,0.0],[-45.822060559443038,-23.53127364721313,0.0],[-45.822101341127933,-23.531342307266009,0.0],[-45.821816131640453,-23.531507392913841,0.0],[-45.821727280143968,-23.531584515945749,0.0],[-45.821737073274022,-23.531643844697239,0.0],[-45.821745076185287,-23.531680284930118,0.0],[-45.821672135654538,-23.53180957978612,0.0],[-45.821635212369728,-23.531841102551919,0.0],[-45.821506009690069,-23.53182759143894,0.0],[-45.821408925064652,-23.531736896829749,0.0],[-45.821381287585488,-23.531635399354581,0.0],[-45.821429792414058,-23.5315406802703,0.0],[-45.821566293782432,-23.531520767809919,0.0],[-45.821665018149552,-23.531518546006151,0.0],[-45.821711366824687,-23.531475395159411,0.0],[-45.821713104964942,-23.531428846270721,0.0],[-45.821495308810803,-23.53140476381374,0.0],[-45.821314391554317,-23.531360804559782,0.0],[-45.821041603718093,-23.531459491846721,0.0],[-45.821041616782473,-23.531409392433019,0.0]]]}}
]
}
