{
"type": "FeatureCollection",
"name": "Bosque da Memória Da Serra",
"crs": { "type": "name", "properties": { "name": "urn:ogc:def:crs:OGC:1.3:CRS84" } },
"xy_coordinate_resolution": 1e-15,
"features": [
{"type":"Feature","properties":{"Área (ha)":0.14214473082206969,"Nome do Projeto":null,"Propriedade":null,"Tipo":null,"Ano de Implantação":null,"Metodologia de Restauração":null,"Monitoramento":null,"Município":null,"UGRHI":null,"Região Hidrográfica":null,"Status do Projeto":null,"Fotos do Projeto":null},"geometry":{"type":"Polygon","coordinates":[[[-46.282191839123129,-22.905981178176489,0.0],[-46.282208730226948,-22.906014610830521,0.0],[-46.282161565943312,-22.90602757459218,0.0],[-46.282120183578833,-22.906008955681369,0.0],[-46.281868660042377,-22.905885721438288,0.0],[-46.281780445721068,-22.905853285192741,0.0],[-46.281785462196041,-22.90580397226335,0.0],[-46.281806361476661,-22.905754426706991,0.0],[-46.281731607359553,-22.905666759344239,0.0],[-46.281653000452408,-22.905614817252111,0.0],[-46.281644759369463,-22.90557593623004,0.0],[-46.281644281382903,-22.905540537234121,0.0],[-46.281690076139391,-22.905510639431689,0.0],[-46.282245308772282,-22.905844756634991,0.0],[-46.282191839123129,-22.905981178176489,0.0]]]}}
]
}
