{
"type": "FeatureCollection",
"name": "Fabrica_colchões Atibaia 2016",
"crs": { "type": "name", "properties": { "name": "urn:ogc:def:crs:OGC:1.3:CRS84" } },
"xy_coordinate_resolution": 1e-15,
"features": [
{"type":"Feature","properties":{"Área (ha)":0.56597327283620835,"Nome do Projeto":null,"Propriedade":null,"Tipo":null,"Ano de Implantação":null,"Metodologia de Restauração":null,"Monitoramento":null,"Município":null,"UGRHI":null,"Região Hidrográfica":null,"Status do Projeto":null,"Fotos do Projeto":null},"geometry":{"type":"Polygon","coordinates":[[[-46.49460348575893,-23.112864653522831,0.0],[-46.494375215643728,-23.11306330495831,0.0],[-46.493077130483208,-23.112121820824949,0.0],[-46.493357094642377,-23.111914104942858,0.0],[-46.49460348575893,-23.112864653522831,0.0]]]}}
]
}
