{
"type": "FeatureCollection",
"name": "Fase_I_Fazenda Porto_Feliz - SOS - Limeira",
"crs": { "type": "name", "properties": { "name": "urn:ogc:def:crs:OGC:1.3:CRS84" } },
"xy_coordinate_resolution": 1e-15,
"features": [
{"type":"Feature","properties":{"Área (ha)":13.135972717262298,"Nome do Projeto":null,"Propriedade":null,"Tipo":null,"Ano de Implantação":null,"Metodologia de Restauração":null,"Monitoramento":null,"Município":null,"UGRHI":null,"Região Hidrográfica":null,"Status do Projeto":null,"Fotos do Projeto":null},"geometry":{"type":"MultiPolygon","coordinates":[[[[-47.479561208643297,-22.7034652891452,0.0],[-47.479484417003107,-22.703471087704699,0.0],[-47.479385932969208,-22.703516588063099,0.0],[-47.479377524938201,-22.703520318404099,0.0],[-47.479332200224199,-22.7035355452077,0.0],[-47.479375511825801,-22.703949720075801,0.0],[-47.479561558572797,-22.703885127941199,0.0],[-47.479630375224502,-22.703861576085899,0.0],[-47.479766254947599,-22.7038150724144,0.0],[-47.479950791261309,-22.703769215426199,0.0],[-47.480166470697,-22.703737206840898,0.0],[-47.480376959456898,-22.703702889879999,0.0],[-47.480477077789601,-22.7036870051233,0.0],[-47.480566944102392,-22.703673667960299,0.0],[-47.480685250818901,-22.703667055351101,0.0],[-47.480858251980891,-22.703695423213802,0.0],[-47.4809641633586,-22.703715277421299,0.0],[-47.481072906778799,-22.70374941927,0.0],[-47.481171398262497,-22.703786108732601,0.0],[-47.481225503255509,-22.703814831463401,0.0],[-47.481250669591901,-22.703569958624001,0.0],[-47.481184205537801,-22.703427993142999,0.0],[-47.481043711742302,-22.703349955405798,0.0],[-47.480930215801187,-22.703309863659701,0.0],[-47.480699968752099,-22.703257632240401,0.0],[-47.480413790806402,-22.703230682203401,0.0],[-47.480223751642292,-22.703125829912398,0.0],[-47.480192016662201,-22.7031298459837,0.0],[-47.479889599565297,-22.703168117619001,0.0],[-47.479404441152802,-22.7032055231012,0.0],[-47.479255831630297,-22.703274181785499,0.0],[-47.479794228572203,-22.703407571139898,0.0],[-47.479761386844203,-22.703450173455298,0.0],[-47.479561208643297,-22.7034652891452,0.0]]],[[[-47.483089136152799,-22.709622756231902,0.0],[-47.483002926258791,-22.709689716161499,0.0],[-47.48294745588921,-22.709761107334199,0.0],[-47.482915202111002,-22.709828489245599,0.0],[-47.482896679411397,-22.709943430006099,0.0],[-47.482893858449202,-22.710072458530401,0.0],[-47.482924411675803,-22.710196191487999,0.0],[-47.482995672983691,-22.7102930174919,0.0],[-47.483097174529,-22.7103535446597,0.0],[-47.483198202119297,-22.7103878044603,0.0],[-47.483304291315797,-22.710417208354698,0.0],[-47.4833290156133,-22.710416824281001,0.0],[-47.4834149680267,-22.7104154890438,0.0],[-47.4835305338285,-22.7104157017829,0.0],[-47.483560351487803,-22.710415756672599,0.0],[-47.483679215256402,-22.710363611684109,0.0],[-47.483788814275599,-22.710302193747399,0.0],[-47.4838790597978,-22.710167029714,0.0],[-47.484001041137503,-22.709935828348101,0.0],[-47.484173335371402,-22.709639352783299,0.0],[-47.484177796438097,-22.709631085326802,0.0],[-47.484382598446999,-22.709251535619899,0.0],[-47.484519349819593,-22.7089646192223,0.0],[-47.484587168746899,-22.708847680729701,0.0],[-47.484007886834497,-22.708623523986301,0.0],[-47.483966695706101,-22.708691637868402,0.0],[-47.483957975375503,-22.708707403508601,0.0],[-47.4839503851126,-22.708723664534499,0.0],[-47.483946682066801,-22.708732852020901,0.0],[-47.4839244045463,-22.708791336416098,0.0],[-47.483887715336401,-22.7088374253495,0.0],[-47.483881536049999,-22.708845492732902,0.0],[-47.483799856878001,-22.708956365650501,0.0],[-47.4837826212447,-22.7089830769767,0.0],[-47.4837789867941,-22.708989518332999,0.0],[-47.483576508019503,-22.7092377858331,0.0],[-47.483555466277103,-22.709261937563699,0.0],[-47.483460481027798,-22.709370961586899,0.0],[-47.483361824403403,-22.709468038360399,0.0],[-47.483280538255997,-22.7095290161765,0.0],[-47.483218466360299,-22.709564526289299,0.0],[-47.483210164371492,-22.7095692756942,0.0],[-47.483198993478098,-22.709575666340601,0.0],[-47.483174690999903,-22.7095860835013,0.0],[-47.483089136152799,-22.709622756231902,0.0]]],[[[-47.483548465999803,-22.706468804999801,0.0],[-47.483445725638788,-22.706461565153099,0.0],[-47.483410983999804,-22.706459116999898,0.0],[-47.483340247999791,-22.706345920999802,0.0],[-47.483244941999899,-22.706247268999899,0.0],[-47.483198068,-22.706156868999901,0.0],[-47.4832325739998,-22.706045370999799,0.0],[-47.4832021739998,-22.705940295999898,0.0],[-47.483131154999803,-22.705842036,0.0],[-47.483106961951897,-22.705802191345299,0.0],[-47.483095086142697,-22.705782632523501,0.0],[-47.483076185999799,-22.705751504999899,0.0],[-47.483001334883191,-22.705694256864302,0.0],[-47.482996363999902,-22.705690455,0.0],[-47.482915786,-22.705748881999899,0.0],[-47.482910200160603,-22.7057497731046,0.0],[-47.482975503782399,-22.705944624722601,0.0],[-47.482974750508397,-22.7061882742947,0.0],[-47.482976387621498,-22.70627901592,0.0],[-47.482991335735107,-22.7065367532789,0.0],[-47.483019486459497,-22.706670078050699,0.0],[-47.483134026559398,-22.706739957343299,0.0],[-47.483296575404502,-22.706792174603201,0.0],[-47.48333797749099,-22.706754449670498,0.0],[-47.483366733617103,-22.706723998257502,0.0],[-47.483392420279003,-22.706686152391999,0.0],[-47.4834093678312,-22.7066495421188,0.0],[-47.483431063530901,-22.706591137012399,0.0],[-47.483504689059806,-22.706542165945201,0.0],[-47.483552389008203,-22.706477934112499,0.0],[-47.483548465999803,-22.706468804999801,0.0]]],[[[-47.482579524999899,-22.705855578999898,0.0],[-47.482550152200702,-22.705851709433599,0.0],[-47.482498698999898,-22.705844930999898,0.0],[-47.482463473984403,-22.705809172500299,0.0],[-47.482419200999892,-22.7057642289999,0.0],[-47.4824103159999,-22.705698680999902,0.0],[-47.4824525,-22.705610598999801,0.0],[-47.482518845999799,-22.705583638999901,0.0],[-47.482616010999912,-22.7055338169999,0.0],[-47.482591759999792,-22.705477364999901,0.0],[-47.482527538999797,-22.705392237999899,0.0],[-47.4825250439998,-22.705256716999902,0.0],[-47.48251917357679,-22.705186943447099,0.0],[-47.4825085129998,-22.705060235999898,0.0],[-47.482459479999797,-22.704975353999899,0.0],[-47.4824610739999,-22.704891287999899,0.0],[-47.482453947,-22.704833233999899,0.0],[-47.482436641887801,-22.704807419416898,0.0],[-47.482377752999902,-22.704719572999899,0.0],[-47.482335761999899,-22.704638585999799,0.0],[-47.482328310828599,-22.704627355666101,0.0],[-47.482276515999899,-22.7045492909999,0.0],[-47.482203455999901,-22.704499926999901,0.0],[-47.482153228305187,-22.7044492713712,0.0],[-47.482126576999804,-22.704422392999899,0.0],[-47.482115121999897,-22.704337882999901,0.0],[-47.482038242999899,-22.704260348999899,0.0],[-47.4820319425557,-22.7042558899619,0.0],[-47.481993880643699,-22.704343162341399,0.0],[-47.481998609239909,-22.7045409243626,0.0],[-47.482035249481903,-22.704577662751699,0.0],[-47.482077161877399,-22.704617618472799,0.0],[-47.482140611882897,-22.704709789212199,0.0],[-47.482243443784192,-22.704844343479401,0.0],[-47.482278151801097,-22.704913074274302,0.0],[-47.482305483064202,-22.705001028444901,0.0],[-47.482325265302208,-22.705098654238899,0.0],[-47.482316305296699,-22.705172840182598,0.0],[-47.482257979943299,-22.705364834301999,0.0],[-47.482204328291203,-22.7055304811661,0.0],[-47.482113275505988,-22.705763589663999,0.0],[-47.482056920577108,-22.705922112639101,0.0],[-47.482057437361597,-22.705950767910199,0.0],[-47.482083390651297,-22.705962308048299,0.0],[-47.4821349096419,-22.705963896858101,0.0],[-47.4822019144762,-22.705967633843802,0.0],[-47.482255964193207,-22.7059667947176,0.0],[-47.482315290709103,-22.705973039470098,0.0],[-47.482369728061698,-22.7059936917538,0.0],[-47.482426825369302,-22.706019079933,0.0],[-47.482572527297101,-22.705869669691999,0.0],[-47.482579524999899,-22.705855578999898,0.0]]],[[[-47.484277098402302,-22.707563559852701,0.0],[-47.4842657859217,-22.707597711591902,0.0],[-47.484263340626299,-22.707606196432799,0.0],[-47.48425931561421,-22.707623518840691,0.0],[-47.484258293074397,-22.707629846724899,0.0],[-47.4842566506317,-22.707640006964802,0.0],[-47.484240633483303,-22.7077652057094,0.0],[-47.484231186532803,-22.707839048148699,0.0],[-47.484889632906999,-22.707946856180001,0.0],[-47.484905603568201,-22.707846074027099,0.0],[-47.4849111691071,-22.707726557336699,0.0],[-47.484926442725701,-22.707678040409402,0.0],[-47.484933083070203,-22.7076569472231,0.0],[-47.484962847835298,-22.707594380893099,0.0],[-47.484995574472897,-22.707553265955099,0.0],[-47.485038984453197,-22.707533482388101,0.0],[-47.485095522244997,-22.707527826375198,0.0],[-47.485298810850693,-22.707522277752599,0.0],[-47.485379141439509,-22.7075251342158,0.0],[-47.485625987744413,-22.707533911629401,0.0],[-47.485765319008898,-22.707550854180699,0.0],[-47.485894355020491,-22.7075679566879,0.0],[-47.486017984590703,-22.707570811542599,0.0],[-47.486198151878703,-22.707568009900299,0.0],[-47.486350093428499,-22.707570424220801,0.0],[-47.486453132431699,-22.707573598955101,0.0],[-47.486587014096798,-22.707573905320999,0.0],[-47.486739343972097,-22.707597810643001,0.0],[-47.486878589033893,-22.707609976344902,0.0],[-47.486999946848499,-22.7076295859788,0.0],[-47.4871162002094,-22.707651663526701,0.0],[-47.4872427488718,-22.7076735808193,0.0],[-47.487374531523599,-22.707700193778301,0.0],[-47.4875007781066,-22.707705395356701,0.0],[-47.487663144473998,-22.7077148120134,0.0],[-47.487810154276502,-22.7077292446671,0.0],[-47.488175981783002,-22.7077426604137,0.0],[-47.488551931815401,-22.707746363356101,0.0],[-47.488726994536989,-22.707746026898,0.0],[-47.488902186801297,-22.707752854027198,0.0],[-47.4890646827456,-22.707769433023799,0.0],[-47.489333050740292,-22.707803472186299,0.0],[-47.489637927462802,-22.707863216934498,0.0],[-47.489744015589388,-22.707892616610799,0.0],[-47.489929719274897,-22.707911221883101,0.0],[-47.490040911908899,-22.707938153257501,0.0],[-47.490286115949701,-22.707972551552199,0.0],[-47.490376458850598,-22.7079854758708,0.0],[-47.490518018820907,-22.707983270702702,0.0],[-47.490682959224301,-22.707992644146699,0.0],[-47.4908476835218,-22.707990077804599,0.0],[-47.490917176577589,-22.707988995078399,0.0],[-47.491053848214499,-22.708001197172699,0.0],[-47.491141617344802,-22.7080141611542,0.0],[-47.491227072042797,-22.708041492724,0.0],[-47.491333030848999,-22.7080637275361,0.0],[-47.491424152030199,-22.708119633836802,0.0],[-47.491512483293107,-22.708163640582899,0.0],[-47.49161385665009,-22.7082169983947,0.0],[-47.491715143605909,-22.708265580292899,0.0],[-47.491782279129197,-22.708276476897598,0.0],[-47.491877683445502,-22.708284544262501,0.0],[-47.492006374460303,-22.708282538337201,0.0],[-47.492147285881202,-22.708244512896201,0.0],[-47.492285450403813,-22.708196975781799,0.0],[-47.492589139547093,-22.7080489255789,0.0],[-47.492752782291298,-22.707986659288299,0.0],[-47.492829520862003,-22.707959188228401,0.0],[-47.492929077640397,-22.7079122525804,0.0],[-47.492974757362397,-22.707875711383501,0.0],[-47.493022188939698,-22.707793759584,0.0],[-47.493086512347098,-22.707649440938301,0.0],[-47.493138269441602,-22.707522038389609,0.0],[-47.493242605356002,-22.707312603713799,0.0],[-47.493314952582701,-22.707184880025299,0.0],[-47.4933954537114,-22.707080915077501,0.0],[-47.493531626301298,-22.706923532788799,0.0],[-47.493678050471303,-22.706763601916201,0.0],[-47.493761427768099,-22.706676312106399,0.0],[-47.4938473354743,-22.706586594197699,0.0],[-47.494035025981297,-22.706430796548901,0.0],[-47.494215211108298,-22.7062870587554,0.0],[-47.494407831930502,-22.706119240850001,0.0],[-47.494499612741002,-22.706009045153099,0.0],[-47.494313190814808,-22.706138307217302,0.0],[-47.494259749862501,-22.706162112858301,0.0],[-47.49422090136369,-22.7061720008201,0.0],[-47.494208557999897,-22.706183147999901,0.0],[-47.494158673999799,-22.7062474489999,0.0],[-47.494047418999898,-22.706339949,0.0],[-47.493980631999897,-22.706397243999799,0.0],[-47.493909275999798,-22.706438750999901,0.0],[-47.493837580999902,-22.7064982119999,0.0],[-47.493795000731403,-22.7065409738209,0.0],[-47.493760372765287,-22.7065975599936,0.0],[-47.493738695623392,-22.7066221287998,0.0],[-47.493546968413298,-22.706761452909301,0.0],[-47.493425660057497,-22.706935509432999,0.0],[-47.4934009934287,-22.706962792217698,0.0],[-47.493372682764807,-22.706986837571101,0.0],[-47.493341217242303,-22.707007230013801,0.0],[-47.493246627643202,-22.707052951258401,0.0],[-47.493026465530413,-22.707222920352301,0.0],[-47.493005589999797,-22.707287693999898,0.0],[-47.492928410999887,-22.707386798999799,0.0],[-47.492871381999898,-22.707452778999901,0.0],[-47.492809796999893,-22.707464653999899,0.0],[-47.492701003999798,-22.707465477999801,0.0],[-47.4926444268038,-22.707449490527001,0.0],[-47.492480229682101,-22.707491336119499,0.0],[-47.492294995182696,-22.707579408224799,0.0],[-47.492168264,-22.7076138659999,0.0],[-47.492192483999801,-22.707660567999799,0.0],[-47.492200216999798,-22.707694140999902,0.0],[-47.492236124999899,-22.707712728999901,0.0],[-47.492250017999901,-22.707715524999799,0.0],[-47.492277705999904,-22.707726261999891,0.0],[-47.492333423999902,-22.707729730999809,0.0],[-47.492383710999803,-22.707725392999802,0.0],[-47.492450678999788,-22.707723895999798,0.0],[-47.492492552,-22.707721996999801,0.0],[-47.4925537969999,-22.7077281269998,0.0],[-47.49259528199989,-22.7077468039999,0.0],[-47.492555323,-22.707795047999898,0.0],[-47.492518102999902,-22.707845909,0.0],[-47.492472226999801,-22.707912067999899,0.0],[-47.492339378999901,-22.708005131999901,0.0],[-47.492229322999897,-22.7080728329999,0.0],[-47.492086389999812,-22.708109129,0.0],[-47.491958127999801,-22.708107066999901,0.0],[-47.491923938999903,-22.708145111999901,0.0],[-47.491881483,-22.708177877999901,0.0],[-47.491772786999903,-22.7081735579998,0.0],[-47.491715058999901,-22.708128888999791,0.0],[-47.491646468999797,-22.708068607999799,0.0],[-47.491580229999798,-22.708031521999899,0.0],[-47.4915024,-22.7080174059999,0.0],[-47.4914188959999,-22.708008343999801,0.0],[-47.491375303999902,-22.707953610999802,0.0],[-47.491376615999897,-22.7078841629998,0.0],[-47.49139490199989,-22.707802122,0.0],[-47.4914216,-22.7077176439998,0.0],[-47.491450600999897,-22.707658932999902,0.0],[-47.491473976999899,-22.7076027029999,0.0],[-47.491455478999903,-22.707548373999899,0.0],[-47.491411400999802,-22.7075193629999,0.0],[-47.491370110999803,-22.707490395999798,0.0],[-47.491347950999902,-22.707482320999802,0.0],[-47.491278631999897,-22.707460623,0.0],[-47.49123440799989,-22.7074393279999,0.0],[-47.491179321999802,-22.707402420999902,0.0],[-47.4911408624166,-22.707409700020001,0.0],[-47.490992860928898,-22.707447304550701,0.0],[-47.490949084999798,-22.7074884449999,0.0],[-47.491002731999899,-22.7075513899999,0.0],[-47.491014364999899,-22.707595264999799,0.0],[-47.490991331,-22.707627085999899,0.0],[-47.490977915999913,-22.7076774559999,0.0],[-47.491011758999797,-22.707733183999899,0.0],[-47.4910316059999,-22.707738101999801,0.0],[-47.491067766999791,-22.707803065999901,0.0],[-47.491131772999907,-22.707845482999801,0.0],[-47.491116256999803,-22.707875124999799,0.0],[-47.491063320999793,-22.707906464999809,0.0],[-47.491028174999798,-22.707919695999799,0.0],[-47.49099788199981,-22.707939902999801,0.0],[-47.490920896,-22.7079248679998,0.0],[-47.490809502999888,-22.707883987999899,0.0],[-47.490744542999799,-22.707892139999899,0.0],[-47.490615777999793,-22.707831204999799,0.0],[-47.490514763999897,-22.707829579999899,0.0],[-47.490385465999907,-22.7078275,0.0],[-47.49036816483131,-22.707829496703201,0.0],[-47.4903004029999,-22.7078373169999,0.0],[-47.490150972999899,-22.7078311849999,0.0],[-47.490079158999897,-22.707781558999901,0.0],[-47.489978779999902,-22.707746387999901,0.0],[-47.489870108,-22.707722267999891,0.0],[-47.489756624678698,-22.707701905700102,0.0],[-47.4897331519998,-22.707697693999901,0.0],[-47.489649544696398,-22.707696348320599,0.0],[-47.489611935999903,-22.7076957429998,0.0],[-47.489535164999907,-22.7076945079999,0.0],[-47.489469951999801,-22.707723285999801,0.0],[-47.489275934999903,-22.707723892999901,0.0],[-47.489111328999897,-22.707665315999801,0.0],[-47.489034980999897,-22.707641716999898,0.0],[-47.489003525270391,-22.707641210677991,0.0],[-47.488929925999798,-22.707640026,0.0],[-47.488893230999899,-22.707593785999901,0.0],[-47.48878982866529,-22.707609193735909,0.0],[-47.488774122999892,-22.707611533999799,0.0],[-47.488667565999897,-22.707609819,0.0],[-47.4885766559998,-22.7075858809999,0.0],[-47.488531147999808,-22.707576719999899,0.0],[-47.488442857999807,-22.707575298999899,0.0],[-47.488382020999893,-22.707571509999902,0.0],[-47.488314563999801,-22.7075957079999,0.0],[-47.488230200443397,-22.707608783875401,0.0],[-47.488149575999799,-22.707623954999899,0.0],[-47.488118971999803,-22.707631889999799,0.0],[-47.488037449242299,-22.707635273581602,0.0],[-47.488021440999788,-22.7076359379998,0.0],[-47.487984322999807,-22.707666243999899,0.0],[-47.48794736299979,-22.707688123,0.0],[-47.487874453999787,-22.707678520999899,0.0],[-47.48785682499981,-22.7076445249999,0.0],[-47.487878932999898,-22.707602739999899,0.0],[-47.487755775999801,-22.707578074999802,0.0],[-47.487679377999903,-22.70759379,0.0],[-47.48760316299979,-22.7075998249998,0.0],[-47.487555621999903,-22.707616003999799,0.0],[-47.487523500524809,-22.707623680660099,0.0],[-47.48746072199981,-22.707638684,0.0],[-47.487422195999798,-22.707594489999899,0.0],[-47.487401895999803,-22.707557850999901,0.0],[-47.487384310999801,-22.707516414999901,0.0],[-47.487303168999901,-22.707505424999901,0.0],[-47.487298695861199,-22.7075051233771,0.0],[-47.487255993999803,-22.707502243999901,0.0],[-47.4871749369998,-22.707459775999901,0.0],[-47.487130764999797,-22.7074137359999,0.0],[-47.487078263999898,-22.707375115999898,0.0],[-47.487021810999899,-22.707328877999799,0.0],[-47.486881046053107,-22.707300623912101,0.0],[-47.486784741999799,-22.7073061719999,0.0],[-47.486702512999813,-22.7073237349999,0.0],[-47.486600388999904,-22.707310756999799,0.0],[-47.486565817415297,-22.707310200211001,0.0],[-47.486485768999891,-22.707308910999799,0.0],[-47.4863999479998,-22.707299972999898,0.0],[-47.486277140999903,-22.707297994999902,0.0],[-47.486133508999792,-22.707314568,0.0],[-47.4860732190416,-22.707324683961598,0.0],[-47.486051351999812,-22.707328352999799,0.0],[-47.485973359999797,-22.707338428999901,0.0],[-47.485919928999799,-22.7073489,0.0],[-47.485896368999903,-22.707295636999898,0.0],[-47.485873022999897,-22.707231043999901,0.0],[-47.4858684049996,-22.7072244054614,0.0],[-47.485841132999802,-22.707185200999799,0.0],[-47.485788344999889,-22.7071616859998,0.0],[-47.485710138999799,-22.707183089999798,0.0],[-47.485677318999898,-22.7071863379999,0.0],[-47.485665966999797,-22.7071370489999,0.0],[-47.485601113999799,-22.7071020069999,0.0],[-47.485547682999808,-22.7071124779999,0.0],[-47.485461360999899,-22.707129972999901,0.0],[-47.485423660999892,-22.7071746949999,0.0],[-47.4853817239999,-22.7072269029998,0.0],[-47.485345103973799,-22.707232257562602,0.0],[-47.485311917999901,-22.707237109999799,0.0],[-47.485230046999902,-22.7072357899998,0.0],[-47.485128350999801,-22.707200153999899,0.0],[-47.485100553999899,-22.707154375999899,0.0],[-47.485098156994603,-22.7071448255404,0.0],[-47.485089130999903,-22.707108862999899,0.0],[-47.485020111999901,-22.7070775299998,0.0],[-47.484946569999799,-22.707068789999909,0.0],[-47.4848811439998,-22.7070639569998,0.0],[-47.484799765999902,-22.707101554999799,0.0],[-47.484702618999798,-22.7070999889999,0.0],[-47.484639976999901,-22.7069869229998,0.0],[-47.4846426639998,-22.706845028999801,0.0],[-47.4846837334008,-22.7067514390586,0.0],[-47.484684980999788,-22.706748595999901,0.0],[-47.484663805999901,-22.7065839059998,0.0],[-47.484617213999897,-22.706478569999899,0.0],[-47.484600332679108,-22.706466459466998,0.0],[-47.484489382999797,-22.706386864999899,0.0],[-47.484435674408687,-22.706340215942099,0.0],[-47.484401746999801,-22.7063107479999,0.0],[-47.484298203999799,-22.706219433999799,0.0],[-47.484141983999891,-22.706343910999799,0.0],[-47.484054246378193,-22.706351154150099,0.0],[-47.484043806042202,-22.706352016048601,0.0],[-47.484090818632197,-22.706354916389799,0.0],[-47.484191714053701,-22.706382012011101,0.0],[-47.484285319157998,-22.706433106892401,0.0],[-47.484381886091697,-22.706505653132702,0.0],[-47.484455504438714,-22.706590498937,0.0],[-47.484500983463199,-22.706685336396699,0.0],[-47.4845419615962,-22.706816072848099,0.0],[-47.484540810430602,-22.706894914683101,0.0],[-47.484519413667712,-22.706993179969899,0.0],[-47.484451170941703,-22.707063509975502,0.0],[-47.4843828850384,-22.707131452022701,0.0],[-47.48432515297219,-22.707213561678699,0.0],[-47.484286558338802,-22.707357477669309,0.0],[-47.484288557750098,-22.7074695294124,0.0],[-47.484289468536893,-22.707520571823899,0.0],[-47.484277098402302,-22.707563559852701,0.0]]],[[[-47.484842762999889,-22.727795780999902,0.0],[-47.484769135999798,-22.7277794399998,0.0],[-47.484642413999801,-22.727747087999798,0.0],[-47.4845200849999,-22.727699652999899,0.0],[-47.484446960999797,-22.727656798999799,0.0],[-47.484352731,-22.727643913999799,0.0],[-47.484270962999901,-22.727623651999899,0.0],[-47.484205333999903,-22.727618805999899,0.0],[-47.484164126999801,-22.727625717999899,0.0],[-47.484171477999908,-22.727671300999901,0.0],[-47.484370772965796,-22.727738198516398,0.0],[-47.48444353942201,-22.727761192716301,0.0],[-47.4846275544677,-22.7278115501203,0.0],[-47.484645994204698,-22.727816190810191,0.0],[-47.484811746085697,-22.7278479783281,0.0],[-47.484823033283313,-22.7278512997711,0.0],[-47.484869651980397,-22.7278701209652,0.0],[-47.484883553706197,-22.7278780858156,0.0],[-47.484933013537599,-22.727916423669701,0.0],[-47.4849378928985,-22.7279206778957,0.0],[-47.484972099304699,-22.727954195870801,0.0],[-47.485007892999803,-22.727968931,0.0],[-47.485338423999899,-22.7280841279999,0.0],[-47.4854895699998,-22.728128238999801,0.0],[-47.485512987999897,-22.7281930229998,0.0],[-47.485510969999808,-22.728253319999901,0.0],[-47.485468318,-22.7283260509999,0.0],[-47.485410981999792,-22.7283958259999,0.0],[-47.485402791581102,-22.7284288382406,0.0],[-47.485387274072203,-22.728491382961199,0.0],[-47.485328946597107,-22.7286833781951,0.0],[-47.485254914658007,-22.728861286130101,0.0],[-47.485177660802002,-22.729003415188,0.0],[-47.485116370150003,-22.7291739590822,0.0],[-47.48509737176709,-22.729247816293402,0.0],[-47.485068252673003,-22.729361018235998,0.0],[-47.484977825072299,-22.729486631958601,0.0],[-47.484872124571098,-22.729622037593298,0.0],[-47.484771917642099,-22.729776466514402,0.0],[-47.484735332722103,-22.7298892996753,0.0],[-47.484726762260699,-22.7299849769195,0.0],[-47.484699928620699,-22.730209922541601,0.0],[-47.484650990269387,-22.730351611013202,0.0],[-47.484633339961697,-22.730426302793909,0.0],[-47.484630163772799,-22.730439743640598,0.0],[-47.484615024566303,-22.730503808993699,0.0],[-47.484607934076308,-22.730533814165799,0.0],[-47.484563847739707,-22.7306356827767,0.0],[-47.484557746,-22.7306653579999,0.0],[-47.484525704999911,-22.7308199769999,0.0],[-47.484491729999803,-22.730905947999801,0.0],[-47.484418102999697,-22.731036029999899,0.0],[-47.484390199000011,-22.731142981999898,0.0],[-47.484395196999898,-22.7312206299999,0.0],[-47.484451989999897,-22.731296130999901,0.0],[-47.484505548999898,-22.731371578999909,0.0],[-47.4845364399999,-22.731431382999801,0.0],[-47.4845237689999,-22.7314946619999,0.0],[-47.484523452721703,-22.7314965556142,0.0],[-47.484525863192097,-22.731530924271599,0.0],[-47.484525598664,-22.731540544245298,0.0],[-47.484496999057903,-22.731768276191801,0.0],[-47.484467528603297,-22.731910135994301,0.0],[-47.484382594015209,-22.7322327836862,0.0],[-47.484381466364503,-22.732236482574599,0.0],[-47.484325401200103,-22.7323978953298,0.0],[-47.484322253291403,-22.732405105597799,0.0],[-47.484269285974896,-22.732504801449601,0.0],[-47.484264996191598,-22.732511567236699,0.0],[-47.484259680922797,-22.732517674630401,0.0],[-47.484232840955301,-22.7325442429951,0.0],[-47.484157241637597,-22.732572216225201,0.0],[-47.4839161554764,-22.732541639027701,0.0],[-47.483890037289598,-22.732712945140801,0.0],[-47.4839832187089,-22.732726708788402,0.0],[-47.484080955529109,-22.732720411721399,0.0],[-47.484160068069897,-22.732680963849599,0.0],[-47.484193010025798,-22.732636605294601,0.0],[-47.484337739997002,-22.732665341317691,0.0],[-47.4844612058235,-22.732729107517699,0.0],[-47.484725502428503,-22.732748882587298,0.0],[-47.484859789343602,-22.732699021743901,0.0],[-47.484965742929113,-22.7325062857044,0.0],[-47.484988184337098,-22.732431443790698,0.0],[-47.485062886010503,-22.732182313808799,0.0],[-47.485030019823199,-22.731788706477499,0.0],[-47.485031904999907,-22.731594130999898,0.0],[-47.484929531,-22.731540715999898,0.0],[-47.484859536999799,-22.731493272999899,0.0],[-47.484777369999797,-22.731464703999901,0.0],[-47.484683184999888,-22.731446839999901,0.0],[-47.484624279999899,-22.731437716999899,0.0],[-47.484595681,-22.731391376999898,0.0],[-47.484552574999903,-22.731344697999901,0.0],[-47.484515947,-22.731265664,0.0],[-47.484493311999898,-22.731222019999901,0.0],[-47.484491968,-22.7311381449998,0.0],[-47.484529250999898,-22.7310278429999,0.0],[-47.484586698999898,-22.7309368,0.0],[-47.484628616,-22.730891491999898,0.0],[-47.484662863999908,-22.730786549999898,0.0],[-47.484684617,-22.730721981999899,0.0],[-47.484716035999902,-22.730611584999899,0.0],[-47.484735324598986,-22.730553377249201,0.0],[-47.484756017269703,-22.730490932343301,0.0],[-47.484767132102498,-22.730457390751301,0.0],[-47.484779089999897,-22.730421304999901,0.0],[-47.484781158945992,-22.7304165493425,0.0],[-47.484842364220491,-22.730310694746301,0.0],[-47.485062646340999,-22.730032579451098,0.0],[-47.485144346852003,-22.7298366679418,0.0],[-47.485223064636997,-22.7296479082821,0.0],[-47.48535270739449,-22.729341345216,0.0],[-47.485485263860888,-22.729195967098899,0.0],[-47.485765082132701,-22.729006497176901,0.0],[-47.485911048683803,-22.7288907675693,0.0],[-47.485997371142787,-22.7289263108139,0.0],[-47.486053294423307,-22.728831191613502,0.0],[-47.486446253099501,-22.728077567130509,0.0],[-47.486476299002597,-22.7280198813189,0.0],[-47.486333765974798,-22.728060123447399,0.0],[-47.4860396759587,-22.728172186854799,0.0],[-47.485823027498498,-22.728294987808901,0.0],[-47.485540282193703,-22.728422422012699,0.0],[-47.485544843999797,-22.728332722999902,0.0],[-47.485575860999901,-22.728251645999901,0.0],[-47.485582835999892,-22.7281946559999,0.0],[-47.4855930169999,-22.728124119999801,0.0],[-47.48563525599991,-22.728073136,0.0],[-47.485568087999802,-22.7280394239998,0.0],[-47.4855269809999,-22.728030603999802,0.0],[-47.485430339999901,-22.7279964159999,0.0],[-47.485316010999803,-22.727966318999801,0.0],[-47.485217888999799,-22.727942006,0.0],[-47.485148745999801,-22.7279211789998,0.0],[-47.4850403169998,-22.727886800999801,0.0],[-47.484996365999812,-22.7278724959999,0.0],[-47.484961055999896,-22.727839362999799,0.0],[-47.484891894999798,-22.727804149999901,0.0],[-47.484842762999889,-22.727795780999902,0.0]]],[[[-47.487729412477208,-22.7253687628526,0.0],[-47.487790316721203,-22.725364255245601,0.0],[-47.487851349727002,-22.7253668642573,0.0],[-47.487911548976598,-22.725376548741799,0.0],[-47.487916301672414,-22.725377899832701,0.0],[-47.487970425053597,-22.725416705029598,0.0],[-47.488030624301899,-22.725470705326,0.0],[-47.488100558448203,-22.725493502261902,0.0],[-47.488198073639801,-22.7254752635321,0.0],[-47.488287218133898,-22.725421326178001,0.0],[-47.488391504921807,-22.725350432788499,0.0],[-47.488456963338102,-22.725268201096199,0.0],[-47.488497778710702,-22.7252195082527,0.0],[-47.488190547622402,-22.725039709424799,0.0],[-47.488159853597089,-22.725099129468699,0.0],[-47.488061401553907,-22.725236334799799,0.0],[-47.488020906587991,-22.725275182906,0.0],[-47.487961009085403,-22.725306285840102,0.0],[-47.487881737196098,-22.725325121857502,0.0],[-47.487817829219701,-22.725322295190601,0.0],[-47.48776041027439,-22.7253365653538,0.0],[-47.487729412477208,-22.7253687628526,0.0]]],[[[-47.483474625769809,-22.734345819237099,0.0],[-47.483522624241502,-22.734312734626201,0.0],[-47.483608813529301,-22.734237347939299,0.0],[-47.483700367129899,-22.734173820795402,0.0],[-47.483797155592192,-22.734114989400702,0.0],[-47.483865497,-22.734049434519701,0.0],[-47.483935678987997,-22.7339432448147,0.0],[-47.483978363415289,-22.733882866072801,0.0],[-47.484018473492803,-22.733822527356001,0.0],[-47.484070980349301,-22.733735721260501,0.0],[-47.484121473909497,-22.7336799982419,0.0],[-47.484182955238808,-22.733662321902202,0.0],[-47.484257351261,-22.7336468332824,0.0],[-47.484331445120198,-22.733614629141101,0.0],[-47.484387000814202,-22.733554050121299,0.0],[-47.484455298497203,-22.7334861071066,0.0],[-47.484423673023102,-22.733445992828202,0.0],[-47.484330695873403,-22.733430718731,0.0],[-47.484283106674802,-22.733362189522001,0.0],[-47.484261044751101,-22.733281320295401,0.0],[-47.484174150563298,-22.733175184749602,0.0],[-47.484046801395792,-22.733110284439999,0.0],[-47.4839359338619,-22.733102454099601,0.0],[-47.483820521878201,-22.733128134730599,0.0],[-47.483725833711901,-22.733160658846501,0.0],[-47.483612823328301,-22.733176747594001,0.0],[-47.483463858965401,-22.733198172454401,0.0],[-47.483344836990497,-22.7331665824894,0.0],[-47.4832381688542,-22.733106137183999,0.0],[-47.483110949541903,-22.733048399869698,0.0],[-47.482963783001402,-22.733026801509499,0.0],[-47.482881491648698,-22.733032857833599,0.0],[-47.482799475977203,-22.733052055615602,0.0],[-47.482816730068798,-22.733060787285599,0.0],[-47.483025263028203,-22.7331580158517,0.0],[-47.483233796211501,-22.7332552442371,0.0],[-47.483252130748298,-22.7332630684284,0.0],[-47.483297989062407,-22.733276879440901,0.0],[-47.483315090908903,-22.7332801176853,0.0],[-47.483435955956807,-22.733299531787399,0.0],[-47.483492493442398,-22.733329291314899,0.0],[-47.483549135924001,-22.733391631186599,0.0],[-47.483562955498897,-22.733458665151101,0.0],[-47.483566070421993,-22.733473774561801,0.0],[-47.483547992870299,-22.7335421307106,0.0],[-47.48351047852811,-22.733603623261502,0.0],[-47.483100570879003,-22.733871790474101,0.0],[-47.482865331972903,-22.734025686092401,0.0],[-47.482009869161899,-22.734565667645509,0.0],[-47.481962509390399,-22.734589454662601,0.0],[-47.4818184760368,-22.734661797022,0.0],[-47.481730306940499,-22.734650345849101,0.0],[-47.481688794149903,-22.734718636026699,0.0],[-47.481664301261098,-22.734788286009401,0.0],[-47.481664732455698,-22.734812165323198,0.0],[-47.481663926019998,-22.734910110506,0.0],[-47.481665262732101,-22.734984136377101,0.0],[-47.481695262168003,-22.7350768257207,0.0],[-47.481737917758991,-22.735157375403801,0.0],[-47.481798248833499,-22.7352185416227,0.0],[-47.481863383661199,-22.7352605243643,0.0],[-47.4819510407537,-22.735266328093001,0.0],[-47.482042811491098,-22.7352147414313,0.0],[-47.482057315564198,-22.735205574049001,0.0],[-47.482131921556899,-22.735158418866899,0.0],[-47.482249478688601,-22.735108819973899,0.0],[-47.482354422820492,-22.735073748626199,0.0],[-47.482492143155703,-22.734999950198301,0.0],[-47.482591205144097,-22.734924363924399,0.0],[-47.482698162577201,-22.734858209274201,0.0],[-47.4828917413044,-22.7347405474958,0.0],[-47.4829781469276,-22.734677100744001,0.0],[-47.483051853390499,-22.7346234057643,0.0],[-47.483143321231999,-22.734555103039401,0.0],[-47.483217286436513,-22.734515735566099,0.0],[-47.483313902772892,-22.734447352713001,0.0],[-47.483405629252609,-22.7343933774284,0.0],[-47.483474625769809,-22.734345819237099,0.0]]],[[[-47.481007334999802,-22.734088603999901,0.0],[-47.481103983999787,-22.7340694429999,0.0],[-47.481151335999897,-22.734098834999909,0.0],[-47.481238136999799,-22.734127086999901,0.0],[-47.481291750999908,-22.734150966999898,0.0],[-47.481353242999788,-22.734197988999899,0.0],[-47.481423632,-22.734214467999909,0.0],[-47.481511306999899,-22.734196703999899,0.0],[-47.481587527999899,-22.7341250529999,0.0],[-47.481654196999898,-22.734118456999902,0.0],[-47.481725022999797,-22.734111927999901,0.0],[-47.481832686999802,-22.734136679999899,0.0],[-47.481891404,-22.734110776999799,0.0],[-47.481900665999888,-22.734061059999799,0.0],[-47.481976886999902,-22.7339894089999,0.0],[-47.482065,-22.733948635999901,0.0],[-47.482186082999803,-22.733923737999898,0.0],[-47.482265152999901,-22.7339211769999,0.0],[-47.482373253999903,-22.733922920999799,0.0],[-47.482388514028997,-22.733930268078598,0.0],[-47.482365119767501,-22.7339125710659,0.0],[-47.482310041712999,-22.733889706763598,0.0],[-47.482243116171887,-22.7338795505013,0.0],[-47.48215198398951,-22.733880312860901,0.0],[-47.481954818563203,-22.733910324962199,0.0],[-47.481865491582298,-22.7339355218154,0.0],[-47.4817858076701,-22.733968143497201,0.0],[-47.481773995565497,-22.7339716229381,0.0],[-47.481710621298213,-22.733983499056201,0.0],[-47.481707755370998,-22.733983966335501,0.0],[-47.481324586661898,-22.734037192860001,0.0],[-47.481320364760499,-22.7340376318955,0.0],[-47.4809491991453,-22.7340633749515,0.0],[-47.480842667615498,-22.7340784641836,0.0],[-47.480828298647197,-22.734080499418599,0.0],[-47.480716382833208,-22.734101976263901,0.0],[-47.4806120414746,-22.7341277717141,0.0],[-47.480508209454499,-22.734157949573401,0.0],[-47.480407026686997,-22.734194493410499,0.0],[-47.480350542671502,-22.7342225501306,0.0],[-47.48034499099991,-22.734226710999799,0.0],[-47.480269199464502,-22.734267006511399,0.0],[-47.480195028764399,-22.734313204594599,0.0],[-47.480145618079497,-22.734349070158601,0.0],[-47.479986973307803,-22.7344575225029,0.0],[-47.479978089812192,-22.734462511686999,0.0],[-47.479747235694902,-22.7345669739926,0.0],[-47.479620023656302,-22.7346124426107,0.0],[-47.479614523308413,-22.734614109397398,0.0],[-47.479508553254099,-22.734640821572999,0.0],[-47.479490908806802,-22.734645269259499,0.0],[-47.479372221672897,-22.7346688190602,0.0],[-47.479363493663001,-22.734669904208001,0.0],[-47.479140510566303,-22.734681597268001,0.0],[-47.479025468540797,-22.734694092414301,0.0],[-47.478939866721809,-22.7347071589477,0.0],[-47.478893959941701,-22.734714166304201,0.0],[-47.478763248793697,-22.734742276978601,0.0],[-47.478609120645302,-22.734781690044901,0.0],[-47.478147659746703,-22.734908420248001,0.0],[-47.478141900944003,-22.734909706172999,0.0],[-47.478046682245193,-22.734926200763809,0.0],[-47.478037541330103,-22.734927090009101,0.0],[-47.478022077592101,-22.7349274395512,0.0],[-47.4780469079802,-22.735015228455101,0.0],[-47.478078319999803,-22.735126286999801,0.0],[-47.478134804999897,-22.7350911629999,0.0],[-47.478204505999798,-22.735045956999901,0.0],[-47.478276164,-22.734995633999901,0.0],[-47.4783308869998,-22.7349553329998,0.0],[-47.478378918999901,-22.734875455999902,0.0],[-47.478429627999901,-22.7348505349999,0.0],[-47.478542011999899,-22.734811165999801,0.0],[-47.478639123999798,-22.734792141999801,0.0],[-47.478741945999907,-22.734766346999798,0.0],[-47.47876981399979,-22.7347685129998,0.0],[-47.478818043999887,-22.7347761569998,0.0],[-47.478937085999902,-22.734778079999899,0.0],[-47.479091858999901,-22.734759986999801,0.0],[-47.479148571999893,-22.734712853999799,0.0],[-47.479201810999797,-22.734689960999901,0.0],[-47.4793009939999,-22.734706363999901,0.0],[-47.479420214999898,-22.734681647999899,0.0],[-47.479577880999798,-22.734660513999799,0.0],[-47.479732282999898,-22.734642286999801,0.0],[-47.47984913699991,-22.734573130999799,0.0],[-47.480053463999887,-22.734460984999799,0.0],[-47.48017960699989,-22.734409738999901,0.0],[-47.480270118999897,-22.7343756789999,0.0],[-47.480299500999898,-22.734349511999891,0.0],[-47.4804339149998,-22.734200714999901,0.0],[-47.480566137999901,-22.734167327999899,0.0],[-47.4806982489999,-22.7341398589999,0.0],[-47.480791632999789,-22.734123604999901,0.0],[-47.480885016999792,-22.734107351999899,0.0],[-47.481007334999802,-22.734088603999901,0.0]]],[[[-47.481999948244201,-22.7324163058301,0.0],[-47.481901814105498,-22.732404281520999,0.0],[-47.4817939696254,-22.732341225116301,0.0],[-47.481726179933702,-22.732233112229999,0.0],[-47.481708708154301,-22.7321979388147,0.0],[-47.481701734245988,-22.732187172606199,0.0],[-47.481665181119602,-22.7321844099279,0.0],[-47.481574083337897,-22.7321590728091,0.0],[-47.4814559715836,-22.7321207791055,0.0],[-47.481370983185002,-22.732091525196498,0.0],[-47.481321143051801,-22.732069368803099,0.0],[-47.481250846588402,-22.732055173667,0.0],[-47.481132769475401,-22.732018790054209,0.0],[-47.48104994406831,-22.731995235014999,0.0],[-47.480969040189102,-22.731964006557899,0.0],[-47.4808962361327,-22.7319250087331,0.0],[-47.480837710186599,-22.731878145601101,0.0],[-47.480778839497901,-22.7318121789732,0.0],[-47.480709464879403,-22.7317349101417,0.0],[-47.480555920699913,-22.731559582398599,0.0],[-47.480383669780508,-22.731374990522401,0.0],[-47.480207266026397,-22.731188552015301,0.0],[-47.480032577507899,-22.7309829778115,0.0],[-47.4799839702059,-22.730914940608301,0.0],[-47.479923626842897,-22.730881481480601,0.0],[-47.47986572202359,-22.730869004193298,0.0],[-47.479791548686102,-22.730868244724199,0.0],[-47.479689843628407,-22.730868894587999,0.0],[-47.47956030856691,-22.730839349085102,0.0],[-47.4794714092139,-22.73082162008,0.0],[-47.4793852584353,-22.730842066047401,0.0],[-47.479316272064203,-22.730900463262099,0.0],[-47.47926812097829,-22.730971913281699,0.0],[-47.479205829568102,-22.731058869815399,0.0],[-47.47917192202771,-22.7311205443376,0.0],[-47.479157563806709,-22.731240403853501,0.0],[-47.479150920956293,-22.731296745871202,0.0],[-47.479151943048699,-22.731353415919699,0.0],[-47.479160613974713,-22.731409520277101,0.0],[-47.479176796997493,-22.731464174142602,0.0],[-47.479200236908611,-22.731516515588901,0.0],[-47.479230564052713,-22.731565719156499,0.0],[-47.4792673001566,-22.731611008871798,0.0],[-47.479309865871798,-22.7316516704843,0.0],[-47.479357589910798,-22.731687062732099,0.0],[-47.47936229575059,-22.731689731591899,0.0],[-47.479409719634091,-22.731716627453999,0.0],[-47.479465432919802,-22.7317398983933,0.0],[-47.479523851129201,-22.731756508550799,0.0],[-47.479584052963503,-22.731766195972501,0.0],[-47.479645088995198,-22.7317688078816,0.0],[-47.479665874495197,-22.731767270566099,0.0],[-47.479675354164598,-22.731777114567201,0.0],[-47.479699915890002,-22.731799756834999,0.0],[-47.479805782964398,-22.731885670181899,0.0],[-47.479815657079499,-22.7318933327543,0.0],[-47.479957659306699,-22.731998681124701,0.0],[-47.4801447520206,-22.7321443723628,0.0],[-47.480164030242499,-22.732158155581399,0.0],[-47.480358072211089,-22.732285289320899,0.0],[-47.480368297499602,-22.7322919884122,0.0],[-47.480381610283096,-22.7323002125766,0.0],[-47.480650724374698,-22.732456141578101,0.0],[-47.480681212687699,-22.732471548803399,0.0],[-47.480944213511997,-22.732586201763599,0.0],[-47.480955606105098,-22.7325908954633,0.0],[-47.480988702310803,-22.732601635738501,0.0],[-47.481250879411689,-22.732670632706999,0.0],[-47.481265089848002,-22.732674013369898,0.0],[-47.481412740346499,-22.732704804797301,0.0],[-47.481609386441491,-22.732769221978099,0.0],[-47.4816418214442,-22.732777918204501,0.0],[-47.481800192678392,-22.7328101973219,0.0],[-47.48164751329,-22.732717629262901,0.0],[-47.481548482816898,-22.732652286883098,0.0],[-47.481434222216102,-22.7325991240345,0.0],[-47.481353858624303,-22.732569320575699,0.0],[-47.481235009960997,-22.7325472806743,0.0],[-47.481088102709997,-22.732540008107499,0.0],[-47.480987403469101,-22.732524851925501,0.0],[-47.480891594227103,-22.732495288115299,0.0],[-47.480759357009298,-22.732444792547199,0.0],[-47.480626732011999,-22.732372805454599,0.0],[-47.480548813698803,-22.732335797783499,0.0],[-47.480507107888499,-22.73230778217,0.0],[-47.480455104927913,-22.732279926438601,0.0],[-47.480387742423602,-22.732257086392099,0.0],[-47.480350926701902,-22.7322146631804,0.0],[-47.480306129591597,-22.732158032263399,0.0],[-47.4802148660565,-22.7320949569813,0.0],[-47.480116396780701,-22.732060656762101,0.0],[-47.480046417055803,-22.7320354685891,0.0],[-47.479980982748799,-22.731976769358401,0.0],[-47.479951847002098,-22.731931838204009,0.0],[-47.479925156311303,-22.7318797032719,0.0],[-47.479882890690099,-22.731820644309,0.0],[-47.479788880959802,-22.731748056964399,0.0],[-47.479715724055502,-22.731689477486299,0.0],[-47.479609316943296,-22.731643357117498,0.0],[-47.479541696410799,-22.7316061890551,0.0],[-47.479496813685508,-22.731544781987299,0.0],[-47.4794410308537,-22.731450103617199,0.0],[-47.479439394054907,-22.7313593620331,0.0],[-47.479437714191093,-22.731266232511501,0.0],[-47.479461604770798,-22.731163151688001,0.0],[-47.4795095252422,-22.731107469986,0.0],[-47.479581906372402,-22.731123066745401,0.0],[-47.479652057857898,-22.731157806917999,0.0],[-47.479725085196797,-22.731209222648499,0.0],[-47.479784982743503,-22.731246510530902,0.0],[-47.479938157338303,-22.731315790824901,0.0],[-47.480041989997702,-22.731361950954401,0.0],[-47.480111344243703,-22.7314140498152,0.0],[-47.480185353057301,-22.7314741047295,0.0],[-47.480325034878703,-22.731577731496401,0.0],[-47.480330398597403,-22.7315818085399,0.0],[-47.480430547670593,-22.731659795775499,0.0],[-47.480437717734802,-22.7316653791829,0.0],[-47.480560013417801,-22.731814908329898,0.0],[-47.480664665461603,-22.731906438747199,0.0],[-47.480779528591,-22.731993033301901,0.0],[-47.480899324934413,-22.7320676081317,0.0],[-47.481036624183602,-22.732113247782198,0.0],[-47.481174009724199,-22.732163663171999,0.0],[-47.4812480713233,-22.7321677921061,0.0],[-47.481274536275997,-22.732169267527301,0.0],[-47.481359961971187,-22.732194215208299,0.0],[-47.481476451598702,-22.7322282346951,0.0],[-47.481603195319401,-22.732259706191801,0.0],[-47.481611573311,-22.732263631693801,0.0],[-47.48170188059369,-22.7323059451072,0.0],[-47.481762167153597,-22.7323647235403,0.0],[-47.481811984130502,-22.732414110201301,0.0],[-47.481863685549087,-22.7324252499394,0.0],[-47.481958891215598,-22.732421382110299,0.0],[-47.481999948244201,-22.7324163058301,0.0]]]]}}
]
}
