{
"type": "FeatureCollection",
"name": "Itesp Franco da Rocha Faja - Zizo",
"crs": { "type": "name", "properties": { "name": "urn:ogc:def:crs:OGC:1.3:CRS84" } },
"xy_coordinate_resolution": 1e-15,
"features": [
{"type":"Feature","properties":{"Área (ha)":1.6334788850329816,"Nome do Projeto":null,"Propriedade":null,"Tipo":null,"Ano de Implantação":null,"Metodologia de Restauração":null,"Monitoramento":null,"Município":null,"UGRHI":null,"Região Hidrográfica":null,"Status do Projeto":null,"Fotos do Projeto":null},"geometry":{"type":"Polygon","coordinates":[[[-46.794956333378721,-23.297813781477519,0.0],[-46.794638134318788,-23.298201693282209,0.0],[-46.794289404197009,-23.29806980825996,0.0],[-46.794068129330263,-23.29863391507833,0.0],[-46.794371585980208,-23.29923274882886,0.0],[-46.794999986125553,-23.3003586874026,0.0],[-46.794613371123297,-23.300265924213399,0.0],[-46.794461154362097,-23.299833405705641,0.0],[-46.794327797557493,-23.299679897125792,0.0],[-46.794174497055458,-23.29939767936715,0.0],[-46.793937446439031,-23.299063647726541,0.0],[-46.793768252023909,-23.298876202424889,0.0],[-46.793749814937037,-23.29885696975947,0.0],[-46.793567228063623,-23.298602804668391,0.0],[-46.793560545114502,-23.298481303443641,0.0],[-46.793539698926857,-23.298241125686829,0.0],[-46.793666377867552,-23.298018004075871,0.0],[-46.793948204817909,-23.297784006776581,0.0],[-46.793890563616131,-23.29770682277908,0.0],[-46.794257004710637,-23.297573792465229,0.0],[-46.794365108911038,-23.297351424205779,0.0],[-46.794956333378721,-23.297813781477519,0.0]]]}}
]
}
