{
"type": "FeatureCollection",
"name": "Manancial Cantareira I",
"crs": { "type": "name", "properties": { "name": "urn:ogc:def:crs:OGC:1.3:CRS84" } },
"xy_coordinate_resolution": 1e-15,
"features": [
{"type":"Feature","properties":{"Área (ha)":99.153681287529395,"Nome do Projeto":"Manancial Cantareira I","Propriedade":"-","Tipo":"Programa Nascentes","Ano de Implantação":"2019","Metodologia de Restauração":null,"Monitoramento":"5 anos","Município":"Piracaia","UGRHI":"05 -  Piracicaba, Capivari e Jundiaí","Região Hidrográfica":"Paraná","Status do Projeto":"Em finalização","Fotos do Projeto":null},"geometry":{"type":"MultiPolygon","coordinates":[[[[-46.277953371979898,-23.040265137940899],[-46.2778054006777,-23.040181809093401],[-46.277545412327001,-23.038905861560199],[-46.277516468544299,-23.0388053353531],[-46.277384371107502,-23.038593681514602],[-46.277103046590902,-23.038366647278799],[-46.276949785681197,-23.038130253710001],[-46.276722119256497,-23.037557357402999],[-46.276463458331797,-23.037410814494901],[-46.276299300591397,-23.037388795139702],[-46.276089600243701,-23.0374410658649],[-46.275750879785399,-23.0376571294276],[-46.275457390202597,-23.0390703628244],[-46.275335852726101,-23.039249265935599],[-46.274349909688297,-23.0396179784385],[-46.274151717233302,-23.039686045881002],[-46.273980079488297,-23.039650732522102],[-46.273797878607702,-23.039558220540499],[-46.273667050313399,-23.039317872313699],[-46.273512499694498,-23.0386902110669],[-46.273539665776198,-23.0385276624908],[-46.273660467125701,-23.037515114251001],[-46.273533109083203,-23.0371425478742],[-46.273288933178002,-23.0363680115798],[-46.273223016143902,-23.036132702655198],[-46.273094596796398,-23.0348955793797],[-46.273016448493799,-23.034488402487099],[-46.272644994538702,-23.033579751366901],[-46.272646353744697,-23.033577708836798],[-46.2731410524121,-23.033686976992801],[-46.273461646029901,-23.033805007543801],[-46.273776829924998,-23.033794688582802],[-46.273860752165,-23.0337784500888],[-46.2739312594666,-23.033676724652899],[-46.273926178262002,-23.0335833892828],[-46.2738165236347,-23.033545365511799],[-46.273593852120499,-23.0335588304239],[-46.2730741267927,-23.0332751035562],[-46.272582557322899,-23.0334270167879],[-46.272549412694097,-23.033371921485202],[-46.272331035872703,-23.033295064113101],[-46.272154784707901,-23.033410892520699],[-46.271993721568201,-23.033554797935199],[-46.2715813024544,-23.034117054647002],[-46.271553758599303,-23.034318362741502],[-46.271590854496402,-23.034687679225499],[-46.271718927856199,-23.0350144543767],[-46.271960934131698,-23.035599013015499],[-46.271934285310401,-23.0358949196495],[-46.2717851139939,-23.036125669192401],[-46.271214332145597,-23.0365959344517],[-46.271120218276799,-23.036948056566501],[-46.271045491227,-23.0379446711489],[-46.270771019122598,-23.037814592772602],[-46.270414264028503,-23.037875818838],[-46.270322697694397,-23.037973821286499],[-46.270123306646902,-23.037780888524502],[-46.269963753843598,-23.0378016230814],[-46.270019712989999,-23.037941238278599],[-46.270034074246702,-23.038127875640999],[-46.2701605459985,-23.038165766869],[-46.270330038444001,-23.038308360845001],[-46.2703737157955,-23.038483090651301],[-46.270198697518097,-23.038647904862199],[-46.270145364026597,-23.038788397659001],[-46.270317929984003,-23.0388103558446],[-46.270501793291899,-23.038692158612498],[-46.271026991847698,-23.038213276029101],[-46.270146791025397,-23.039178580545101],[-46.269391755247199,-23.038669945967101],[-46.269604435364002,-23.038037948569901],[-46.269636871597399,-23.0374618673669],[-46.2693580642554,-23.036868831454399],[-46.269088491865098,-23.0363261433166],[-46.269173895716001,-23.036261999489199],[-46.269323203083502,-23.036203624256601],[-46.269450064652801,-23.035947278467699],[-46.269444970251399,-23.0359575732884],[-46.269501317119698,-23.036005895695201],[-46.2695953252436,-23.036168549833],[-46.269746651493101,-23.036167335159501],[-46.269816386944498,-23.036431341718],[-46.269892925334098,-23.036524103620899],[-46.269894602666497,-23.036703061507701],[-46.269870694208002,-23.036843317988101],[-46.269948545656803,-23.037076133836301],[-46.269924637208902,-23.037216390318999],[-46.269950806572702,-23.0373173379215],[-46.270028731410598,-23.037557934474901],[-46.270122741325601,-23.037720588191601],[-46.270153743707297,-23.0374402102136],[-46.270102207026198,-23.0373239036273],[-46.270067922230197,-23.037254146667099],[-46.270158941212699,-23.037097788547999],[-46.270114279970301,-23.036818018133999],[-46.270120498796402,-23.036584527319299],[-46.270050252117301,-23.0362660554872],[-46.269998205500102,-23.036095283381499],[-46.2699803704568,-23.035986487487001],[-46.270007963437102,-23.035904605627898],[-46.270013287375598,-23.035910354906999],[-46.270068953947302,-23.0360188470409],[-46.270195022522103,-23.036013944063001],[-46.270385911914701,-23.035300416364599],[-46.270650329752698,-23.035255495071201],[-46.270930539547201,-23.035101507388202],[-46.271261518786801,-23.0349821273525],[-46.271256913819599,-23.0349393668705],[-46.270806311204502,-23.034406073468102],[-46.270492037281898,-23.034513646306699],[-46.2702169189022,-23.0344772883508],[-46.269757345062203,-23.034338694737599],[-46.269309400523198,-23.033279831636701],[-46.2693429494689,-23.032928457878398],[-46.269359714358799,-23.032252507253901],[-46.269158196741003,-23.031398197243401],[-46.268970948762998,-23.030945050598699],[-46.268822748732099,-23.0307231627195],[-46.269051050044801,-23.0306322219094],[-46.2699996881571,-23.030525277685999],[-46.270501850312797,-23.030482205833099],[-46.270853365356501,-23.030404444670499],[-46.271265698545498,-23.0303384782728],[-46.271604499371499,-23.0303308383467],[-46.272586141718598,-23.029832375399],[-46.272717124884501,-23.029709400817399],[-46.2722164106113,-23.029071440993299],[-46.272173539199002,-23.028969577602101],[-46.272186614306598,-23.028821981738499],[-46.272416676232602,-23.028189913734799],[-46.272755711672197,-23.028017464509801],[-46.272796063703801,-23.027838168507301],[-46.272608710267697,-23.027582891145599],[-46.272356443063103,-23.027577138592001],[-46.272304908722099,-23.0274608324989],[-46.272404179444301,-23.027288844152402],[-46.272326987641499,-23.0271260561865],[-46.272115950265501,-23.027034376632699],[-46.271487218872799,-23.027226183138598],[-46.271360100372398,-23.027118265437799],[-46.271350307355902,-23.0269704981133],[-46.271211645145002,-23.026528074134202],[-46.270670514496302,-23.0266509305428],[-46.2707324418406,-23.026169155757501],[-46.271689630978301,-23.0261047624487],[-46.271561937073002,-23.0257347381724],[-46.273533913611502,-23.025581887359898],[-46.2744489110027,-23.0263508066516],[-46.274467037442598,-23.026408368216099],[-46.279477817523599,-23.029077188098601],[-46.279423216686197,-23.029174136881402],[-46.277708539875,-23.030241496404599],[-46.277505883177803,-23.029947993601699],[-46.277412760338102,-23.029867715382998],[-46.277156475079202,-23.029675455284799],[-46.2770513749172,-23.029579366276401],[-46.276878426708201,-23.029698091289202],[-46.276799663606603,-23.029815447266799],[-46.276678579717903,-23.030125733257702],[-46.276320021177703,-23.030216166502601],[-46.276159379531599,-23.030120195414199],[-46.276118514011301,-23.030021312749302],[-46.276185675320399,-23.030011044319199],[-46.276219118594597,-23.029991321159301],[-46.276232932629703,-23.029895888114901],[-46.276103981009001,-23.029817169367401],[-46.2760755812658,-23.029814480423301],[-46.276062055650002,-23.029717322558302],[-46.275922797495703,-23.029660085510201],[-46.275750169443597,-23.0296303521678],[-46.275547276290503,-23.0295113770262],[-46.275508787650899,-23.029441655103099],[-46.275082754849201,-23.029285571325801],[-46.274864458488899,-23.0293165105711],[-46.274770506598102,-23.029383409150299],[-46.274549726183501,-23.029597229943899],[-46.2743306626449,-23.029770184479499],[-46.273983051368802,-23.030130926560801],[-46.274067519913402,-23.0301730438383],[-46.274221288339902,-23.030208766921],[-46.274403474047801,-23.0301372672517],[-46.274461608934999,-23.030284644786899],[-46.2744662329658,-23.0303293503544],[-46.2743873027555,-23.030429198499],[-46.274336844609998,-23.030427659597901],[-46.274280008325398,-23.030418390693399],[-46.2739543068598,-23.0306505638323],[-46.273941971144097,-23.0306798432653],[-46.274204680759198,-23.030901441696098],[-46.274288401649997,-23.031087519997399],[-46.274110327936697,-23.031372973839499],[-46.274130744115297,-23.031756041342799],[-46.274291569340399,-23.031871466372401],[-46.2744004603177,-23.032498933871501],[-46.274460679750298,-23.032644349196101],[-46.274443136525001,-23.0327903909747],[-46.2745266394979,-23.032953126737901],[-46.2747195043776,-23.0331227626071],[-46.274942211585,-23.033113186529501],[-46.275135934220799,-23.033150531906699],[-46.275190179130803,-23.033331011158602],[-46.275174225816698,-23.033422570679399],[-46.275283151955001,-23.033606499772102],[-46.276090437740102,-23.034070761493901],[-46.276376472604298,-23.0340898525433],[-46.2769295657586,-23.033898636416701],[-46.276920242394802,-23.033801444789201],[-46.277064355668998,-23.0334812460489],[-46.277100084666301,-23.033480957608901],[-46.277457220792201,-23.033238797486799],[-46.277835306944503,-23.033212399827001],[-46.278089226034403,-23.033261115897201],[-46.278044223661503,-23.033298462276498],[-46.278197174562699,-23.033391197883699],[-46.278386279533798,-23.033551178023],[-46.279014330248401,-23.033821543229301],[-46.279142657488002,-23.033809226911799],[-46.279971607983299,-23.033758696255902],[-46.280469327675497,-23.0336584735036],[-46.280893386076002,-23.033389998241201],[-46.281871930232903,-23.0334389369512],[-46.282825278976397,-23.033267008271601],[-46.283605561798304,-23.0331895247323],[-46.283990867222698,-23.033267483487801],[-46.284152346952197,-23.033500317041199],[-46.2830758133302,-23.033935323314999],[-46.282326362016398,-23.034367820493401],[-46.281994492728501,-23.034739883320501],[-46.281835800610303,-23.0347965320647],[-46.281576526447502,-23.034923084516599],[-46.2813648074168,-23.0350219563711],[-46.281119488642602,-23.0351579427447],[-46.2807802726538,-23.035174374239698],[-46.2804466601022,-23.035169398288399],[-46.280286900881201,-23.035187656166201],[-46.279908343756603,-23.035189984465699],[-46.279157104438902,-23.035321907870301],[-46.278826793978197,-23.035425037137198],[-46.278751129868198,-23.035769896663901],[-46.278677128488198,-23.036035618451098],[-46.278693864116299,-23.0362693300602],[-46.278650424517402,-23.036403230179399],[-46.278750146441503,-23.036478361913002],[-46.2797109299364,-23.037280828152198],[-46.279967644950098,-23.0374829906456],[-46.280114664264602,-23.037534055622402],[-46.280533203851903,-23.037222252368],[-46.280750195745199,-23.037038232407301],[-46.280951659317601,-23.036945438287699],[-46.281390806487302,-23.036890684849201],[-46.281853013253297,-23.036806616027899],[-46.282567058419097,-23.036549652633799],[-46.282810636746497,-23.0364812325457],[-46.283116586914502,-23.0364996900649],[-46.283659406872303,-23.036618248662801],[-46.283828093770097,-23.0367198340127],[-46.283637898659002,-23.0369418120031],[-46.283232422982103,-23.037405582831902],[-46.282899935994699,-23.037340259553801],[-46.282610889846403,-23.037225883659701],[-46.282503663295103,-23.037222862452801],[-46.2824074426672,-23.037272275959602],[-46.282282239161503,-23.037368612392601],[-46.282163488036304,-23.0374804591006],[-46.282045807680397,-23.037483358333098],[-46.281988875996802,-23.0374643664389],[-46.2818593396442,-23.0375471203308],[-46.281595286015502,-23.037852732242499],[-46.281651087393101,-23.0381966042528],[-46.281527354998097,-23.038438646615798],[-46.281190690109703,-23.038728748193201],[-46.280812933947502,-23.039047056059498],[-46.280721320532798,-23.039118817372199],[-46.280464996707998,-23.039292700771799],[-46.280287754331198,-23.039371564231001],[-46.280160995577397,-23.039233285732799],[-46.279962766889597,-23.0391325746922],[-46.279757517381498,-23.039172292859401],[-46.279449264870898,-23.039304790391899],[-46.278424820612003,-23.0399870194024],[-46.278200266223102,-23.040166571431602],[-46.277953371979898,-23.040265137940899]],[[-46.272359161771,-23.0332328951006],[-46.272374711651999,-23.033198524256001],[-46.272383683535402,-23.033195425893702],[-46.272381011709498,-23.0331925911239],[-46.2726307749992,-23.033055285468699],[-46.272820273173203,-23.032930229251601],[-46.272836872569101,-23.032924509771199],[-46.2728328455986,-23.0329154219468],[-46.272848469893901,-23.0327701796033],[-46.272675358854897,-23.032870015000199],[-46.272550674859097,-23.032978409996701],[-46.272411655720603,-23.033104818865699],[-46.272277260615802,-23.033208817103699],[-46.272359161771,-23.0332328951006]]]]}}
]
}
