{
"type": "FeatureCollection",
"name": "Pepisco - 2018 - SP",
"crs": { "type": "name", "properties": { "name": "urn:ogc:def:crs:OGC:1.3:CRS84" } },
"xy_coordinate_resolution": 1e-15,
"features": [
{"type":"Feature","properties":{"Área (ha)":0.62336761179713063,"Nome do Projeto":null,"Propriedade":null,"Tipo":null,"Ano de Implantação":null,"Metodologia de Restauração":null,"Monitoramento":null,"Município":null,"UGRHI":null,"Região Hidrográfica":null,"Status do Projeto":null,"Fotos do Projeto":null},"geometry":{"type":"MultiPolygon","coordinates":[[[[-46.434785598985108,-23.5694999722628,0.0],[-46.435091160904342,-23.569068007982441,0.0],[-46.435173633452372,-23.56940240914523,0.0],[-46.4349737556647,-23.569630894489869,0.0],[-46.434785598985108,-23.5694999722628,0.0]]],[[[-46.435665354045,-23.569830202425351,0.0],[-46.435478124371834,-23.569998241329529,0.0],[-46.435366897208787,-23.56990563545537,0.0],[-46.435507364697173,-23.569763548832771,0.0],[-46.435712327641717,-23.569711554411459,0.0],[-46.435772053150082,-23.569778622148348,0.0],[-46.435665354045,-23.569830202425351,0.0]]],[[[-46.435806897061482,-23.569921714035541,0.0],[-46.435859417471903,-23.569778226879681,0.0],[-46.436009813790598,-23.569711001264739,0.0],[-46.436077398983407,-23.56979649503732,0.0],[-46.435981183467959,-23.56990538714982,0.0],[-46.435806897061482,-23.569921714035541,0.0]]],[[[-46.436296602776473,-23.569756841112259,0.0],[-46.436284775912419,-23.569671543212461,0.0],[-46.436235652043777,-23.56960285048606,0.0],[-46.436210274886719,-23.56958535148086,0.0],[-46.436199378258827,-23.5695505856118,0.0],[-46.436363731372538,-23.56952213048524,0.0],[-46.436426546455593,-23.569609726433061,0.0],[-46.436296602776473,-23.569756841112259,0.0]]],[[[-46.43458402314257,-23.568881054398929,0.0],[-46.434704121854097,-23.56870795782687,0.0],[-46.434836327565932,-23.568517525089209,0.0],[-46.434905922409278,-23.568567598585609,0.0],[-46.434930039048822,-23.568657831858481,0.0],[-46.434997599544623,-23.568871120734808,0.0],[-46.434639670427707,-23.56935969530964,0.0],[-46.434568149125809,-23.569302748560489,0.0],[-46.434564652378477,-23.56907362623021,0.0],[-46.434481063110873,-23.569012109136761,0.0],[-46.43458402314257,-23.568881054398929,0.0]]],[[[-46.434257995537237,-23.568567969379298,0.0],[-46.434234814933461,-23.568731672318421,0.0],[-46.434194804311083,-23.568754079650269,0.0],[-46.434080017093947,-23.568772397559279,0.0],[-46.43392473749946,-23.56873280384259,0.0],[-46.433967948691297,-23.568552478385161,0.0],[-46.434257995537237,-23.568567969379298,0.0]]],[[[-46.434157580182607,-23.567816763560039,0.0],[-46.434026331493193,-23.567767323333982,0.0],[-46.43395500191906,-23.56781862497122,0.0],[-46.433944313397312,-23.567959953985159,0.0],[-46.433927981107743,-23.568105286400311,0.0],[-46.433858896267971,-23.568085969204439,0.0],[-46.433769665359861,-23.568003709799211,0.0],[-46.433875888184083,-23.567676548208869,0.0],[-46.433911761426337,-23.56758569934474,0.0],[-46.434157580182607,-23.567816763560039,0.0]]]]}}
]
}
