{
"type": "FeatureCollection",
"name": "Piracaia - Lot",
"crs": { "type": "name", "properties": { "name": "urn:ogc:def:crs:OGC:1.3:CRS84" } },
"xy_coordinate_resolution": 1e-15,
"features": [
{"type":"Feature","properties":{"Área (ha)":0.17993377724587917,"Nome do Projeto":null,"Propriedade":null,"Tipo":null,"Ano de Implantação":null,"Metodologia de Restauração":null,"Monitoramento":null,"Município":null,"UGRHI":null,"Região Hidrográfica":null,"Status do Projeto":null,"Fotos do Projeto":null},"geometry":{"type":"Polygon","coordinates":[[[-46.345023271861997,-23.053799204877219,0.0],[-46.344448814833569,-23.055089029361142,0.0],[-46.344352157495443,-23.05503688694705,0.0],[-46.344717662577892,-23.054216854397911,0.0],[-46.344890233812258,-23.0537699588537,0.0],[-46.345023271861997,-23.053799204877219,0.0]]]}}
]
}
