{
"type": "FeatureCollection",
"name": "Rancho Katende",
"crs": { "type": "name", "properties": { "name": "urn:ogc:def:crs:OGC:1.3:CRS84" } },
"xy_coordinate_resolution": 1e-15,
"features": [
{"type":"Feature","properties":{"Área (ha)":8.0431363088196317,"Nome do Projeto":null,"Propriedade":null,"Tipo":null,"Ano de Implantação":null,"Metodologia de Restauração":null,"Monitoramento":null,"Município":null,"UGRHI":null,"Região Hidrográfica":null,"Status do Projeto":null,"Fotos do Projeto":null},"geometry":{"type":"MultiPolygon","coordinates":[[[[-46.207876167831799,-22.898700019876198],[-46.2086793895173,-22.898566354063998],[-46.2085990450948,-22.8980469245633],[-46.208474254278102,-22.898049592614498],[-46.208320809392397,-22.898057965662598],[-46.208027116151001,-22.8980955054002],[-46.207894622959401,-22.8980822560811],[-46.207827272253603,-22.898070662926798],[-46.207806660671999,-22.898064764332499],[-46.207747921554201,-22.8980266693492],[-46.207683784831801,-22.897996971644702],[-46.207638710040897,-22.897982163719899],[-46.207568706703697,-22.897967793867199],[-46.207497185191201,-22.8979630957582],[-46.207425693713098,-22.8979681710919],[-46.207355779828703,-22.897982910003499],[-46.207288956948801,-22.8980069934432],[-46.207226671575697,-22.8980399000821],[-46.2071702719917,-22.898080917596701],[-46.207120979074702,-22.898129158087698],[-46.207079859867598,-22.898183577301399],[-46.2070574354643,-22.898222712421799],[-46.207040053650097,-22.898261771643899],[-46.206962904946401,-22.898182580867601],[-46.206912710894898,-22.898145016432998],[-46.206884568456999,-22.898130307872599],[-46.2068395052993,-22.898113853682101],[-46.206776045631699,-22.898103037079601],[-46.206727612134301,-22.898103554909],[-46.206695661995703,-22.898108020782502],[-46.20667616242438,-22.8981128324948],[-46.206679935436803,-22.8981114732183],[-46.206639376878798,-22.8980939018622],[-46.206588059381403,-22.898026371141],[-46.206518930965501,-22.897952922199099],[-46.206361951854497,-22.897868671942302],[-46.206240977126697,-22.897738336074799],[-46.206187690639503,-22.897675688447901],[-46.206101280119597,-22.897593598454101],[-46.205976896226701,-22.8975293531327],[-46.205856074062197,-22.897400121411799],[-46.205806953410303,-22.897380471832701],[-46.205678453643699,-22.8972749484108],[-46.205677013468403,-22.897232463238499],[-46.205685654520401,-22.897182057101901],[-46.2057130178517,-22.897159014296601],[-46.205807349335799,-22.897095646582098],[-46.205953496920202,-22.896969210220401],[-46.205681414652098,-22.896833169086399],[-46.205239554147802,-22.896597199498199],[-46.204673315512203,-22.897057157299098],[-46.204220047079602,-22.897427118662499],[-46.204177679435602,-22.8974700043985],[-46.2040758132935,-22.897544842753501],[-46.204647561213001,-22.898126121464198],[-46.204969885945403,-22.8982849649475],[-46.205204093125097,-22.8984612000529],[-46.205507866793802,-22.898700044998499],[-46.205613375968802,-22.898737147125999],[-46.205769900569003,-22.898776568136501],[-46.206023818253897,-22.898849612949899],[-46.206050738966702,-22.898867647310102],[-46.206122027645598,-22.898919988682302],[-46.206152991415202,-22.898949152232799],[-46.206227160444698,-22.898996678018701],[-46.206271085792302,-22.899008559465202],[-46.206307810263198,-22.899012519947298],[-46.206345974909503,-22.899009999640501],[-46.206641930940002,-22.898926469471299],[-46.206871691711001,-22.898922447770399],[-46.206887931482598,-22.898964122769499],[-46.206919868903498,-22.899022589004201],[-46.2069611995529,-22.899015612198799],[-46.2070758639437,-22.8990817068713],[-46.207159012454397,-22.899139771302501],[-46.207256185567203,-22.899235163204501],[-46.207339027592397,-22.8992416503262],[-46.2074105197362,-22.899236574962298],[-46.207480434240999,-22.899221835960098],[-46.2075472576553,-22.899197752377599],[-46.207609543442501,-22.899164845556399],[-46.207665943295702,-22.899123827835702],[-46.207715236325498,-22.899075587131399],[-46.207756355487,-22.8990211677161],[-46.2077884106791,-22.898961747612798],[-46.2078107080129,-22.898898613092999],[-46.207822764831,-22.8988331308325],[-46.2078249753297,-22.898788870520001],[-46.207823047875202,-22.8987513367011],[-46.207860595813301,-22.898716841186999],[-46.207876167831799,-22.898700019876198]]],[[[-46.207150893781801,-22.8980419560909],[-46.207210865012897,-22.8979993597024],[-46.207271957201698,-22.897963489059499],[-46.207336412263103,-22.897938827992501],[-46.207391899663897,-22.897925376501401],[-46.207457475683,-22.897920892670999],[-46.2075275355324,-22.8979231345862],[-46.2075964744243,-22.8979365860773],[-46.207714735450097,-22.897971335762598],[-46.207780871948003,-22.898001601617601],[-46.207843645573099,-22.8980257022058],[-46.208086753250797,-22.898026823163399],[-46.208313186684201,-22.897991512999301],[-46.208407347121799,-22.8979825453386],[-46.208770572411296,-22.8980038785628],[-46.208877063382403,-22.8979680079198],[-46.208769451453698,-22.897905234294701],[-46.208702831428198,-22.897846666624702],[-46.208585457862199,-22.8978065063882],[-46.208305596501297,-22.897658927912001],[-46.208148070850697,-22.897581634878801],[-46.207999196933002,-22.897427634497099],[-46.207870260758597,-22.8973355188201],[-46.207647750873903,-22.8972509491376],[-46.207401875184402,-22.897110688901702],[-46.207329595654002,-22.897050573816301],[-46.207300426245702,-22.896951349374699],[-46.207311759237598,-22.89681369078],[-46.207754749358401,-22.8969154158093],[-46.208056069013203,-22.896569762174799],[-46.208032572189403,-22.896544940044802],[-46.208020979069602,-22.8965057442587],[-46.207915536884499,-22.896512368898598],[-46.207778627659799,-22.896496911405499],[-46.207586513102598,-22.896457163566101],[-46.207493768143998,-22.8964152075134],[-46.207330360359698,-22.896360002180799],[-46.207257489320803,-22.8962760900754],[-46.207249884084597,-22.896248006286999],[-46.206777982240297,-22.896502863490099],[-46.206790795629701,-22.896533025311399],[-46.206820373408704,-22.896531763206401],[-46.206882881023198,-22.896513692856502],[-46.206905571423597,-22.896516380559198],[-46.206917848460598,-22.896520787552799],[-46.206957929414699,-22.896543080946199],[-46.207025458242597,-22.896589466963601],[-46.207064778263302,-22.896621167325701],[-46.207102669313798,-22.896657845822801],[-46.207122810243497,-22.8966897210816],[-46.207129426632598,-22.896715430902699],[-46.207126519994198,-22.896740730408599],[-46.207103764505099,-22.8968129624154],[-46.207103088098201,-22.896835275127099],[-46.207107812818499,-22.8968640201714],[-46.207114222274903,-22.8968886843967],[-46.207120639978697,-22.896901377702399],[-46.207147407536702,-22.8969380476812],[-46.207164972877003,-22.896949961384902],[-46.207163272737503,-22.896954318379301],[-46.207133993294001,-22.896973537906],[-46.2071044534637,-22.896987730783401],[-46.206915239121201,-22.897052087018899],[-46.206851991339697,-22.897080732958901],[-46.206817317452,-22.897090355359499],[-46.206770183977198,-22.897094183868202],[-46.206645907244699,-22.897087949787799],[-46.206530933190798,-22.897087318316899],[-46.206431881386003,-22.897092178539701],[-46.206266416266402,-22.897107075100699],[-46.206241306756503,-22.897388227635702],[-46.206308564212001,-22.897717789167501],[-46.206335957613,-22.897760035256699],[-46.206378554001503,-22.897803752602801],[-46.206444200080497,-22.897848380726899],[-46.206515871306401,-22.8978738124522],[-46.206570868288303,-22.897916759139999],[-46.206627406586698,-22.897971896241401],[-46.2066913011694,-22.8980156135875],[-46.2067439861762,-22.8980458794424],[-46.206882424438703,-22.898092959661302],[-46.206953044766998,-22.8981204231223],[-46.206996762113,-22.898129951261801],[-46.207055612386498,-22.8981148183343],[-46.207105494999404,-22.898089036309699],[-46.207150893781801,-22.8980419560909]]]]}}
]
}
