{
"type": "FeatureCollection",
"name": "Reserva Muriqui (2110)",
"crs": { "type": "name", "properties": { "name": "urn:ogc:def:crs:OGC:1.3:CRS84" } },
"xy_coordinate_resolution": 1e-15,
"features": [
{"type":"Feature","properties":{"Área (ha)":21.723481155186555,"Nome do Projeto":"Reserva do Muriqui - São Francisco Xavier","Propriedade":"Santa Rita","Tipo":"Programa Nascentes","Ano de Implantação":"2022","Metodologia de Restauração":null,"Monitoramento":"3 anos","Município":"São José dos Campos","UGRHI":"02 - Paraíba do Sul","Região Hidrográfica":"Paraná","Status do Projeto":"Ativo","Fotos do Projeto":null},"geometry":{"type":"MultiPolygon","coordinates":[[[[-45.972780375357601,-23.005220778482599],[-45.972663200881698,-23.005074310387801],[-45.9727510817386,-23.004649552912799],[-45.972953513582198,-23.0045089753254],[-45.972901211535799,-23.0045104082227],[-45.972677847691202,-23.004609274186699],[-45.972555277024099,-23.0046475775452],[-45.972571658322401,-23.004700816745899],[-45.972524056191602,-23.0048362997337],[-45.972432513632299,-23.004942489102401],[-45.972454483846498,-23.005118250816199],[-45.972447160441803,-23.005264718911],[-45.972417866822802,-23.005370908279801],[-45.972340971073002,-23.0054734359462],[-45.972392234906202,-23.005597933826799],[-45.972157885954502,-23.005766372135799],[-45.9720736668,-23.005689476386099],[-45.9722274582995,-23.005414848708199],[-45.972249428513699,-23.005239086994401],[-45.9722274582995,-23.005037693364098],[-45.972271398727997,-23.0047447571744],[-45.972220134894798,-23.004539701841601],[-45.972267737025597,-23.004349293318398],[-45.972309357613803,-23.0043187715575],[-45.972300692346998,-23.004232118842499],[-45.972282379995598,-23.004098938287498],[-45.972113945526097,-23.004232118842499],[-45.972040711478698,-23.004473791199],[-45.971974800836001,-23.005045016768801],[-45.971608630598901,-23.005579625314901],[-45.9717111582653,-23.005916501933001],[-45.972040711478698,-23.006092263646799],[-45.972758405143303,-23.005923825337799],[-45.972897549833398,-23.0054844210533],[-45.972780375357601,-23.005220778482599]]],[[[-45.976390813895101,-23.0057590487311],[-45.976555590501803,-23.005828621076098],[-45.976577560716002,-23.005663844469499],[-45.976566575608899,-23.0053818933869],[-45.976592207525499,-23.0053416146608],[-45.976643471358699,-23.0053672465774],[-45.976647133061,-23.005319644446601],[-45.976570237311201,-23.005129235923299],[-45.976570237311201,-23.004986429530899],[-45.976625917725599,-23.004920143339],[-45.976504326668604,-23.004752080579099],[-45.976504326668604,-23.004898548673999],[-45.976409122406899,-23.004905872078702],[-45.976343211764203,-23.004832638031299],[-45.976284624526301,-23.004737433769701],[-45.9763102564429,-23.004645891210401],[-45.976174773455199,-23.004620259293802],[-45.9760502755746,-23.0045873039724],[-45.975977041527202,-23.004521393329799],[-45.976006335146103,-23.0042504273544],[-45.976061260681703,-23.004114944366599],[-45.976167450050397,-23.003957491164702],[-45.9762040670742,-23.003865948605402],[-45.9761271713244,-23.003759759236701],[-45.976013658550897,-23.0037707443438],[-45.975881837265497,-23.003972137974198],[-45.975837896837099,-23.004078327342899],[-45.9757353691707,-23.004103959259499],[-45.975731707468299,-23.004060018831101],[-45.9757646627897,-23.003902565629101],[-45.975706075551699,-23.003792714557999],[-45.975559607456901,-23.003785391153301],[-45.9754534180882,-23.003803699665099],[-45.975299626588601,-23.003657231570301],[-45.975252024457802,-23.003591320927601],[-45.975197098922202,-23.0034704847494],[-45.975123864874803,-23.003345986868801],[-45.975003028696598,-23.0033276783569],[-45.9749867814865,-23.003338509838802],[-45.975153158493796,-23.003917212438601],[-45.975292303183899,-23.004363940127899],[-45.975621856397197,-23.004759403983901],[-45.976193081967097,-23.004971782721402],[-45.976149141538599,-23.0051988082684],[-45.976112524514903,-23.0056528593623],[-45.976185758562302,-23.005901855123501],[-45.976456724537698,-23.006048323218401],[-45.9764933415615,-23.006000721087599],[-45.976398137299803,-23.005813974266701],[-45.976390813895101,-23.0057590487311]]],[[[-45.969299927254198,-23.003838485837701],[-45.968845876160202,-23.003919043289802],[-45.968773435270798,-23.003934205357702],[-45.968721852380597,-23.003800585617501],[-45.968622559362998,-23.0036054672353],[-45.968596915439697,-23.003373787956299],[-45.968585210872703,-23.003329463272799],[-45.968557451868698,-23.003274378778102],[-45.968419874617602,-23.003390302605201],[-45.968426611238797,-23.0034576687911],[-45.9684632282625,-23.0035510422016],[-45.968483367625502,-23.003657231570301],[-45.968466889964901,-23.0037286347665],[-45.968452243155397,-23.003818346474599],[-45.9684339346435,-23.003876933712501],[-45.968430272941099,-23.003915381587401],[-45.968472382518399,-23.003970307123002],[-45.968662791041702,-23.0040435411704],[-45.9687067314701,-23.004151561390302],[-45.9688001048806,-23.004206486925899],[-45.968902632547,-23.004248596503199],[-45.968922771910002,-23.004310845443499],[-45.968816582541301,-23.004374925234998],[-45.9687136146702,-23.0043888817235],[-45.968651805934599,-23.004374925234998],[-45.968631666571497,-23.0042907060805],[-45.968585895291902,-23.004248596503199],[-45.968507168690898,-23.004244934800798],[-45.9684339346435,-23.0042247954378],[-45.968428442090001,-23.004180855009299],[-45.968413795280497,-23.004140576283199],[-45.968377178256802,-23.004087481598901],[-45.968335068679501,-23.003992277337201],[-45.968280143144,-23.003928197545701],[-45.9682288793108,-23.003845809242399],[-45.968201416543003,-23.003743281576],[-45.968195923989398,-23.003671878379802],[-45.968221455725903,-23.003557491595799],[-45.968045275514001,-23.003705941592699],[-45.968048767475402,-23.003728629996498],[-45.968207404326797,-23.004004828172299],[-45.968405446398997,-23.004247290896199],[-45.968593308738498,-23.0043731494094],[-45.969321897468397,-23.004596458228399],[-45.969362176194501,-23.004424358217001],[-45.969387808111101,-23.004124098622601],[-45.969299927254198,-23.003838485837701]]],[[[-45.978445812062802,-23.0041934913862],[-45.9783864416871,-23.0039757996765],[-45.978108152306902,-23.0038073613675],[-45.977683394831899,-23.003594982629998],[-45.977610160784501,-23.003389927297199],[-45.977587256802899,-23.0032246904766],[-45.977471269545603,-23.003283918012201],[-45.977383135237503,-23.003283737928498],[-45.977069015866199,-23.003219754848601],[-45.977036934284399,-23.003150656056999],[-45.9768370413518,-23.0033554846177],[-45.976735013917903,-23.003554703903902],[-45.976782616048702,-23.003631599653701],[-45.976819233072398,-23.0037963762604],[-45.976841203286703,-23.003946506057598],[-45.976841203286703,-23.004089312449999],[-45.976899790524598,-23.004191840116398],[-45.976929084143599,-23.0043529550207],[-45.976994994786203,-23.0045616720559],[-45.977091633049,-23.0046979568681],[-45.977225682035602,-23.0046385678056],[-45.977518618225297,-23.004265074163801],[-45.977950699105001,-23.004162546497501],[-45.978445812062802,-23.0041934913862]]],[[[-45.965610299072203,-23.002354221343801],[-45.9654431441881,-23.002311290825801],[-45.965328390837797,-23.001970732496101],[-45.965317285674899,-23.001885592913599],[-45.965190927089203,-23.001952575952899],[-45.965150511330997,-23.0019783018293],[-45.965132191323697,-23.0019934245787],[-45.965099970643998,-23.0020276584317],[-45.964971927378002,-23.002217675611],[-45.964807354126002,-23.002518579781],[-45.964708388736099,-23.002672754970799],[-45.964453237863701,-23.002680832515299],[-45.9644562556797,-23.0027537215466],[-45.964464649273701,-23.0027674378942],[-45.964569007791198,-23.002811378322701],[-45.9648747599392,-23.002785746406101],[-45.964920531218802,-23.002789408108399],[-45.964957148242497,-23.0028095474715],[-45.964924192921202,-23.002866303858202],[-45.964907715260502,-23.002902920881901],[-45.964867436534398,-23.002959677268699],[-45.9650322131411,-23.002996294292402],[-45.965118263146799,-23.003010941101898],[-45.965156671600099,-23.003034946396902],[-45.965316471609398,-23.002785997530701],[-45.965477200014703,-23.002491377350399],[-45.965531202778202,-23.002410564991798],[-45.965610299072203,-23.002354221343801]]],[[[-45.966866726028798,-23.002020450610601],[-45.966939960076303,-23.0018593357063],[-45.966577451541603,-23.001830042087299],[-45.966203957899701,-23.001881305920499],[-45.9660721366144,-23.001892291027598],[-45.965900036603003,-23.001855674003899],[-45.965885389793499,-23.001791594212399],[-45.965768215317603,-23.001700051653099],[-45.965673011055998,-23.001661603778299],[-45.965548513175399,-23.001696389950801],[-45.9654588014673,-23.0017549771887],[-45.965508234449302,-23.0018099027243],[-45.9656162546692,-23.001870320813399],[-45.965594284455001,-23.001949047414399],[-45.965520756296897,-23.0020664432889],[-45.965645782208,-23.002286659382399],[-45.965891052426201,-23.002346457175101],[-45.966255671942299,-23.0025111837585],[-45.966712934529298,-23.002463516597398],[-45.967196279242202,-23.002350003823999],[-45.966866726028798,-23.002020450610601]]],[[[-45.969279787891097,-23.002357327228701],[-45.969580047485501,-23.002203535729102],[-45.970810379482103,-23.001668927183001],[-45.970942200767396,-23.001603016540301],[-45.971176549719203,-23.001559076111899],[-45.971586660384702,-23.001698220802002],[-45.9720992987166,-23.0018593357063],[-45.972589966834299,-23.001947216563199],[-45.973038339243999,-23.002730290365299],[-45.973413849867697,-23.0026502634183],[-45.973626228605198,-23.002467178299799],[-45.973743403081002,-23.002049744229499],[-45.973889871175899,-23.001764131444599],[-45.974336598865101,-23.001493165469199],[-45.974483066959898,-23.001434578231301],[-45.974545665768503,-23.001391240647202],[-45.974538674483099,-23.0013718201952],[-45.974428141424298,-23.0011306569345],[-45.973725094569097,-23.000603371793101],[-45.973358544406601,-23.000540534803001],[-45.973185613394499,-23.0005747908179],[-45.972971424327397,-23.000709223566599],[-45.972736337661402,-23.000879286725699],[-45.972534383672397,-23.0009725099973],[-45.972334329644802,-23.000931805587602],[-45.972137044212197,-23.000855897322801],[-45.972040711478598,-23.000830397340099],[-45.9720368757919,-23.000817356028801],[-45.9720200611035,-23.000810886318501],[-45.972011665815302,-23.0007316421989],[-45.9719674774312,-23.000581401578899],[-45.971886919978999,-23.0005081675315],[-45.971714586748803,-23.000543822706401],[-45.9716043969811,-23.000639878604499],[-45.971439974736903,-23.0006615568089],[-45.971278456867203,-23.000577962911599],[-45.971191196528601,-23.000552107959901],[-45.971030081624299,-23.000530137745699],[-45.970977416407102,-23.000509881923598],[-45.970882625548001,-23.0004953247396],[-45.970790376760398,-23.0006489543726],[-45.970627338326302,-23.000679682525998],[-45.970258353567601,-23.000642368194299],[-45.970213009664199,-23.0006782843537],[-45.970085362412703,-23.000815750530599],[-45.970044541145803,-23.000901475238201],[-45.970018534806101,-23.000991253311099],[-45.969727381202098,-23.001107469882601],[-45.9693596526132,-23.001181872868901],[-45.969314558201503,-23.001183083970702],[-45.969294434700601,-23.001189244172402],[-45.9689640539641,-23.001196426368999],[-45.9689125470371,-23.001256141167602],[-45.968708562321297,-23.001526120790501],[-45.968595400752399,-23.001577986542799],[-45.968374240039402,-23.001709816894301],[-45.968092692234301,-23.0018336091868],[-45.968064102703998,-23.0018483505992],[-45.967961575037599,-23.002251137859901],[-45.967952213664503,-23.0022745413427],[-45.9679446672342,-23.002338209242399],[-45.967849778379303,-23.002566045484699],[-45.967746650463802,-23.002674494062699],[-45.967749196300197,-23.002686880442099],[-45.968269158036797,-23.0031189613218],[-45.968474213369603,-23.0032507826072],[-45.968679268702303,-23.0030676974886],[-45.968906294249301,-23.0026649102278],[-45.969279787891097,-23.002357327228701]]],[[[-45.967791974544497,-23.001156738585301],[-45.967909991741202,-23.001038228200901],[-45.968006551265702,-23.000929593590499],[-45.9679636359215,-23.0008456486044],[-45.967872440815,-23.000929593590499],[-45.967765152454398,-23.000835772720201],[-45.967706143855999,-23.000722200000599],[-45.967829525470698,-23.000569123575001],[-45.967861711978898,-23.000401233102199],[-45.967990458011599,-23.000322225748601],[-45.968006551265702,-23.000139521066298],[-45.9678402543068,-23.0000605135595],[-45.967502295970903,-22.999922250612801],[-45.967502295970903,-22.999780881736299],[-45.967485553729503,-22.999772165355001],[-45.967361055848897,-22.9997685036526],[-45.967192617539801,-22.999889339830801],[-45.967200048449499,-22.9999225312276],[-45.967275496071103,-23.000174472392501],[-45.967310662420402,-23.000670503003299],[-45.967327320164799,-23.0008444838891],[-45.967403205444803,-23.0011674590443],[-45.9674207886194,-23.001308124441401],[-45.967428192061398,-23.001339589069701],[-45.967381922483902,-23.0014896590306],[-45.967373562745202,-23.0015358193269],[-45.967464523771099,-23.001522588662699],[-45.967641770839698,-23.0012801867917],[-45.967791974544497,-23.001156738585301]]],[[[-45.967294004675999,-23.001210028835501],[-45.967197759930599,-23.0009101894365],[-45.967168146162798,-23.000336422685201],[-45.967071901417398,-22.999981057471501],[-45.967008972160897,-22.999825585190599],[-45.967029213470099,-22.999741929732998],[-45.966851674998701,-22.999589551191701],[-45.9668243405008,-22.999387792701601],[-45.967291483503899,-22.999435288736901],[-45.967569772883998,-22.999427965332099],[-45.967859047371299,-22.999530492998499],[-45.967901086916001,-22.999703428398298],[-45.968219434920002,-22.9998700058423],[-45.968335068679501,-22.999907648342699],[-45.968360100317,-22.999721937003201],[-45.968178715989197,-22.999277730486099],[-45.968133675049103,-22.998944620619199],[-45.967845561101399,-22.998848330852901],[-45.967464283840897,-22.9988224188061],[-45.967079304859404,-22.998666946525098],[-45.966957148067202,-22.998363405405101],[-45.967349530490601,-22.998015443633399],[-45.967567932028203,-22.997748919723101],[-45.967616054400899,-22.9975749388372],[-45.967538318260402,-22.9971196271572],[-45.967532026010097,-22.997065655666599],[-45.967360138893099,-22.997121500248099],[-45.966727916122899,-22.997407556211499],[-45.966753213255402,-22.997644716277598],[-45.966504217494098,-22.998186648228501],[-45.966430983446699,-22.998604082298701],[-45.9664072366092,-22.999053362598499],[-45.966277191947199,-22.999578095129301],[-45.966225928114,-22.9999882057948],[-45.966526187708403,-23.000705899459501],[-45.966181987685502,-23.001218537791399],[-45.965984255757498,-23.0015480910048],[-45.966160017471303,-23.001635971861699],[-45.966636038779498,-23.001606678242702],[-45.967024179230798,-23.0016140016474],[-45.967273174992002,-23.001518797385799],[-45.967294004675999,-23.001210028835501]]],[[[-45.9678426171292,-22.998095169619798],[-45.967608650959001,-22.997989531586501],[-45.967456880398899,-22.998119091820701],[-45.967328100527602,-22.998318469513801],[-45.967331762229897,-22.998461275906202],[-45.967456260110602,-22.998669992941402],[-45.967657653740901,-22.998735903584102],[-45.967870032478402,-22.9987432269888],[-45.967547802669799,-22.998615067405801],[-45.967467245217698,-22.998406350370701],[-45.967661097433201,-22.998251268889501],[-45.9678426171292,-22.998095169619798]]]]}}
]
}
