{
"type": "FeatureCollection",
"name": "Romeu - TNC - Salesópolis 2020_",
"crs": { "type": "name", "properties": { "name": "urn:ogc:def:crs:OGC:1.3:CRS84" } },
"xy_coordinate_resolution": 1e-15,
"features": [
{"type":"Feature","properties":{"Área (ha)":0.3078743405417772,"Nome do Projeto":null,"Propriedade":null,"Tipo":null,"Ano de Implantação":null,"Metodologia de Restauração":null,"Monitoramento":null,"Município":null,"UGRHI":null,"Região Hidrográfica":null,"Status do Projeto":null,"Fotos do Projeto":null},"geometry":{"type":"Polygon","coordinates":[[[-45.835725043067583,-23.520684354019849,0.0],[-45.835723313267323,-23.520782855450019,0.0],[-45.835680329867607,-23.52092014889099,0.0],[-45.835208481619297,-23.520867400465349,0.0],[-45.835173567712168,-23.520840722974619,0.0],[-45.835153795557943,-23.520684379703098,0.0],[-45.835068357623967,-23.52047490710574,0.0],[-45.835178158096923,-23.520470675690479,0.0],[-45.835640969871832,-23.52033723642975,0.0],[-45.835725043067583,-23.520684354019849,0.0]]]}},
{"type":"Feature","properties":{"Área (ha)":1.2220290002519265,"Nome do Projeto":null,"Propriedade":null,"Tipo":null,"Ano de Implantação":null,"Metodologia de Restauração":null,"Monitoramento":null,"Município":null,"UGRHI":null,"Região Hidrográfica":null,"Status do Projeto":null,"Fotos do Projeto":null},"geometry":{"type":"Polygon","coordinates":[[[-45.835669660973771,-23.51909251705213,0.0],[-45.835811474304307,-23.519360676809221,0.0],[-45.835395778625767,-23.519592300456932,0.0],[-45.834738398214213,-23.519756793104929,0.0],[-45.834694479494239,-23.519910103509812,0.0],[-45.83479319999973,-23.520449244748971,0.0],[-45.834948694621687,-23.52047452898918,0.0],[-45.835060603457613,-23.520606598885749,0.0],[-45.835082901084611,-23.520830738179178,0.0],[-45.834602802084973,-23.520826939251361,0.0],[-45.834527076685767,-23.520939664366409,0.0],[-45.834317059037552,-23.520838381091249,0.0],[-45.834322577383382,-23.520634900186572,0.0],[-45.834345604983923,-23.52054116983787,0.0],[-45.834216983131377,-23.520076506867209,0.0],[-45.834205372336577,-23.519929488256619,0.0],[-45.834213277829242,-23.519726466756349,0.0],[-45.834454886410988,-23.51917995421476,0.0],[-45.834521095765183,-23.51899745399292,0.0],[-45.834476602022669,-23.518918660345669,0.0],[-45.834605361500458,-23.518894132154241,0.0],[-45.834606390359127,-23.5189793881969,0.0],[-45.834557983710681,-23.51924294377941,0.0],[-45.834755859876907,-23.519399300574602,0.0],[-45.835064948750308,-23.519491530958511,0.0],[-45.83538827575758,-23.519475379371801,0.0],[-45.835651376696383,-23.519299379682199,0.0],[-45.835595140597668,-23.519162558531612,0.0],[-45.835669660973771,-23.51909251705213,0.0]]]}}
]
}
