{
"type": "FeatureCollection",
"name": "Setuo Hishi - SABESP 2º Licitação",
"crs": { "type": "name", "properties": { "name": "urn:ogc:def:crs:OGC:1.3:CRS84" } },
"xy_coordinate_resolution": 1e-15,
"features": [
{"type":"Feature","properties":{"Área (ha)":0.74534815677474253,"Nome do Projeto":null,"Propriedade":null,"Tipo":null,"Ano de Implantação":null,"Metodologia de Restauração":null,"Monitoramento":null,"Município":null,"UGRHI":null,"Região Hidrográfica":null,"Status do Projeto":null,"Fotos do Projeto":null},"geometry":{"type":"Polygon","coordinates":[[[-46.491867351287027,-22.907289970036739,0.0],[-46.491616393378393,-22.907342858429931,0.0],[-46.491390421911419,-22.907331444534812,0.0],[-46.49120532014458,-22.907309744098271,0.0],[-46.491054688604898,-22.907310592324119,0.0],[-46.490906686912879,-22.907287182605849,0.0],[-46.490733303241782,-22.907260498044469,0.0],[-46.490594604352921,-22.907290557884711,0.0],[-46.49055858053314,-22.907236997289282,0.0],[-46.490533118843302,-22.907133181637558,0.0],[-46.490509969193383,-22.90705297335316,0.0],[-46.490496565899527,-22.906957616721542,0.0],[-46.490518031278043,-22.906807693846432,0.0],[-46.491759306356627,-22.90678981586932,0.0],[-46.491867351287027,-22.907289970036739,0.0]]]}}
]
}
