{
"type": "FeatureCollection",
"name": "São Francisco - SABESP 2º Licitação",
"crs": { "type": "name", "properties": { "name": "urn:ogc:def:crs:OGC:1.3:CRS84" } },
"xy_coordinate_resolution": 1e-15,
"features": [
{"type":"Feature","properties":{"Área (ha)":5.7787002913550243,"Nome do Projeto":null,"Propriedade":null,"Tipo":null,"Ano de Implantação":null,"Metodologia de Restauração":null,"Monitoramento":null,"Município":null,"UGRHI":null,"Região Hidrográfica":null,"Status do Projeto":null,"Fotos do Projeto":null},"geometry":{"type":"Polygon","coordinates":[[[-46.486144153744902,-22.906645822904,0.0],[-46.486230446423903,-22.90673179140418,0.0],[-46.486277953179624,-22.906779730935209,0.0],[-46.486345649506681,-22.906822125941719,0.0],[-46.486421436037602,-22.906848093181249,0.0],[-46.486378715073897,-22.906916374374202,0.0],[-46.486347632601749,-22.906951113607398,0.0],[-46.486285453987797,-22.90692753244684,0.0],[-46.486220430597811,-22.906894588667321,0.0],[-46.48617120187356,-22.90687757410387,0.0],[-46.486114388723983,-22.90682817352381,0.0],[-46.486059337153577,-22.90677012076403,0.0],[-46.48598368659097,-22.906695233994029,0.0],[-46.48588160629609,-22.906562233623429,0.0],[-46.485777597806909,-22.906437486726741,0.0],[-46.485687544243603,-22.90635976124754,0.0],[-46.485613364296988,-22.906298045729589,0.0],[-46.485553942654363,-22.906234280957531,0.0],[-46.485495637649862,-22.906188576446109,0.0],[-46.485416545694662,-22.906125860089521,0.0],[-46.485337352167519,-22.906063062995081,0.0],[-46.485273301588897,-22.90602075238785,0.0],[-46.485193927986039,-22.90595781742358,0.0],[-46.485128505864992,-22.905897190619349,0.0],[-46.485080035673192,-22.905848403888911,0.0],[-46.485006490576673,-22.905777785037579,0.0],[-46.484938625470242,-22.905726528620399,0.0],[-46.484849711593789,-22.90565845418315,0.0],[-46.484786556970747,-22.905607993645472,0.0],[-46.484753858877092,-22.905575933434719,0.0],[-46.484717066112403,-22.90556532870697,0.0],[-46.48467802789024,-22.905541060965469,0.0],[-46.484612414840079,-22.905503473587551,0.0],[-46.484515274439033,-22.90547829879684,0.0],[-46.484387371585093,-22.90546124084355,0.0],[-46.484265759727833,-22.90543638000333,0.0],[-46.48411330106638,-22.90541963145364,0.0],[-46.483944052915831,-22.905413375722709,0.0],[-46.483821876489827,-22.905415224282709,0.0],[-46.483663593954489,-22.905478886385151,0.0],[-46.48352116078533,-22.905536173188509,0.0],[-46.483395886998089,-22.905605063895599,0.0],[-46.483299849273202,-22.905629816616258,0.0],[-46.483182693566498,-22.90565570253386,0.0],[-46.483054774124383,-22.905662061707581,0.0],[-46.482946852854859,-22.905591533014391,0.0],[-46.482880656093798,-22.905532131872281,0.0],[-46.48269084553219,-22.905560675380428,0.0],[-46.482552533914863,-22.90557484928966,0.0],[-46.48237367698858,-22.90559486731647,0.0],[-46.48225346059251,-22.90561040253726,0.0],[-46.482154079257938,-22.905620904379742,0.0],[-46.482016934768268,-22.905625193235611,0.0],[-46.482009719179381,-22.905713528613219,0.0],[-46.482099382621151,-22.90580436083502,0.0],[-46.482122783246098,-22.90588928506763,0.0],[-46.482121886529093,-22.906024858443061,0.0],[-46.482078802985207,-22.906146132851269,0.0],[-46.482027893861577,-22.90621501347723,0.0],[-46.481994268059672,-22.90624127878203,0.0],[-46.481930218769101,-22.906276157532599,0.0],[-46.481843623863199,-22.90630281165188,0.0],[-46.481745731755048,-22.906282239977831,0.0],[-46.481653040829052,-22.906200400471619,0.0],[-46.481435059341493,-22.90598943472553,0.0],[-46.481281169363839,-22.90597235330598,0.0],[-46.481115974672029,-22.90596745322166,0.0],[-46.48093312428874,-22.905971035630959,0.0],[-46.48073305978474,-22.90582814189008,0.0],[-46.480508615419993,-22.905692735550328,0.0],[-46.480621415165729,-22.905528477290019,0.0],[-46.480700180423277,-22.905391294980451,0.0],[-46.480519031729493,-22.905339052256071,0.0],[-46.480345588579517,-22.905269950623531,0.0],[-46.480209346828829,-22.905188811640159,0.0],[-46.480099633791241,-22.905124022602891,0.0],[-46.479966011591259,-22.905026615263129,0.0],[-46.479836636281071,-22.904960183136069,0.0],[-46.479743667090403,-22.90501349976531,0.0],[-46.479663752621313,-22.90510631576166,0.0],[-46.479595898289688,-22.905159589426649,0.0],[-46.479506359398471,-22.90522790111487,0.0],[-46.479395073443413,-22.905152522776721,0.0],[-46.479310810157031,-22.905224269051999,0.0],[-46.479209276488263,-22.905305473722422,0.0],[-46.479109898342443,-22.905397196679221,0.0],[-46.479005876161551,-22.905466120980421,0.0],[-46.47885938818353,-22.90534257704536,0.0],[-46.478721610375281,-22.90525184790982,0.0],[-46.478540991339777,-22.90519533950382,0.0],[-46.478334164122032,-22.905231721838771,0.0],[-46.47821261314229,-22.90537610931872,0.0],[-46.47813996304626,-22.905505236365229,0.0],[-46.478093265249562,-22.90559418030929,0.0],[-46.477996400320599,-22.905692480225429,0.0],[-46.477883086465759,-22.90580145762063,0.0],[-46.47776118696877,-22.90590201733335,0.0],[-46.477655801443092,-22.905942334243221,0.0],[-46.477558155069289,-22.90596168298757,0.0],[-46.477479682151127,-22.905979708569241,0.0],[-46.47737517860309,-22.90595833180031,0.0],[-46.477424224048882,-22.905848867019358,0.0],[-46.477461165363763,-22.905759688942808,0.0],[-46.477504718178487,-22.905673010078871,0.0],[-46.477564772868469,-22.905561012392351,0.0],[-46.477617331456401,-22.905439031006459,0.0],[-46.47766532566866,-22.905347975533068,0.0],[-46.47782708106844,-22.905123105032839,0.0],[-46.478058391773089,-22.905037987781931,0.0],[-46.47834442802391,-22.90494706722054,0.0],[-46.478657491856318,-22.90486759367926,0.0],[-46.479006600058639,-22.904796750430929,0.0],[-46.479234181598031,-22.904634733490539,0.0],[-46.479387200694973,-22.904526447182661,0.0],[-46.479726991774548,-22.904094555158299,0.0],[-46.480132209159713,-22.9036748884904,0.0],[-46.48045715663369,-22.903719118635038,0.0],[-46.480788027028147,-22.903793592818879,0.0],[-46.4808329392216,-22.903861115006631,0.0],[-46.480847348573612,-22.903990526162989,0.0],[-46.480728811278361,-22.904153774728549,0.0],[-46.480602021265241,-22.904365877932779,0.0],[-46.480569304180683,-22.904626629039559,0.0],[-46.480761529064957,-22.904866058067309,0.0],[-46.481146269003382,-22.905171135034781,0.0],[-46.481551948653703,-22.905434846220931,0.0],[-46.481935612100912,-22.905404402542569,0.0],[-46.482204037087051,-22.905363432952718,0.0],[-46.482416856800597,-22.905349557637511,0.0],[-46.482788161852859,-22.90527799422793,0.0],[-46.483459356838168,-22.905223396848069,0.0],[-46.48376512422918,-22.90519702367979,0.0],[-46.484264047419003,-22.905177203678111,0.0],[-46.484754295408607,-22.90522695195952,0.0],[-46.485096389717022,-22.90543292890764,0.0],[-46.485353740107463,-22.905622739680911,0.0],[-46.485680915928839,-22.90607421079628,0.0],[-46.485812605820627,-22.9062645947891,0.0],[-46.486024222845842,-22.90648534290014,0.0],[-46.486144153744902,-22.906645822904,0.0]]]}}
]
}
