{
"type": "FeatureCollection",
"name": "Zé Toto - Nazaré - 2017 - Recuperação Ambiental",
"crs": { "type": "name", "properties": { "name": "urn:ogc:def:crs:OGC:1.3:CRS84" } },
"xy_coordinate_resolution": 1e-15,
"features": [
{"type":"Feature","properties":{"Área (ha)":0.28116195945180955,"Nome do Projeto":null,"Propriedade":null,"Tipo":null,"Ano de Implantação":null,"Metodologia de Restauração":null,"Monitoramento":null,"Município":null,"UGRHI":null,"Região Hidrográfica":null,"Status do Projeto":null,"Fotos do Projeto":null},"geometry":{"type":"Polygon","coordinates":[[[-46.363755467603482,-23.256634519927271,0.0],[-46.363623485961803,-23.256781881861261,0.0],[-46.363013520924419,-23.256091003486549,0.0],[-46.363055511467202,-23.256051779421352,0.0],[-46.363319142811122,-23.25611215043174,0.0],[-46.36347374017253,-23.25617208726424,0.0],[-46.363747891715363,-23.25637595650279,0.0],[-46.363859763924168,-23.25651278552974,0.0],[-46.363755467603482,-23.256634519927271,0.0]]]}}
]
}
