{
"type": "FeatureCollection",
"name": "Faz",
"crs": { "type": "name", "properties": { "name": "urn:ogc:def:crs:OGC:1.3:CRS84" } },
"features": [
{ "type": "Feature", "properties": { "FID": 0, "Área (ha)": 213.134 }, "geometry": { "type": "MultiPolygon", "coordinates": [ [ [ [ -46.14375889, -23.72381556 ], [ -46.14385, -23.72346972 ], [ -46.14353167, -23.72279361 ], [ -46.14306917, -23.72179722 ], [ -46.14278028, -23.72132278 ], [ -46.14228722, -23.72068833 ], [ -46.1420275, -23.72022194 ], [ -46.14192361, -23.71996083 ], [ -46.141455, -23.71943278 ], [ -46.143242779999987, -23.71945944 ], [ -46.14370556, -23.71956917 ], [ -46.14397167, -23.71970194 ], [ -46.14420806, -23.71994472 ], [ -46.14440583, -23.72021778 ], [ -46.14563556, -23.72117528 ], [ -46.14618611, -23.72115389 ], [ -46.14769111, -23.72162083 ], [ -46.1479775, -23.72189 ], [ -46.14834528, -23.7221775 ], [ -46.14894667, -23.72245889 ], [ -46.14949472, -23.72206778 ], [ -46.14970222, -23.72185361 ], [ -46.14990361, -23.72157722 ], [ -46.15030278, -23.72068222 ], [ -46.150390280000011, -23.7202025 ], [ -46.15067139, -23.71992111 ], [ -46.15094778, -23.71992556 ], [ -46.15051111, -23.71592194 ], [ -46.15023389000001, -23.71364333 ], [ -46.15118167, -23.71441333 ], [ -46.15173694, -23.71473806 ], [ -46.15219806, -23.71508778 ], [ -46.15315806, -23.71516833 ], [ -46.153391795869034, -23.714834288814476 ], [ -46.153358594902215, -23.714681623337349 ], [ -46.153325105441333, -23.714562395182174 ], [ -46.153317540825448, -23.71443998680699 ], [ -46.153306312126155, -23.714269814613367 ], [ -46.153301413627759, -23.714081673550531 ], [ -46.15327443839675, -23.713965383753692 ], [ -46.153231112579604, -23.713834281099999 ], [ -46.153178449174412, -23.713748052219277 ], [ -46.153099729914686, -23.713650069736492 ], [ -46.152994981135414, -23.713543320358571 ], [ -46.152838199567711, -23.713422023902911 ], [ -46.152653842442191, -23.71326981869943 ], [ -46.152519479766568, -23.713115498455217 ], [ -46.152401284151033, -23.712955083767117 ], [ -46.152361597028793, -23.712868757915604 ], [ -46.152359760183238, -23.712659685313685 ], [ -46.152339431238715, -23.712561267476744 ], [ -46.152256629895184, -23.712367732604303 ], [ -46.152216024298902, -23.712198973798163 ], [ -46.152228160023682, -23.712103301109423 ], [ -46.152279171888779, -23.711706254604273 ], [ -46.152387064535759, -23.71128488885061 ], [ -46.152418534546804, -23.711085843234201 ], [ -46.152432404421283, -23.710892185728774 ], [ -46.152439748692473, -23.710841950307607 ], [ -46.152428696818525, -23.710765566766941 ], [ -46.152394667520433, -23.710732366407555 ], [ -46.152337429888995, -23.710716065795673 ], [ -46.152238839676023, -23.710719189585035 ], [ -46.152161114644542, -23.710734105732058 ], [ -46.152093748737812, -23.710746555148116 ], [ -46.151927079146937, -23.710680888454444 ], [ -46.15186967373662, -23.71064547244838 ], [ -46.151738705419859, -23.710507853002586 ], [ -46.151622699208318, -23.710300824872736 ], [ -46.151569917751374, -23.710200856244779 ], [ -46.151511988286074, -23.710105705024773 ], [ -46.151460307953897, -23.710032610694213 ], [ -46.151397419306036, -23.70996378147758 ], [ -46.151308727355847, -23.709911871144175 ], [ -46.151196554522954, -23.709845798103665 ], [ -46.151097252039079, -23.709767681435167 ], [ -46.151044890517603, -23.70971550066178 ], [ -46.150937237173821, -23.709572927904791 ], [ -46.150916099757509, -23.709530073062378 ], [ -46.150862962812596, -23.709389484291748 ], [ -46.1508204784963, -23.709279880541416 ], [ -46.15078324714014, -23.709177406386846 ], [ -46.150758341099262, -23.709000764211197 ], [ -46.150748623136906, -23.708898802289703 ], [ -46.150720729748393, -23.708795780752343 ], [ -46.150713814319751, -23.708717454623692 ], [ -46.150686373694583, -23.708666044198356 ], [ -46.150581786045308, -23.708576974477772 ], [ -46.150537754331616, -23.708527599036795 ], [ -46.150495362793734, -23.708428508541743 ], [ -46.150471923430196, -23.708359863490578 ], [ -46.150473715094201, -23.70827605044331 ], [ -46.15025028, -23.70822444 ], [ -46.14957139, -23.70824944 ], [ -46.14953917, -23.70827556 ], [ -46.149005, -23.70854694 ], [ -46.14845056, -23.70841444 ], [ -46.14807583, -23.70845333 ], [ -46.14720528, -23.708295 ], [ -46.1468075, -23.70763667 ], [ -46.14583722, -23.70710556 ], [ -46.14452167, -23.70913889 ], [ -46.14272278, -23.71248194 ], [ -46.14184056, -23.71283028 ], [ -46.140399139313928, -23.712669613373926 ], [ -46.140407458802542, -23.712680135472432 ], [ -46.140416855109876, -23.712686279079421 ], [ -46.140434563634379, -23.712693320790283 ], [ -46.140450069445166, -23.712694633134952 ], [ -46.140450145506996, -23.712694642999683 ], [ -46.140463108469959, -23.712696923761705 ], [ -46.140463142106341, -23.712696924294161 ], [ -46.14047602508127, -23.712694928861289 ], [ -46.140476101913499, -23.712694922703136 ], [ -46.140485885370829, -23.712694850584978 ], [ -46.140485963097852, -23.712694848118396 ], [ -46.140499599129797, -23.712694082137556 ], [ -46.140499676313972, -23.712694084265916 ], [ -46.140570997297111, -23.712702089109079 ], [ -46.140571074542287, -23.712702093122875 ], [ -46.140585014606387, -23.712717425658539 ], [ -46.140609985571693, -23.712723932347327 ], [ -46.140626660061706, -23.712731460304578 ], [ -46.140660871592452, -23.712735022819373 ], [ -46.140660948815928, -23.712735028516931 ], [ -46.140679564071583, -23.71273584312809 ], [ -46.140679641821563, -23.712735844540145 ], [ -46.140699297949524, -23.7127280530142 ], [ -46.140726236617965, -23.712722116392833 ], [ -46.140762465594008, -23.712718987893957 ], [ -46.140762542845174, -23.712718987506346 ], [ -46.14078531891878, -23.712720724758437 ], [ -46.140785395408798, -23.712720733427798 ], [ -46.140815464211911, -23.712725278840416 ], [ -46.140815540992854, -23.712725284275724 ], [ -46.140848832857742, -23.712733641221682 ], [ -46.140874875123387, -23.712743963270096 ], [ -46.140906191259447, -23.712764752784707 ], [ -46.140912066089491, -23.712763819742833 ], [ -46.140912141203863, -23.712763810704637 ], [ -46.140915030008067, -23.712771158907273 ], [ -46.140933864250506, -23.712788224878388 ], [ -46.140949609339586, -23.712808181104837 ], [ -46.140990366894592, -23.712839420989788 ], [ -46.141021417802278, -23.712837761830457 ], [ -46.141021495542184, -23.712837759469448 ], [ -46.141029181019952, -23.712826232882257 ], [ -46.141036058157098, -23.712814942747208 ], [ -46.141036090593829, -23.712814889496258 ], [ -46.141041797010026, -23.71282150825704 ], [ -46.141053578818862, -23.712833369184384 ], [ -46.141073208242695, -23.712852340923995 ], [ -46.141073343358322, -23.71286787209295 ], [ -46.141079608707997, -23.712877080305766 ], [ -46.141113925294881, -23.712888540595749 ], [ -46.141129593070822, -23.712912950347317 ], [ -46.14113927214791, -23.712951589891723 ], [ -46.141155068316557, -23.712978694872323 ], [ -46.141155079653927, -23.712978714326329 ], [ -46.141157945885467, -23.71297785128283 ], [ -46.141157999625079, -23.712977835101455 ], [ -46.141169909000197, -23.712985543427472 ], [ -46.141169932142652, -23.712985558406405 ], [ -46.14118545189217, -23.712981148931053 ], [ -46.141200977429556, -23.712983173548825 ], [ -46.141201054471445, -23.712983178238726 ], [ -46.141216681123055, -23.712989514795481 ], [ -46.141222211885506, -23.712998793297846 ], [ -46.141220773335533, -23.713012424422555 ], [ -46.141206840944555, -23.713021846490211 ], [ -46.141189047104227, -23.7130348813848 ], [ -46.141188399550508, -23.713049940413082 ], [ -46.141195531024437, -23.713064225193161 ], [ -46.141200495411432, -23.713069069319662 ], [ -46.141189749647495, -23.713072455655201 ], [ -46.141189672321062, -23.713072451943688 ], [ -46.141172604906863, -23.713070674746405 ], [ -46.141172529381386, -23.713070663473328 ], [ -46.141161166255884, -23.713068365271887 ], [ -46.141153829327159, -23.713060294871422 ], [ -46.141151678417572, -23.713051708306573 ], [ -46.141150573858802, -23.713044069849428 ], [ -46.141145777353096, -23.713040617196654 ], [ -46.141144113138203, -23.71303941925024 ], [ -46.141133132484093, -23.713036272415078 ], [ -46.141116288677708, -23.713031240476575 ], [ -46.141100686970674, -23.713027771202391 ], [ -46.141100617895461, -23.713027774976716 ], [ -46.141082531531829, -23.713029097341803 ], [ -46.141082453899031, -23.713029100461682 ], [ -46.141060473507281, -23.71302926257443 ], [ -46.14103444987844, -23.713021091029766 ], [ -46.141034380565216, -23.713021095915863 ], [ -46.141007221866801, -23.713023678017407 ], [ -46.140994288379972, -23.71302855591113 ], [ -46.140979328128665, -23.713036671278925 ], [ -46.140969030918498, -23.713046305473512 ], [ -46.140964781181026, -23.713059188344353 ], [ -46.140963973767981, -23.713061635977269 ], [ -46.140973415855868, -23.713073036251675 ], [ -46.140980741394834, -23.713077455259096 ], [ -46.140981391604988, -23.713082302515954 ], [ -46.140989239228254, -23.713089413333002 ], [ -46.140990889817417, -23.713100154197683 ], [ -46.140986337135509, -23.713113808286998 ], [ -46.14098256921524, -23.713128173457996 ], [ -46.140975668479356, -23.713140411125206 ], [ -46.140967191981325, -23.713150509805175 ], [ -46.140950880326976, -23.713154931312786 ], [ -46.140950845971915, -23.713154920096162 ], [ -46.140942291587457, -23.713152127174201 ], [ -46.140938361539511, -23.713147854941411 ], [ -46.140938292362272, -23.713147864946453 ], [ -46.140922043649013, -23.713151559622709 ], [ -46.140906535460942, -23.713158842677263 ], [ -46.140900394537759, -23.713168924130692 ], [ -46.140895019670417, -23.71317756619634 ], [ -46.14089200532495, -23.713189058331515 ], [ -46.140881130883741, -23.713192005998319 ], [ -46.140881111585657, -23.713191990700366 ], [ -46.140874859019583, -23.713187034163589 ], [ -46.140874804395949, -23.713187053151849 ], [ -46.14086011064677, -23.713192161003128 ], [ -46.140852369018774, -23.713197236174107 ], [ -46.140845049670965, -23.71320312068239 ], [ -46.140845122412181, -23.713211483619894 ], [ -46.140840643351702, -23.713218685339875 ], [ -46.140840570846883, -23.713218677314735 ], [ -46.140834145231253, -23.713217538474009 ], [ -46.140834721263474, -23.713209170752798 ], [ -46.14083467450169, -23.713203794578746 ], [ -46.140834596649114, -23.713203795152822 ], [ -46.140826240455191, -23.713203856769869 ], [ -46.140825015649575, -23.713212229275165 ], [ -46.140825077998116, -23.713219397507281 ], [ -46.140817318701828, -23.713222441677356 ], [ -46.140817302049143, -23.713222418241006 ], [ -46.140811407006538, -23.7132141217945 ], [ -46.140811277115354, -23.713199187977629 ], [ -46.140811214767623, -23.713192019745538 ], [ -46.140805318661016, -23.713185491920608 ], [ -46.140797481432472, -23.713179575799423 ], [ -46.140787012745186, -23.713169497344097 ], [ -46.140777249982548, -23.713165984983849 ], [ -46.140764254485582, -23.71316369853394 ], [ -46.140765992782832, -23.713180873328216 ], [ -46.140762995051261, -23.713194276990006 ], [ -46.140739253212956, -23.713209745255384 ], [ -46.140727372086282, -23.71321727154324 ], [ -46.140732637081783, -23.713225835153914 ], [ -46.140734804592562, -23.713236333254024 ], [ -46.140752501093701, -23.713241937726607 ], [ -46.140756728054889, -23.713250508990125 ], [ -46.140764094065688, -23.713261924584813 ], [ -46.140781782258593, -23.713266573289523 ], [ -46.140800500176709, -23.713270258573797 ], [ -46.140815099199919, -23.713277797529766 ], [ -46.140824508038989, -23.713285374755756 ], [ -46.140825654147385, -23.713297792037014 ], [ -46.140816378317034, -23.713305507039482 ], [ -46.140797776775145, -23.71331520245727 ], [ -46.140797725245136, -23.713315189311341 ], [ -46.140790493887522, -23.713313344507288 ], [ -46.140773852038151, -23.713309643914162 ], [ -46.140773822940766, -23.713309655329798 ], [ -46.140761437153394, -23.713314514582436 ], [ -46.140761401624026, -23.713314498551917 ], [ -46.140751015216139, -23.713309812299258 ], [ -46.140742652729173, -23.713303183179317 ], [ -46.140742598655926, -23.713303202603893 ], [ -46.140720920444714, -23.713310990020609 ], [ -46.140720842591897, -23.713310990594454 ], [ -46.14070431184642, -23.71331111247704 ], [ -46.140702889679964, -23.713325668265547 ], [ -46.1406925508659, -23.713330523621526 ], [ -46.140689519102303, -23.713342082079834 ], [ -46.140667508192543, -23.713346647651395 ], [ -46.140645544193973, -23.713326745782421 ], [ -46.140625597063952, -23.713301085552782 ], [ -46.140620307137162, -23.713289654645369 ], [ -46.140614975653044, -23.71327344491597 ], [ -46.140598242386332, -23.71325923089567 ], [ -46.14056808113348, -23.713252762472138 ], [ -46.140558639066064, -23.713241362172404 ], [ -46.140532463746176, -23.713215747844121 ], [ -46.14051679346489, -23.713204393455094 ], [ -46.140494770306255, -23.713178748510938 ], [ -46.140496663543054, -23.71315770639016 ], [ -46.140476799574294, -23.713141603782809 ], [ -46.140476731499888, -23.713141612283373 ], [ -46.140441562972839, -23.71314854764989 ], [ -46.140441487254158, -23.713148559103804 ], [ -46.140434721566685, -23.713149358712489 ], [ -46.140415637953261, -23.71315160864102 ], [ -46.140400948144972, -23.713133560473107 ], [ -46.1403883255133, -23.713114537000358 ], [ -46.140388247660624, -23.713114537574118 ], [ -46.140363412650281, -23.713114720629445 ], [ -46.140363335152145, -23.713114717651852 ], [ -46.140342634957044, -23.713112965673478 ], [ -46.140327944928238, -23.713094909710481 ], [ -46.140312208203831, -23.713075909183683 ], [ -46.140284106458111, -23.713067513871856 ], [ -46.140263287582655, -23.713060976530731 ], [ -46.140242949187737, -23.713048509526065 ], [ -46.140200734271289, -23.713028748302907 ], [ -46.140200660968098, -23.713028752149793 ], [ -46.140177390745535, -23.713030351695735 ], [ -46.140054919181956, -23.713130184554309 ], [ -46.139962108551018, -23.713201360579575 ], [ -46.13983698893032, -23.713287709366671 ], [ -46.139731102497478, -23.71334772679306 ], [ -46.139721674571774, -23.713353570791742 ], [ -46.139718126629866, -23.71335577002062 ], [ -46.139702540209278, -23.713368167553121 ], [ -46.139699680925304, -23.713377761907392 ], [ -46.139711245212645, -23.713387882208089 ], [ -46.139729735437228, -23.713393712577492 ], [ -46.139743114923846, -23.713395679532145 ], [ -46.139743189939431, -23.713395691965147 ], [ -46.139928694409839, -23.713435748248362 ], [ -46.140112734037579, -23.713484117322178 ], [ -46.140120310794337, -23.71348610863075 ], [ -46.140140952782843, -23.713491533716329 ], [ -46.140272119612085, -23.713533579191196 ], [ -46.140297179716036, -23.713546645976081 ], [ -46.140298082501879, -23.713547116704625 ], [ -46.140324545412646, -23.713560914930191 ], [ -46.140336938974279, -23.713567383278097 ], [ -46.140356589646792, -23.713570152917036 ], [ -46.140356666561914, -23.713570157984353 ], [ -46.140369693993804, -23.71357603587105 ], [ -46.140377119057092, -23.713586270202612 ], [ -46.140377156654445, -23.713586322024863 ], [ -46.140377169510479, -23.713586339745 ], [ -46.140386599306026, -23.713583685664297 ], [ -46.140400274702984, -23.713585966107228 ], [ -46.140413276168552, -23.713588857226341 ], [ -46.140423698117388, -23.713593559531681 ], [ -46.140436725554366, -23.713599437412419 ], [ -46.140442461681694, -23.713604014343879 ], [ -46.140447459911414, -23.713604728700854 ], [ -46.140459418109067, -23.713606433136096 ], [ -46.140459495004038, -23.713606438260854 ], [ -46.140471152175223, -23.713603962765401 ], [ -46.140477721856726, -23.713595331784827 ], [ -46.140480669672826, -23.713595588764019 ], [ -46.140480747145638, -23.713595591861651 ], [ -46.140505709744914, -23.713601140250621 ], [ -46.140509986723629, -23.713600827257736 ], [ -46.140510064356882, -23.713600824138314 ], [ -46.140515346782088, -23.713612597839671 ], [ -46.140518004214741, -23.713619746941418 ], [ -46.140529084543125, -23.713629196026069 ], [ -46.140529116500183, -23.7136292232783 ], [ -46.140540088535218, -23.713622571091438 ], [ -46.14054063341986, -23.713610619254599 ], [ -46.140549676642394, -23.713606373156793 ], [ -46.140563880361157, -23.713606861903518 ], [ -46.140563958148086, -23.713606862956066 ], [ -46.140571800587686, -23.713613376440829 ], [ -46.140577717481953, -23.713622293684782 ], [ -46.140581023693116, -23.713629438002339 ], [ -46.140568748915072, -23.713635502405232 ], [ -46.140568671524676, -23.713635506722628 ], [ -46.14054943131984, -23.71363752285232 ], [ -46.140540575305323, -23.713648703359073 ], [ -46.14053522221235, -23.713659854294665 ], [ -46.140536471042026, -23.713669164387841 ], [ -46.14054084022623, -23.713679168346694 ], [ -46.140542117107088, -23.713691704144399 ], [ -46.140537916224645, -23.713701054412979 ], [ -46.140537843578585, -23.713701043397361 ], [ -46.140527773512538, -23.713698620142864 ], [ -46.140511352691412, -23.713690497200314 ], [ -46.140511275095839, -23.713690494722439 ], [ -46.140497716784409, -23.713689526843694 ], [ -46.140490024137904, -23.713699973729717 ], [ -46.14048112713612, -23.713706491138598 ], [ -46.140471470302337, -23.713715164755815 ], [ -46.140463781609206, -23.713726332906255 ], [ -46.140462305577344, -23.713735663086485 ], [ -46.140448366821346, -23.713744368266745 ], [ -46.140430535409749, -23.713753102139933 ], [ -46.14042238265165, -23.713755671278996 ], [ -46.140422356562169, -23.713755655540901 ], [ -46.140418860564971, -23.713753546633694 ], [ -46.140418783350889, -23.713753542507256 ], [ -46.140413014712287, -23.713752877551432 ], [ -46.14040131245951, -23.713750091638811 ], [ -46.140392726807036, -23.713747645882616 ], [ -46.14038450860631, -23.713742688375238 ], [ -46.140370454542378, -23.713738132318003 ], [ -46.140359140917631, -23.713735348233147 ], [ -46.140348565313602, -23.713727899057542 ], [ -46.140345756319242, -23.713718242027763 ], [ -46.140342218653707, -23.713714325322389 ], [ -46.140339437705585, -23.713707893997114 ], [ -46.140338338529588, -23.713702225792133 ], [ -46.140333793232699, -23.713696226164544 ], [ -46.140361197575643, -23.713679825609557 ], [ -46.140352180838178, -23.713667894194607 ], [ -46.14035970777757, -23.713663071951565 ], [ -46.140356058352808, -23.713652564282778 ], [ -46.140350882485315, -23.713637661574072 ], [ -46.140336632116124, -23.713610525579735 ], [ -46.140313089253198, -23.713589193028557 ], [ -46.140247431013002, -23.713559568444332 ], [ -46.140198336950263, -23.713544744007731 ], [ -46.140185215647143, -23.713540781897429 ], [ -46.140012591975598, -23.713488656305884 ], [ -46.139736830567877, -23.713419935850698 ], [ -46.1397367531805, -23.713419932382134 ], [ -46.139697266881278, -23.713416076894909 ], [ -46.139697189869111, -23.713416076787759 ], [ -46.139667561372121, -23.713418880751732 ], [ -46.13965154273842, -23.713427126633594 ], [ -46.13963196118015, -23.713443519914026 ], [ -46.139412162381504, -23.713654942599653 ], [ -46.139377628802066, -23.713682915876735 ], [ -46.139352391912816, -23.713705563640431 ], [ -46.139332295406113, -23.713722438589979 ], [ -46.139316332730282, -23.713734683182935 ], [ -46.13929248888099, -23.713753377896928 ], [ -46.139283682297652, -23.713762742128516 ], [ -46.139278345531679, -23.713768416827097 ], [ -46.1392681052128, -23.713784621796972 ], [ -46.139267601722111, -23.71380135245732 ], [ -46.139278106671568, -23.713815612487878 ], [ -46.13930428603215, -23.713841704913616 ], [ -46.139437514276665, -23.713960450889608 ], [ -46.139455804580926, -23.713974653567558 ], [ -46.139460484462134, -23.713976551291363 ], [ -46.139466017737199, -23.713978793409122 ], [ -46.139473573246804, -23.713978052855129 ], [ -46.139476341858625, -23.713975795482185 ], [ -46.139479686435905, -23.713972425458213 ], [ -46.139482264936383, -23.713970494815271 ], [ -46.13948690914313, -23.713967354175399 ], [ -46.139490284858738, -23.713967568268643 ], [ -46.139493504170701, -23.713969955487634 ], [ -46.139496175864636, -23.713977395373632 ], [ -46.139515732348947, -23.713988007338006 ], [ -46.139525003597768, -23.713988649986938 ], [ -46.139525081208298, -23.713988652381648 ], [ -46.139538278890498, -23.713984253956752 ], [ -46.139548312617698, -23.71397414388079 ], [ -46.139552853020852, -23.713959056181459 ], [ -46.139553282229464, -23.713946702661225 ], [ -46.139560623889935, -23.713942119382409 ], [ -46.139585226185375, -23.713944318873786 ], [ -46.139585303644417, -23.713944322034994 ], [ -46.139608988194574, -23.713952843203995 ], [ -46.139606590427704, -23.713960810964586 ], [ -46.139618436579738, -23.713980079176025 ], [ -46.139621675279074, -23.713994392705647 ], [ -46.139621046230914, -23.714011602202977 ], [ -46.139625032321376, -23.714022325880379 ], [ -46.139624421959198, -23.714041685847999 ], [ -46.139639319966562, -23.714053762883527 ], [ -46.139654224205373, -23.714066556741027 ], [ -46.139659076035606, -23.714087310210267 ], [ -46.13966544756093, -23.714103751268549 ], [ -46.139674902076322, -23.714116585268929 ], [ -46.139668088371209, -23.714138858410731 ], [ -46.139660415156534, -23.714151818582778 ], [ -46.139648064511292, -23.71416409634114 ], [ -46.139630201843339, -23.714169246008773 ], [ -46.139613896240867, -23.714174384204757 ], [ -46.139613819582792, -23.714174390820119 ], [ -46.139596013689278, -23.714177377356439 ], [ -46.139595937206749, -23.714177381423095 ], [ -46.139574203314865, -23.714176112870817 ], [ -46.139560868769372, -23.714164738635265 ], [ -46.139553793458482, -23.714156905188258 ], [ -46.139552003197565, -23.71414409594971 ], [ -46.139551925460196, -23.714144094420966 ], [ -46.13952993425773, -23.7141430658221 ], [ -46.139529857942179, -23.71414305699426 ], [ -46.139509142345929, -23.714139632518325 ], [ -46.139486907447967, -23.714119484990182 ], [ -46.1394686793966, -23.714112450551767 ], [ -46.139457433832703, -23.714105453348946 ], [ -46.139457403772568, -23.714105483660187 ], [ -46.139437535417329, -23.714125517989302 ], [ -46.139437492647787, -23.714125483185772 ], [ -46.139413139470626, -23.714105665881185 ], [ -46.139413104156731, -23.71410570107086 ], [ -46.139390122987749, -23.714128601458953 ], [ -46.139390081920716, -23.714128565375137 ], [ -46.139377177553619, -23.714117226888369 ], [ -46.139399067340221, -23.714094214734359 ], [ -46.139395548553296, -23.714091351333277 ], [ -46.139395471522086, -23.71409135691863 ], [ -46.139378216813533, -23.714093756312042 ], [ -46.139365636564065, -23.714079516591674 ], [ -46.139370158310108, -23.714062278426439 ], [ -46.139377856458054, -23.714052185561684 ], [ -46.139371528561121, -23.714040762254438 ], [ -46.139352769050817, -23.714032297976892 ], [ -46.139344784459588, -23.714009416959232 ], [ -46.13935555937443, -23.713995000220816 ], [ -46.139356929627439, -23.713973484048601 ], [ -46.139356851774266, -23.713973484621949 ], [ -46.139333573657197, -23.713973656051241 ], [ -46.139305334781994, -23.713949490450108 ], [ -46.139298869908785, -23.713922297021675 ], [ -46.139269148706191, -23.7139067447619 ], [ -46.13923322416079, -23.713894105652997 ], [ -46.13920649257517, -23.713864193978008 ], [ -46.139187645934953, -23.713845694149057 ], [ -46.139187570811295, -23.713845698647035 ], [ -46.139147186940427, -23.71384885679408 ], [ -46.139130159109129, -23.713860454822225 ], [ -46.139089750165382, -23.71386935478019 ], [ -46.139089672312203, -23.713869355353403 ], [ -46.139066394211326, -23.713869526741789 ], [ -46.13906631677294, -23.713869530854961 ], [ -46.13904487344012, -23.713871659762461 ], [ -46.139044765055026, -23.713871717665391 ], [ -46.139029016478297, -23.713879316383775 ], [ -46.139007987158699, -23.713894081618552 ], [ -46.139005773759642, -23.713895635703491 ], [ -46.139005655152587, -23.713895718980528 ], [ -46.138987743778593, -23.71390829501895 ], [ -46.138931696742318, -23.713959805939005 ], [ -46.138931692143963, -23.713959904823234 ], [ -46.13881277616705, -23.714103347358794 ], [ -46.138739119850918, -23.71422245575981 ], [ -46.138677948789052, -23.714378787568169 ], [ -46.138677869951529, -23.714378792341176 ], [ -46.138653661525197, -23.714455048523504 ], [ -46.138653636232448, -23.714455128195354 ], [ -46.138622398805218, -23.714553211133754 ], [ -46.138611568393578, -23.714568319052798 ], [ -46.138602976049555, -23.714580304968898 ], [ -46.138602912729645, -23.714580393297332 ], [ -46.13849372395017, -23.714732706288398 ], [ -46.138492918154427, -23.714733830332264 ], [ -46.138476307259658, -23.714757001678425 ], [ -46.138462384750234, -23.714776422857621 ], [ -46.138464643162479, -23.714788959336513 ], [ -46.138475629801178, -23.714798914658768 ], [ -46.138491268999026, -23.714806685133475 ], [ -46.138506587208589, -23.714810276417129 ], [ -46.138507647787506, -23.714808649410489 ], [ -46.138515877515445, -23.714799986413059 ], [ -46.138519896963871, -23.714784663618257 ], [ -46.138538446882016, -23.714771159103339 ], [ -46.138538465701764, -23.714771145402469 ], [ -46.138550872563052, -23.714773909311397 ], [ -46.138550946740466, -23.714773923787977 ], [ -46.13857061852179, -23.714776635447301 ], [ -46.138570695027298, -23.714776643167056 ], [ -46.138599600296025, -23.714769547672258 ], [ -46.138618076831662, -23.714790913956911 ], [ -46.138618995193802, -23.714791975951528 ], [ -46.138617647898855, -23.714804016557402 ], [ -46.13862609336018, -23.714820203439654 ], [ -46.138619989525203, -23.714834585751685 ], [ -46.138603413912229, -23.714838531049395 ], [ -46.138583765634586, -23.714847278088705 ], [ -46.138566276428264, -23.714865567494634 ], [ -46.138562215496712, -23.714876111466175 ], [ -46.138562535476737, -23.714894869461027 ], [ -46.138564573706901, -23.714908592191115 ], [ -46.138579189392686, -23.714918042884129 ], [ -46.138583399678545, -23.714924702678911 ], [ -46.13857942172131, -23.714944804299002 ], [ -46.138567014892374, -23.714950630564033 ], [ -46.138545185727523, -23.714966685616467 ], [ -46.138543405226379, -23.714981390748225 ], [ -46.138552921931847, -23.71500139305379 ], [ -46.138556110762281, -23.715009972018379 ], [ -46.138548935670848, -23.715020538908309 ], [ -46.138550147965368, -23.715040602329829 ], [ -46.13854519002907, -23.715067401942264 ], [ -46.138531869592427, -23.715087572316573 ], [ -46.138519512530451, -23.715099133167179 ], [ -46.138511407240387, -23.715122132637489 ], [ -46.138526105918444, -23.715141140982677 ], [ -46.138534559689575, -23.715158283633496 ], [ -46.138528464127504, -23.715173621707148 ], [ -46.138532773986178, -23.715191750680582 ], [ -46.138544333624012, -23.715207914647369 ], [ -46.138552712725769, -23.715216455413817 ], [ -46.138575690955427, -23.715232535341734 ], [ -46.138570749613876, -23.715261246484054 ], [ -46.138565783378041, -23.715287090331742 ], [ -46.138568000543287, -23.715303323053512 ], [ -46.138567972116626, -23.715309039305826 ], [ -46.138567918625505, -23.715319795721644 ], [ -46.138553493734989, -23.715332327619667 ], [ -46.13854529716734, -23.7153448136789 ], [ -46.138544416762947, -23.715362980849214 ], [ -46.1385404304921, -23.715382126703108 ], [ -46.138532405453986, -23.715404421380576 ], [ -46.138527317456479, -23.715426191196865 ], [ -46.138532690271866, -23.715447179824164 ], [ -46.138537016736535, -23.715467220325927 ], [ -46.138552564937498, -23.715476599674972 ], [ -46.138552670539795, -23.715476663378947 ], [ -46.138564016664077, -23.715475795267842 ], [ -46.138564924579612, -23.715475725801671 ], [ -46.138576587300108, -23.715481266487732 ], [ -46.138589110346061, -23.715488820926858 ], [ -46.138592299192133, -23.715497399889639 ], [ -46.138592320489735, -23.715499853019203 ], [ -46.138589991710035, -23.715510623199133 ], [ -46.138588808234644, -23.715523774514242 ], [ -46.138590853125017, -23.715535109895619 ], [ -46.138604570957945, -23.715545761973615 ], [ -46.138614766048335, -23.715546937269259 ], [ -46.138614699957181, -23.715547056957899 ], [ -46.138607460841833, -23.715560166734651 ], [ -46.138606641780981, -23.71556008411941 ], [ -46.138598840802864, -23.715558349361046 ], [ -46.13858587547579, -23.715559639566834 ], [ -46.138572853102033, -23.715554358888951 ], [ -46.138563059095965, -23.715547262276701 ], [ -46.13854678537863, -23.715539386017628 ], [ -46.138532541072991, -23.71553960927951 ], [ -46.138515907288145, -23.715536864217707 ], [ -46.138505452055703, -23.715528338729118 ], [ -46.13848770554398, -23.715516999420586 ], [ -46.138491758202086, -23.715505499686127 ], [ -46.138501034325287, -23.715497784814069 ], [ -46.138500858941818, -23.715486979380184 ], [ -46.138495771740317, -23.715477001680195 ], [ -46.138475822304336, -23.71546356062446 ], [ -46.138453973363802, -23.715457986456943 ], [ -46.138441367361679, -23.715440874358446 ], [ -46.138427698418312, -23.715420902603213 ], [ -46.138416097292321, -23.715399959804298 ], [ -46.138426287019882, -23.715377900825558 ], [ -46.138413548286877, -23.715345496487153 ], [ -46.138388460762322, -23.715325608753169 ], [ -46.138367542053679, -23.715307601990816 ], [ -46.138370399037569, -23.715277950365319 ], [ -46.138382639983291, -23.715253008818049 ], [ -46.138417767877655, -23.715233633808776 ], [ -46.13844264797374, -23.715229627418079 ], [ -46.138454511457027, -23.715223002512584 ], [ -46.138467387023418, -23.715209373021647 ], [ -46.138470343544597, -23.715191190572757 ], [ -46.138470169312754, -23.715171119511442 ], [ -46.138468857467572, -23.71513958691137 ], [ -46.138462463217941, -23.71512051744882 ], [ -46.138449840656023, -23.715101493819393 ], [ -46.138448595189509, -23.715077607337214 ], [ -46.138451551711199, -23.715059424888668 ], [ -46.138457589201344, -23.715037396463739 ], [ -46.138452199824627, -23.715014496301851 ], [ -46.138446743961538, -23.715003280694429 ], [ -46.138450038674655, -23.714988768627816 ], [ -46.138440513689169, -23.714967810550522 ], [ -46.138407534325445, -23.714949770380542 ], [ -46.138458295914894, -23.714871101749932 ], [ -46.138491275264712, -23.714889141909772 ], [ -46.138491476780089, -23.714889232834174 ], [ -46.13849209163844, -23.714889439982997 ], [ -46.138492705884211, -23.714889576578539 ], [ -46.138493319517529, -23.714889642620623 ], [ -46.138493932538367, -23.714889638109337 ], [ -46.138494623411745, -23.714889774140872 ], [ -46.138495307119747, -23.714890020127157 ], [ -46.138506094390898, -23.71486887787465 ], [ -46.138498711881432, -23.714855550640966 ], [ -46.138489236679511, -23.714840327155311 ], [ -46.138477491778517, -23.714834027559107 ], [ -46.138469619287214, -23.714824049320342 ], [ -46.138448648549712, -23.714829938596782 ], [ -46.138440115746761, -23.714833585735033 ], [ -46.138426314742368, -23.71483398933017 ], [ -46.138380825221361, -23.714907778545786 ], [ -46.138359708448576, -23.714940759446161 ], [ -46.138356692357, -23.71494547007994 ], [ -46.138311802335899, -23.715015580786776 ], [ -46.138176977528886, -23.715183851873487 ], [ -46.138166947186157, -23.715213497103285 ], [ -46.138177683446429, -23.715258435237573 ], [ -46.138194814508118, -23.715335463771275 ], [ -46.138211069655377, -23.71541419981466 ], [ -46.138233652699512, -23.715504359207991 ], [ -46.138246482653841, -23.715547276975084 ], [ -46.138270174878954, -23.715585813601894 ], [ -46.138306373571567, -23.715629993156696 ], [ -46.138318189192049, -23.715639359789275 ], [ -46.138344417332867, -23.715660021309063 ], [ -46.138400296450975, -23.715686651587415 ], [ -46.13842285733876, -23.71568454404586 ], [ -46.138455568579452, -23.715685737064494 ], [ -46.138483111017393, -23.715686801900475 ], [ -46.138497012105972, -23.715685347986145 ], [ -46.138509757857499, -23.715670224739942 ], [ -46.138523169623468, -23.715660567778784 ], [ -46.138552185427876, -23.715654619280034 ], [ -46.138578203227468, -23.715662074401852 ], [ -46.138597884816761, -23.715657150418505 ], [ -46.138619567835512, -23.715643609269762 ], [ -46.138625621915807, -23.715623492369382 ], [ -46.138640096618715, -23.715616695052411 ], [ -46.138650551866895, -23.715625220531109 ], [ -46.138653865194733, -23.715648135962894 ], [ -46.138642587641108, -23.715664468007073 ], [ -46.138633377900348, -23.715679829005534 ], [ -46.138630369617353, -23.715688566827485 ], [ -46.138644050602103, -23.715692952333423 ], [ -46.138673685016812, -23.715698469168071 ], [ -46.138707916002296, -23.715695349731114 ], [ -46.138735980885777, -23.715699444367782 ], [ -46.138759499000216, -23.715717909854501 ], [ -46.138753444937016, -23.715738026759173 ], [ -46.13873954319898, -23.715751032736797 ], [ -46.138742831649544, -23.71577108087148 ], [ -46.13876160382646, -23.715780978860106 ], [ -46.138769650682846, -23.715811028137271 ], [ -46.138783913442957, -23.715839597918833 ], [ -46.13879196030863, -23.715869647194381 ], [ -46.138798599480204, -23.715916911694688 ], [ -46.138775404994931, -23.715935721036566 ], [ -46.138750603619847, -23.715948807249053 ], [ -46.138760020843151, -23.71595734035996 ], [ -46.138775653973362, -23.715964393975259 ], [ -46.138788185376853, -23.71597290416026 ], [ -46.138777360449446, -23.715981586276527 ], [ -46.138753954321913, -23.715976023617493 ], [ -46.138738383433981, -23.71597613823473 ], [ -46.13872587693001, -23.715970495339629 ], [ -46.138711227987628, -23.71594549246479 ], [ -46.13868513121583, -23.715940686747096 ], [ -46.138666383916295, -23.715933656044079 ], [ -46.13863819450988, -23.715915224926572 ], [ -46.138625663121239, -23.715906714728856 ], [ -46.138605495658943, -23.715915465595895 ], [ -46.138616644219404, -23.715944058313994 ], [ -46.138662061186373, -23.715973832542566 ], [ -46.138671602884116, -23.715996702128777 ], [ -46.138681244168801, -23.716031040889995 ], [ -46.13867065573821, -23.71606696229162 ], [ -46.138652244507512, -23.716098640055968 ], [ -46.138633746135838, -23.716120282289523 ], [ -46.138616829743562, -23.716144780354561 ], [ -46.138596662244723, -23.716153531221703 ], [ -46.138564013120835, -23.716159506472557 ], [ -46.13854222629228, -23.716161100557585 ], [ -46.138542137586171, -23.716161043878348 ], [ -46.13851560638907, -23.716144091606861 ], [ -46.138495202409551, -23.716125603167161 ], [ -46.138479382586844, -23.716097044817893 ], [ -46.138458854164533, -23.716064219902034 ], [ -46.13844308413892, -23.716041396136678 ], [ -46.138444541665848, -23.716029915501259 ], [ -46.138450583343023, -23.716008364959894 ], [ -46.13845189152412, -23.715979680559283 ], [ -46.138433007333077, -23.715956879709594 ], [ -46.138409402103619, -23.715928378643817 ], [ -46.138398315813028, -23.715906954144632 ], [ -46.138413799580029, -23.715896804031981 ], [ -46.138441777383449, -23.715890863190907 ], [ -46.138471337163125, -23.715887778180029 ], [ -46.138486833367629, -23.71587906170755 ], [ -46.138474289546259, -23.71586911784981 ], [ -46.138452154294889, -23.715830569801213 ], [ -46.138441117787181, -23.715814879893319 ], [ -46.138425397576583, -23.715797790712564 ], [ -46.138401916826275, -23.715783626115588 ], [ -46.138386258847298, -23.715773705166296 ], [ -46.138373652821542, -23.715756593063777 ], [ -46.138379769166811, -23.715743644407567 ], [ -46.138365680724739, -23.715735145645251 ], [ -46.138345413716657, -23.715732427300697 ], [ -46.138328148886451, -23.7157167832139 ], [ -46.138303011526247, -23.715691160880251 ], [ -46.138288910651198, -23.715681228463229 ], [ -46.138300555869144, -23.715677349343874 ], [ -46.138282418635306, -23.715658569287264 ], [ -46.138256559296579, -23.715631793424429 ], [ -46.138231247768189, -23.715586100015884 ], [ -46.138223176164736, -23.715553183409966 ], [ -46.13820555054231, -23.715495963535876 ], [ -46.138191126197405, -23.715448756278263 ], [ -46.138179816028142, -23.715401526107225 ], [ -46.138168356564599, -23.715337092166418 ], [ -46.138151435224756, -23.715263751425841 ], [ -46.138139167565917, -23.715212403361058 ], [ -46.138152663878614, -23.715172514290309 ], [ -46.138289353202055, -23.715001916196073 ], [ -46.138357561125183, -23.714895386820089 ], [ -46.138384778994372, -23.714851236341385 ], [ -46.13838341208367, -23.714849850452648 ], [ -46.138377124405466, -23.714843475476812 ], [ -46.138367748768665, -23.714839721161823 ], [ -46.138360845250595, -23.714829504380486 ], [ -46.13835618089086, -23.714822601414056 ], [ -46.138333294012369, -23.714817034862925 ], [ -46.138324923246728, -23.714809449847596 ], [ -46.138309252949725, -23.714798095237281 ], [ -46.138303863610304, -23.714775195068349 ], [ -46.138299570389933, -23.714758977615698 ], [ -46.138301480582307, -23.714739847041383 ], [ -46.138314900567671, -23.714731145865283 ], [ -46.138333643527645, -23.714737698736762 ], [ -46.138358631378466, -23.714746117306873 ], [ -46.138374268489486, -23.714753648852611 ], [ -46.138398168519572, -23.714756340464902 ], [ -46.138419934377652, -23.714752356996541 ], [ -46.138432291417452, -23.714740796154121 ], [ -46.138454357801876, -23.714742699658576 ], [ -46.138597744967484, -23.714542681645082 ], [ -46.138652387187634, -23.714371109596016 ], [ -46.138714619610283, -23.714212063684592 ], [ -46.138727108969768, -23.714191867373163 ], [ -46.138783404422426, -23.714100832955115 ], [ -46.138779753405103, -23.714082663426943 ], [ -46.138784831594805, -23.714069722397298 ], [ -46.138791446102793, -23.714054380494002 ], [ -46.138789797751961, -23.714043878542022 ], [ -46.138788120355969, -23.714030031412875 ], [ -46.13877820499961, -23.714023891528882 ], [ -46.13875802538471, -23.714031208759167 ], [ -46.138733116482527, -23.714031870014846 ], [ -46.138725327004821, -23.714031449435865 ], [ -46.138706675408272, -23.71403541002185 ], [ -46.138685947722671, -23.714039385885865 ], [ -46.138669866339953, -23.714040460072432 ], [ -46.138657360027203, -23.714034817163132 ], [ -46.138647876573302, -23.714018637919178 ], [ -46.138637433904528, -23.714011546080943 ], [ -46.138622810021388, -23.714001139623768 ], [ -46.13860815710003, -23.713987387987856 ], [ -46.138598221011804, -23.713978858679546 ], [ -46.138584157642633, -23.71397322722326 ], [ -46.138577352281061, -23.713966586524972 ], [ -46.138570522029113, -23.713957078531671 ], [ -46.13856161154348, -23.713947107934089 ], [ -46.138555811040021, -23.713936636535554 ], [ -46.138548984939774, -23.713927606423606 ], [ -46.138537022446364, -23.713918227716999 ], [ -46.138536903137485, -23.713904483617672 ], [ -46.138539378978848, -23.713890725398755 ], [ -46.138543775222281, -23.713873966090702 ], [ -46.138549515687231, -23.713862573411443 ], [ -46.13855916955287, -23.713853541497212 ], [ -46.138570063928526, -23.713837929149314 ], [ -46.138579686676898, -23.713825313115265 ], [ -46.138589973757021, -23.71381448436561 ], [ -46.13860350471677, -23.713803631741534 ], [ -46.13862221551242, -23.713791546211979 ], [ -46.138726726184281, -23.713697783108024 ], [ -46.138828475485347, -23.713609815045078 ], [ -46.138852505751366, -23.713585359025398 ], [ -46.138901792672151, -23.713535198829394 ], [ -46.138918202015674, -23.713523096533919 ], [ -46.139002025041854, -23.713461274924612 ], [ -46.138995970797573, -23.713425260504042 ], [ -46.139010211396617, -23.713362909261299 ], [ -46.139041177720216, -23.713274085620807 ], [ -46.13904289944135, -23.713269147041441 ], [ -46.139045058206456, -23.713188780329403 ], [ -46.139012453573216, -23.713130354379871 ], [ -46.13901457681721, -23.713020479069343 ], [ -46.13903338084544, -23.71295024038961 ], [ -46.139034015628532, -23.712947869283465 ], [ -46.139079877721052, -23.712776560320261 ], [ -46.13906540583028, -23.712767312354718 ], [ -46.139052856050483, -23.712756651706634 ], [ -46.139034881496428, -23.712748898473357 ], [ -46.139027688023162, -23.71272744534652 ], [ -46.139030418758836, -23.712711022348927 ], [ -46.139022902199578, -23.712710040737221 ], [ -46.139010082403509, -23.712728056854644 ], [ -46.138994594898627, -23.712737729132503 ], [ -46.138973782357553, -23.712731908436801 ], [ -46.138947831521406, -23.71273209947697 ], [ -46.138923302713287, -23.712746617435748 ], [ -46.138906403546528, -23.712743157488202 ], [ -46.138899843221154, -23.712734842302247 ], [ -46.138903569867779, -23.712715698347992 ], [ -46.138908625176157, -23.712700128960915 ], [ -46.138922784020465, -23.712686882124586 ], [ -46.138940949599686, -23.712686748400106 ], [ -46.138955243302945, -23.71268903274186 ], [ -46.138976035087985, -23.712692464028009 ], [ -46.138997989546546, -23.71268035457846 ], [ -46.13901093383538, -23.712676674936279 ], [ -46.139030428078293, -23.712680115767537 ], [ -46.139047655128643, -23.712685525410144 ], [ -46.139049879298867, -23.712682836060736 ], [ -46.139054510127622, -23.712668199122074 ], [ -46.139048448406207, -23.712663256143895 ], [ -46.139040559410681, -23.712651366398312 ], [ -46.139031341751362, -23.712635902086028 ], [ -46.139028653296755, -23.712625168835356 ], [ -46.139014183230692, -23.712602574494969 ], [ -46.139006211245722, -23.712581127097565 ], [ -46.138993090600621, -23.712564496733236 ], [ -46.138995101916429, -23.712554164464056 ], [ -46.138831066034633, -23.712531161214532 ], [ -46.138615508470224, -23.712513631202931 ], [ -46.138444046561411, -23.712493386864075 ], [ -46.138327185040964, -23.712484688450573 ], [ -46.138228385412539, -23.712463909242995 ], [ -46.138194106906354, -23.712459045122689 ], [ -46.138146418856564, -23.71245227817462 ], [ -46.138124988992914, -23.712449237265655 ], [ -46.138086021346425, -23.712444744781152 ], [ -46.13803923736949, -23.712436725431818 ], [ -46.137978024989224, -23.712410890449426 ], [ -46.137955974568094, -23.712398020325928 ], [ -46.137954356982014, -23.712397076192591 ], [ -46.13789833, -23.71239083 ], [ -46.13765944, -23.71230778 ], [ -46.13702083, -23.71457389 ], [ -46.13555667, -23.71417333 ], [ -46.13622333, -23.71180611 ], [ -46.1362, -23.71179778 ], [ -46.136059386967418, -23.711728857095878 ], [ -46.136056003953946, -23.711730341087833 ], [ -46.1360440707872, -23.711730906621369 ], [ -46.13603060127442, -23.711733873001503 ], [ -46.136018738466433, -23.711742562544533 ], [ -46.136008939293895, -23.711749803194667 ], [ -46.135997554109387, -23.711753710095106 ], [ -46.135992891266284, -23.711754700157506 ], [ -46.135981472971594, -23.711754783992507 ], [ -46.13597262491227, -23.711751981475334 ], [ -46.135964781771413, -23.71174534827211 ], [ -46.135953836966905, -23.711740171580953 ], [ -46.135941949321825, -23.711745993820081 ], [ -46.135935276640616, -23.711754645251659 ], [ -46.135945723124806, -23.711762215169653 ], [ -46.135954629123809, -23.711771708051064 ], [ -46.135950040773139, -23.711781300007068 ], [ -46.135940777161615, -23.711790448374614 ], [ -46.135929379555883, -23.711792921621168 ], [ -46.135919007561647, -23.711793953596736 ], [ -46.135906077744636, -23.711799305571205 ], [ -46.13589838772279, -23.711810354037379 ], [ -46.13589173572705, -23.711821394882275 ], [ -46.135877286109448, -23.711831059233088 ], [ -46.13587256946537, -23.711825836812267 ], [ -46.135862151947471, -23.711821612070636 ], [ -46.135844513758435, -23.711822697385152 ], [ -46.135835789840783, -23.711834231351883 ], [ -46.135836935459459, -23.711846648690987 ], [ -46.135850496028795, -23.711854195754174 ], [ -46.135857288728502, -23.711859402934515 ], [ -46.135868212848521, -23.711862190216962 ], [ -46.135881204747633, -23.711864006491137 ], [ -46.135893567750756, -23.711866504642721 ], [ -46.135904450955636, -23.711864659473196 ], [ -46.135912440761537, -23.711874769177399 ], [ -46.13590995742895, -23.711887691071659 ], [ -46.135902250849085, -23.711896828005919 ], [ -46.13589293756602, -23.711900241774405 ], [ -46.135883138374965, -23.711907482417136 ], [ -46.135871765587503, -23.71191282295807 ], [ -46.135861953979578, -23.711918629950365 ], [ -46.13584899518068, -23.711920636739176 ], [ -46.135843248782294, -23.711916377704242 ], [ -46.135842647005006, -23.711906823853543 ], [ -46.1358270186509, -23.711900247796574 ], [ -46.135810838179879, -23.711889852483694 ], [ -46.135805577693901, -23.711881766572763 ], [ -46.135805490795455, -23.711871731028467 ], [ -46.135805416311115, -23.711863129133441 ], [ -46.135805864978501, -23.711855001311282 ], [ -46.135806259702228, -23.711848021311546 ], [ -46.135803623402971, -23.711835901229183 ], [ -46.135797877009963, -23.711831642192397 ], [ -46.135792093375571, -23.711823082207832 ], [ -46.135776984047531, -23.711816502335218 ], [ -46.135766080622403, -23.711816104461494 ], [ -46.135757311181798, -23.711822381710181 ], [ -46.135751539963891, -23.711815255373121 ], [ -46.135740578610104, -23.711808167134706 ], [ -46.135729160309857, -23.711808250951268 ], [ -46.135714166841325, -23.711815051798489 ], [ -46.135709051182346, -23.711823691791604 ], [ -46.135710678563875, -23.711831804374604 ], [ -46.135710757179559, -23.711840884153087 ], [ -46.13570406378966, -23.711847146159808 ], [ -46.135690577705795, -23.711848200978832 ], [ -46.135684332989698, -23.711846335162878 ], [ -46.135676531232384, -23.711844480775465 ], [ -46.135673359224086, -23.711837813270339 ], [ -46.135670191353618, -23.71183162364791 ], [ -46.135665458167317, -23.711824489688215 ], [ -46.135658158875323, -23.711820719958123 ], [ -46.135653454652264, -23.711816931179559 ], [ -46.135646155361009, -23.711813161448585 ], [ -46.135640404836408, -23.711808424522729 ], [ -46.135633603872712, -23.71180226156627 ], [ -46.135632507922224, -23.711795578821928 ], [ -46.135635547664428, -23.711787442669181 ], [ -46.13563235483943, -23.711777897147535 ], [ -46.135627090231537, -23.711769333346638 ], [ -46.135624395867879, -23.711757883199713 ], [ -46.135624300709132, -23.711746891888474 ], [ -46.135621120431395, -23.711739268615666 ], [ -46.135615361636404, -23.711733575922334 ], [ -46.135597150658533, -23.711728452537233 ], [ -46.135588800935587, -23.711723256772846 ], [ -46.135587704988211, -23.711716574028106 ], [ -46.13559125119999, -23.711706511817457 ], [ -46.135592988820257, -23.711691902946686 ], [ -46.135595763867713, -23.711685092616651 ], [ -46.135602429531744, -23.71167871079135 ], [ -46.135608649415175, -23.711677709312507 ], [ -46.135614910671308, -23.711681486664304 ], [ -46.135623252117824, -23.711685726661301 ], [ -46.135631058002353, -23.711688058934815 ], [ -46.135647674699399, -23.711688892796897 ], [ -46.135659558215963, -23.711682592696967 ], [ -46.135662078807428, -23.711673971753338 ], [ -46.13566668786347, -23.711666769220706 ], [ -46.135671741457379, -23.711650960982602 ], [ -46.13567740508816, -23.711645662362745 ], [ -46.135687760523275, -23.711642718871271 ], [ -46.13569603990576, -23.71163979061798 ], [ -46.135707923415588, -23.711633490514462 ], [ -46.135721887113533, -23.711627653054236 ], [ -46.13573272845732, -23.711620882685377 ], [ -46.135740451584951, -23.711613657291753 ], [ -46.135745064772387, -23.711606932639956 ], [ -46.135748137471921, -23.711602130950034 ], [ -46.135749603479603, -23.711591606092636 ], [ -46.135744987939113, -23.711589167788926 ], [ -46.135739621662459, -23.711586332885112 ], [ -46.135732481108583, -23.711576828845185 ], [ -46.135722692726901, -23.711570329386159 ], [ -46.135716786597328, -23.711562606645703 ], [ -46.135702462028732, -23.711556737874247 ], [ -46.135692725369388, -23.711556211951926 ], [ -46.135686876133128, -23.71155506010281 ], [ -46.135677180848816, -23.711559313010468 ], [ -46.13567001339355, -23.711555781269251 ], [ -46.135657609266161, -23.711546911438148 ], [ -46.135655595735869, -23.711539160123614 ], [ -46.135659542465334, -23.711532868140111 ], [ -46.13484444, -23.71113333 ], [ -46.13475889, -23.71215083 ], [ -46.13436361, -23.71291417 ], [ -46.13415417, -23.71379778 ], [ -46.13402056000001, -23.71399333 ], [ -46.13276778, -23.71418111 ], [ -46.13232694, -23.71450417 ], [ -46.1320775, -23.71531833 ], [ -46.13195056, -23.716505 ], [ -46.13170056, -23.71701722 ], [ -46.13184, -23.71942833 ], [ -46.13297667, -23.71895583 ], [ -46.13365028, -23.718265 ], [ -46.1340625, -23.71830194 ], [ -46.13427694, -23.71910833 ], [ -46.13523611, -23.71904444 ], [ -46.13542972, -23.71858139 ], [ -46.13681, -23.7196475 ], [ -46.13818472, -23.72062861 ], [ -46.13879194, -23.72054611 ], [ -46.13943917, -23.72070333 ], [ -46.139780560000013, -23.72075083 ], [ -46.14103222, -23.72116694 ], [ -46.142631110000011, -23.72329361 ], [ -46.14375889, -23.72381556 ] ], [ [ -46.141627313307708, -23.713669012447507 ], [ -46.141635506590106, -23.713671102595413 ], [ -46.141642905744142, -23.713671406430404 ], [ -46.14165220481101, -23.71367441146575 ], [ -46.141652665446045, -23.713674560321991 ], [ -46.141660821291815, -23.713672349530796 ], [ -46.141667567593124, -23.713663927638972 ], [ -46.141667753186027, -23.71366369595011 ], [ -46.14167438628909, -23.713665439174594 ], [ -46.141682626369438, -23.71367290549211 ], [ -46.141688512141656, -23.713678238575799 ], [ -46.141692831494879, -23.713682507915163 ], [ -46.141696764703198, -23.713687138538379 ], [ -46.141702655769599, -23.713688110629381 ], [ -46.141703002302954, -23.713688167811224 ], [ -46.14171544942333, -23.71368700065274 ], [ -46.141722053760795, -23.713686631713419 ], [ -46.141722842338389, -23.713686587660959 ], [ -46.141728943340418, -23.713687477686726 ], [ -46.141729858468281, -23.713687611187293 ], [ -46.141735753602987, -23.713694019503482 ], [ -46.141742800933436, -23.713698627143966 ], [ -46.141747936259328, -23.713707191673869 ], [ -46.141750732875408, -23.713715415028432 ], [ -46.141758948002746, -23.713720014049908 ], [ -46.141766378360344, -23.713723901993472 ], [ -46.141771077622394, -23.71372709322333 ], [ -46.141778520461145, -23.713732414812135 ], [ -46.141789435485322, -23.713734126430555 ], [ -46.141797258229857, -23.713738369911212 ], [ -46.141801565107855, -23.713741205601448 ], [ -46.141803523914277, -23.713742624882954 ], [ -46.141805087215268, -23.713743330214367 ], [ -46.141810166383507, -23.713745443335693 ], [ -46.141817188757507, -23.713747183680805 ], [ -46.141824150387109, -23.713748143167372 ], [ -46.141824594156319, -23.71374820432986 ], [ -46.141831205423692, -23.713747438667149 ], [ -46.141838202807456, -23.713744664920188 ], [ -46.141838576499573, -23.713744516789504 ], [ -46.14184676666936, -23.713746248514383 ], [ -46.141851852078929, -23.713749078457202 ], [ -46.141857990305439, -23.713751497290428 ], [ -46.141858102163809, -23.713751541369415 ], [ -46.141865495081817, -23.7137511283706 ], [ -46.141871293494582, -23.713746425926324 ], [ -46.141874070616616, -23.713743827597423 ], [ -46.141874382652844, -23.713743535650394 ], [ -46.141883366955241, -23.713747053684529 ], [ -46.141885768074658, -23.713754563086429 ], [ -46.141883871675127, -23.713760312034953 ], [ -46.141883501132384, -23.713762465376725 ], [ -46.141879617841532, -23.713763569341801 ], [ -46.141869911174211, -23.713766508459624 ], [ -46.141860590651362, -23.713769086292427 ], [ -46.141859722209063, -23.713769047046966 ], [ -46.141854776959953, -23.713768823567847 ], [ -46.141848887732124, -23.713766305190781 ], [ -46.141839517284424, -23.713763148439153 ], [ -46.141838851086959, -23.713763281368298 ], [ -46.141830190520544, -23.713765009447162 ], [ -46.141820075865333, -23.713765800966147 ], [ -46.14182001508609, -23.71376573215198 ], [ -46.141815357879487, -23.713760459269221 ], [ -46.141805588807145, -23.713756230153965 ], [ -46.141797370555686, -23.713751272723698 ], [ -46.141790715605943, -23.713747020624588 ], [ -46.141778231039481, -23.713743886851706 ], [ -46.141777601491988, -23.713743997049022 ], [ -46.141773955362844, -23.713744635275408 ], [ -46.141769312261637, -23.713747895452087 ], [ -46.141766248061558, -23.713753653017722 ], [ -46.14176242854824, -23.713759203681473 ], [ -46.141758930024366, -23.713762667886847 ], [ -46.141755859583306, -23.713767708629327 ], [ -46.141750095485627, -23.713776353595616 ], [ -46.141748066303137, -23.713778125616813 ], [ -46.141744300187028, -23.713781414447119 ], [ -46.141740071309151, -23.713787539041942 ], [ -46.141733204199056, -23.713791240934739 ], [ -46.141732306673362, -23.713791172846868 ], [ -46.141715177049726, -23.713789873362451 ], [ -46.141706198988331, -23.713787072141436 ], [ -46.141695259001359, -23.713782493225533 ], [ -46.141684312775425, -23.713777197485928 ], [ -46.141675692782371, -23.713770809275776 ], [ -46.141670186912087, -23.713764398084891 ], [ -46.141662361049967, -23.713759796186206 ], [ -46.141658810866183, -23.713754445866705 ], [ -46.141653700502111, -23.713748748625576 ], [ -46.141644342538747, -23.713747025507686 ], [ -46.141643972924179, -23.713747156247489 ], [ -46.141638133014091, -23.713749221935934 ], [ -46.141627641571937, -23.713751449960718 ], [ -46.141624929194258, -23.713752903713591 ], [ -46.141624256457021, -23.713752715581695 ], [ -46.141618685352562, -23.713751157614823 ], [ -46.141615187071103, -23.713746743146157 ], [ -46.141607318670488, -23.713742280627066 ], [ -46.141601436018028, -23.713737305951792 ], [ -46.14159984776115, -23.713733733326414 ], [ -46.141599019316963, -23.713728004487344 ], [ -46.141594316939226, -23.713724454840683 ], [ -46.141585743747662, -23.713723442797484 ], [ -46.141575217991424, -23.713721728292295 ], [ -46.141571695888061, -23.713719603673926 ], [ -46.141570490658275, -23.713715311352935 ], [ -46.141567719009572, -23.713709955286546 ], [ -46.141565352223815, -23.713706388405267 ], [ -46.141562210027566, -23.713703185679922 ], [ -46.141563306073927, -23.713694933598905 ], [ -46.141570658436244, -23.71368986126495 ], [ -46.141577621533038, -23.713684791802955 ], [ -46.14158344491041, -23.71368295666089 ], [ -46.141591749230528, -23.713682895384753 ], [ -46.141592787270554, -23.71368288772528 ], [ -46.14160401668282, -23.713675994609037 ], [ -46.141605505110938, -23.713668098066897 ], [ -46.141610257864471, -23.713660900823374 ], [ -46.141610500042972, -23.713660534084877 ], [ -46.141618316538363, -23.713664060752045 ], [ -46.141627313307708, -23.713669012447507 ] ], [ [ -46.14171557199586, -23.713265615656329 ], [ -46.141729504373338, -23.713256193543547 ], [ -46.141739065390183, -23.713250678411541 ], [ -46.141739575311156, -23.713250384271177 ], [ -46.141743486667828, -23.713252506013475 ], [ -46.141743542826788, -23.713258957420276 ], [ -46.141746713095735, -23.713265385845727 ], [ -46.141752991235194, -23.713271074466643 ], [ -46.141764706588049, -23.713275289223354 ], [ -46.14177096600865, -23.71327882737463 ], [ -46.141783855832372, -23.713282214909757 ], [ -46.141784232177777, -23.713282313815885 ], [ -46.141793562028425, -23.71328081122331 ], [ -46.141799727846994, -23.71327359702882 ], [ -46.141806609790038, -23.713259208859007 ], [ -46.141814914082666, -23.713259147571925 ], [ -46.141815952119259, -23.713259139911006 ], [ -46.141823008788784, -23.713264822783284 ], [ -46.141826963829558, -23.713271962284168 ], [ -46.141838691665455, -23.7132776106811 ], [ -46.14184496980932, -23.713283299298098 ], [ -46.141852070164795, -23.713293999929636 ], [ -46.141856012727054, -23.713299705783655 ], [ -46.141870044946778, -23.713301752825654 ], [ -46.141875771311341, -23.713303681951533 ], [ -46.141876291890028, -23.713303857326601 ], [ -46.141888710888814, -23.713299464452355 ], [ -46.141897162359754, -23.713286498432641 ], [ -46.141913430308122, -23.713277059065415 ], [ -46.141925027089371, -23.713267654174153 ], [ -46.141940839019092, -23.713265455133158 ], [ -46.141941357443017, -23.713265383033409 ], [ -46.141952269309208, -23.713266736230292 ], [ -46.141965597892259, -23.713277390885175 ], [ -46.141972623363195, -23.713279489635767 ], [ -46.141975799884897, -23.713286634878983 ], [ -46.14197586229654, -23.713293803108169 ], [ -46.141982140446927, -23.71329949171923 ], [ -46.141993874532758, -23.713305856926947 ], [ -46.142002457061011, -23.713307944182816 ], [ -46.142008710247794, -23.71331076550123 ], [ -46.142011120727254, -23.713319350136008 ], [ -46.142007321708732, -23.713330131213024 ], [ -46.141994167872632, -23.713339547603681 ], [ -46.141994242768007, -23.713348149478492 ], [ -46.14199821654455, -23.713357439443126 ], [ -46.141999867220257, -23.713368180293369 ], [ -46.142005366847286, -23.713373874650088 ], [ -46.142011651244282, -23.713380280082614 ], [ -46.142021834524023, -23.71338737360411 ], [ -46.142018764101451, -23.71339241435145 ], [ -46.142008661959323, -23.713394639527387 ], [ -46.141995489393139, -23.713401905449583 ], [ -46.141986165778071, -23.713404124877471 ], [ -46.141972258369599, -23.71341641430466 ], [ -46.141953617377261, -23.713421569980181 ], [ -46.141944293759963, -23.713423789405702 ], [ -46.141933463013373, -23.713431754906534 ], [ -46.14192729719533, -23.713438969106129 ], [ -46.141917263697628, -23.713449079328385 ], [ -46.141908781014727, -23.713458461234794 ], [ -46.141904172251401, -23.713465663941125 ], [ -46.141898784958904, -23.713472872393503 ], [ -46.141891074561151, -23.713481531729848 ], [ -46.141883339199538, -23.713487323774203 ], [ -46.141874806586365, -23.713490971095425 ], [ -46.141865564090779, -23.713502509214393 ], [ -46.141847670407806, -23.713504075017124 ], [ -46.141847561911156, -23.713504001337807 ], [ -46.141838271896908, -23.713497692561329 ], [ -46.14182732256976, -23.713492038419567 ], [ -46.141826964613728, -23.713492397269572 ], [ -46.141816516771669, -23.713502871204323 ], [ -46.141815708338285, -23.713502648686593 ], [ -46.141806370934972, -23.713500078607005 ], [ -46.141789928225521, -23.713489446921656 ], [ -46.141782080535776, -23.713482336148104 ], [ -46.14176959911503, -23.713479560784975 ], [ -46.141757136414832, -23.713478935889629 ], [ -46.141746199572445, -23.713474715387751 ], [ -46.141734471722188, -23.713469066984473 ], [ -46.141723528641464, -23.713464129657872 ], [ -46.141713295452583, -23.713451301532679 ], [ -46.141713195616163, -23.713439832365307 ], [ -46.14172709681251, -23.713426826137439 ], [ -46.14173480721842, -23.713418166808825 ], [ -46.141737024245586, -23.713404529936518 ], [ -46.141731449750132, -23.713390233694415 ], [ -46.141724380597779, -23.713383117172196 ], [ -46.141718887221877, -23.713378139628126 ], [ -46.141713294010316, -23.713361692916255 ], [ -46.141716314526121, -23.713350917590837 ], [ -46.1417239687703, -23.713335806856055 ], [ -46.141717615751645, -23.71332151635842 ], [ -46.141708123664607, -23.713304381549126 ], [ -46.141699435066386, -23.713290108285914 ], [ -46.14169622736123, -23.713279378921548 ], [ -46.141700817411198, -23.713270025752156 ], [ -46.14171557199586, -23.713265615656329 ] ], [ [ -46.140116446000178, -23.714154231116879 ], [ -46.140117915828867, -23.714144184115906 ], [ -46.140125644628768, -23.714135101798007 ], [ -46.140138268962097, -23.714144457773369 ], [ -46.140160148899717, -23.714153615825964 ], [ -46.140181156832504, -23.714152027263843 ], [ -46.140209071855097, -23.714138917886235 ], [ -46.14021448801968, -23.714130574482216 ], [ -46.140221095302486, -23.714123508503569 ], [ -46.140229546991833, -23.714110542567862 ], [ -46.140241137738634, -23.714100420973093 ], [ -46.140248823355755, -23.71408889442095 ], [ -46.140254241925284, -23.714085270138472 ], [ -46.140259483851537, -23.714079025149594 ], [ -46.140267455217533, -23.714091624574799 ], [ -46.14026751120133, -23.71409164651002 ], [ -46.140259816295121, -23.714099566437596 ], [ -46.14025856474332, -23.714106141935261 ], [ -46.14025855638463, -23.714106185851023 ], [ -46.140250142090281, -23.71412345272762 ], [ -46.140240918101107, -23.714137141225812 ], [ -46.140224706007118, -23.714153031834222 ], [ -46.140216260546531, -23.714166714593006 ], [ -46.140190712277303, -23.714183390875281 ], [ -46.14017593260656, -23.71418493353772 ], [ -46.140161296260224, -23.714202963134408 ], [ -46.140152059793387, -23.714215217981042 ], [ -46.140136551435944, -23.714222500963896 ], [ -46.140119548322453, -23.714236963652866 ], [ -46.140115817667201, -23.714255629745317 ], [ -46.140103398513496, -23.71426002248236 ], [ -46.140087908841394, -23.71426945593052 ], [ -46.140080223199895, -23.714280982475355 ], [ -46.140077822954403, -23.714285207294612 ], [ -46.140076487378153, -23.714287558123829 ], [ -46.140076515700542, -23.71429084345008 ], [ -46.140074291709332, -23.714296236358205 ], [ -46.14007236614431, -23.71429864011208 ], [ -46.14006558682987, -23.714299012063677 ], [ -46.140064123352786, -23.71429559061308 ], [ -46.140062885846966, -23.714292697459111 ], [ -46.140063841156184, -23.714288248591288 ], [ -46.140065097172709, -23.714283460207479 ], [ -46.140066347996765, -23.714278074470773 ], [ -46.140070824538142, -23.714270574094883 ], [ -46.140073663555761, -23.714261293612925 ], [ -46.140075858987466, -23.71425261526468 ], [ -46.140077107214324, -23.714246930851445 ], [ -46.140078012878355, -23.714239158094241 ], [ -46.140079567320178, -23.714231380556051 ], [ -46.140080799969219, -23.714223904084779 ], [ -46.140082702166403, -23.714218812243406 ], [ -46.140083309403728, -23.714214028640349 ], [ -46.140085525604434, -23.714207739702868 ], [ -46.140086712601395, -23.714201414424121 ], [ -46.140088014267995, -23.714195474847461 ], [ -46.14009176914044, -23.714191513310119 ], [ -46.140094761527926, -23.714187957737426 ], [ -46.140097320290899, -23.714183757143815 ], [ -46.140097281346129, -23.714179276998372 ], [ -46.14011499486503, -23.714166428587674 ], [ -46.140116446000178, -23.714154231116879 ] ], [ [ -46.135372662760673, -23.711682937937436 ], [ -46.135379953764371, -23.711685751915518 ], [ -46.135397633306063, -23.711689445486037 ], [ -46.135415230117474, -23.711683581391799 ], [ -46.135424514443052, -23.711676822470135 ], [ -46.135428608635927, -23.711670101635903 ], [ -46.13543475778323, -23.711670685087544 ], [ -46.135435933999013, -23.711663851644794 ], [ -46.135443109176322, -23.711653284892204 ], [ -46.135459560400001, -23.711635003449476 ], [ -46.135469709002379, -23.711608165815957 ], [ -46.135462269079554, -23.711588148049103 ], [ -46.135465250781401, -23.711572832935431 ], [ -46.135482789658994, -23.711560278470326 ], [ -46.135502371489082, -23.711543885702145 ], [ -46.13551376494587, -23.711540934604379 ], [ -46.135537581609192, -23.711534069022104 ], [ -46.135558350387299, -23.711534872421286 ], [ -46.135563672899664, -23.711550126588914 ], [ -46.135552461472983, -23.711574104547616 ], [ -46.135552610406485, -23.711591308339791 ], [ -46.135533061671921, -23.71161152417924 ], [ -46.135489563870856, -23.711623313335654 ], [ -46.135468902634251, -23.711634934889098 ], [ -46.135465912658312, -23.711649294236551 ], [ -46.135476491485122, -23.711672156447914 ], [ -46.135472338117509, -23.711685073950978 ], [ -46.135474513453097, -23.711696527910277 ], [ -46.1354736408977, -23.711715650853058 ], [ -46.135466589822407, -23.711740554100682 ], [ -46.135468847893996, -23.711761565722309 ], [ -46.135471676665162, -23.711786559075517 ], [ -46.135469203656797, -23.711802663670611 ], [ -46.135453749074806, -23.711816158665862 ], [ -46.135443926674036, -23.71181667070698 ], [ -46.135432121195215, -23.711829480875753 ], [ -46.135418605058376, -23.711833621459697 ], [ -46.135400935242124, -23.711848650496226 ], [ -46.135395933911553, -23.711852904369771 ], [ -46.135390324185046, -23.711877290417021 ], [ -46.135374617505455, -23.71190125755879 ], [ -46.135376823579982, -23.711923775802635 ], [ -46.135376947674089, -23.711938112296387 ], [ -46.135380227218874, -23.711957204769554 ], [ -46.135365761001211, -23.711964957541753 ], [ -46.13534299055204, -23.711972771249819 ], [ -46.135323359004069, -23.711983429402569 ], [ -46.135314132559614, -23.711996878682843 ], [ -46.135298694483751, -23.712012285196195 ], [ -46.135283206770552, -23.712021957110398 ], [ -46.135268723995502, -23.71202779834157 ], [ -46.135252082439848, -23.712024097141576 ], [ -46.135230327459041, -23.712020006003357 ], [ -46.135209523242992, -23.712024409412788 ], [ -46.135192947862272, -23.712028354336752 ], [ -46.135180350895155, -23.712012197702506 ], [ -46.13517079646725, -23.712001777400463 ], [ -46.135156228084583, -23.711983699879696 ], [ -46.135139225030443, -23.711985632818006 ], [ -46.135129264146499, -23.711986765188698 ], [ -46.135117746575418, -23.711975379764748 ], [ -46.13510623389481, -23.711959565623271 ], [ -46.135096778829684, -23.711952037694008 ], [ -46.13508267656227, -23.711940809754591 ], [ -46.135085129327322, -23.711924960228487 ], [ -46.135090278115371, -23.711920143319883 ], [ -46.13510158063491, -23.711906678821244 ], [ -46.135100335833727, -23.711882792277944 ], [ -46.135108491181441, -23.711865527559809 ], [ -46.135133312870288, -23.711854831356021 ], [ -46.135150975886809, -23.711856613421283 ], [ -46.135169519775097, -23.711840228308429 ], [ -46.135182931420999, -23.711830571637798 ], [ -46.135205635683278, -23.711815111823132 ], [ -46.135224237461209, -23.711805417068319 ], [ -46.135245945046542, -23.711794743695915 ], [ -46.135270733621645, -23.711780224405601 ], [ -46.13529758170084, -23.711763778345432 ], [ -46.135324479408077, -23.711753066878664 ], [ -46.135344110922325, -23.71174240872687 ], [ -46.135352257956633, -23.711724188230807 ], [ -46.13535628597316, -23.711709821268041 ], [ -46.135354061011419, -23.711692632709152 ], [ -46.135372662760673, -23.711682937937436 ] ] ], [ [ [ -46.140308081473812, -23.712659463229123 ], [ -46.140399054484462, -23.71266960552801 ], [ -46.140399139313928, -23.712669613373926 ], [ -46.140308081473812, -23.712659463229123 ] ] ], [ [ [ -46.138297784689975, -23.712435362922278 ], [ -46.13829896573916, -23.712437495056175 ], [ -46.138313756575812, -23.712452695726899 ], [ -46.138333516515836, -23.712454827448976 ], [ -46.138506700595073, -23.712473510609549 ], [ -46.138849603671773, -23.712511609545015 ], [ -46.13907562456869, -23.712538620456005 ], [ -46.139578184161202, -23.71259226919371 ], [ -46.139635685668537, -23.712600740773063 ], [ -46.139642726416781, -23.712601778070443 ], [ -46.139689403078215, -23.712608654828525 ], [ -46.139789211969621, -23.712626080265895 ], [ -46.139866101112325, -23.712634116241059 ], [ -46.139941977149938, -23.712645027119791 ], [ -46.140006393306621, -23.712651243272735 ], [ -46.140077037662842, -23.712657413504225 ], [ -46.140109241591745, -23.712660043673353 ], [ -46.140185067809504, -23.712665219844055 ], [ -46.140252107574476, -23.712666080769701 ], [ -46.140306887302252, -23.712660167878102 ], [ -46.140308081473812, -23.712659463229123 ], [ -46.138297784689975, -23.712435362922278 ] ] ], [ [ [ -46.138067651529362, -23.712409706820715 ], [ -46.138144540357409, -23.712426805883105 ], [ -46.138181999917812, -23.712435136379955 ], [ -46.138184535081805, -23.712435700165763 ], [ -46.13818811818124, -23.712436496997746 ], [ -46.138195822797321, -23.712438210398044 ], [ -46.13820860724713, -23.712432424864119 ], [ -46.138211445321318, -23.712425737529479 ], [ -46.138067651529362, -23.712409706820715 ] ] ], [ [ [ -46.135854628738208, -23.711628492407314 ], [ -46.135836549708586, -23.7116327952895 ], [ -46.135813737967226, -23.711635830233163 ], [ -46.135809652071408, -23.711643506842922 ], [ -46.135822232524163, -23.711657751892893 ], [ -46.135844055900414, -23.711660459164925 ], [ -46.135863786672466, -23.711661270142713 ], [ -46.135878368696645, -23.711666898051629 ], [ -46.135900200351884, -23.711670561081796 ], [ -46.135915845234997, -23.711679048664589 ], [ -46.135942875301218, -23.711683629350347 ], [ -46.135957399391494, -23.711682566888896 ], [ -46.135971218413225, -23.711685640280436 ], [ -46.135854628738208, -23.711628492407314 ] ] ], [ [ [ -46.135805686919717, -23.711604502926921 ], [ -46.135808969560088, -23.711614110144843 ], [ -46.135822044194427, -23.711625484086451 ], [ -46.135830859137833, -23.711624463548166 ], [ -46.135837367698493, -23.711620031682902 ], [ -46.135805686919717, -23.711604502926921 ] ] ], [ [ [ -46.1396000137713, -23.713386053228618 ], [ -46.13961487432951, -23.713393829329494 ], [ -46.139623690242139, -23.713393703081667 ], [ -46.13962912437303, -23.713391870879974 ], [ -46.139637274011932, -23.713388943371214 ], [ -46.139645003243814, -23.713382434612029 ], [ -46.139648064416747, -23.713376318673149 ], [ -46.139651932146485, -23.713373422705136 ], [ -46.139656958326199, -23.713369442899431 ], [ -46.13966389968445, -23.713361864639044 ], [ -46.139672818506291, -23.713357856158368 ], [ -46.13967899067751, -23.713351358867438 ], [ -46.139686336869495, -23.713345569797287 ], [ -46.139690961325471, -23.713340159211235 ], [ -46.139694541798022, -23.713337203123768 ], [ -46.139697532102183, -23.713334734287262 ], [ -46.139706046085038, -23.713328936613657 ], [ -46.139716082865377, -23.713319184940225 ], [ -46.139717194598411, -23.713312724926205 ], [ -46.139718704938822, -23.713307337279822 ], [ -46.139723696855199, -23.713299414942988 ], [ -46.139733422229348, -23.713298626429541 ], [ -46.139737321099432, -23.713299314576869 ], [ -46.139745046638126, -23.713305136563459 ], [ -46.13974522608396, -23.713305016547874 ], [ -46.139981158178621, -23.713147221985746 ], [ -46.140006918970194, -23.713126268489077 ], [ -46.140003833493012, -23.713116269819569 ], [ -46.140004487413272, -23.713101927614574 ], [ -46.139994335410904, -23.713098418072072 ], [ -46.139986105709113, -23.713088638112183 ], [ -46.139908544564896, -23.713020938235864 ], [ -46.139940685161832, -23.712989721489961 ], [ -46.139932570530895, -23.712979227672552 ], [ -46.139923178376584, -23.712973561918417 ], [ -46.139898290455172, -23.712976612765583 ], [ -46.139883654196829, -23.712994642335126 ], [ -46.139875158932078, -23.713002590487971 ], [ -46.139863580708116, -23.713014145701056 ], [ -46.139845811646055, -23.713030047740062 ], [ -46.139829574715627, -23.713043071012024 ], [ -46.139823182347079, -23.713056743404731 ], [ -46.139821166655032, -23.713061054690826 ], [ -46.139800277244689, -23.713076262843881 ], [ -46.13978399670016, -23.713084268347007 ], [ -46.139762148113377, -23.71307869434952 ], [ -46.13974581150579, -23.713080248437304 ], [ -46.139728696370803, -23.713081808258515 ], [ -46.139721614882781, -23.713073257992654 ], [ -46.139714489794557, -23.713059689961913 ], [ -46.139705054042395, -23.713049006429937 ], [ -46.139697960100484, -23.713039022515879 ], [ -46.1396862884284, -23.713039825363715 ], [ -46.139677780691386, -23.713046339859286 ], [ -46.13965676669735, -23.71304721152325 ], [ -46.139637303528147, -23.713047354891486 ], [ -46.139626379240291, -23.713044567882488 ], [ -46.139614763620834, -23.713051822136723 ], [ -46.139605502264935, -23.713061209657116 ], [ -46.139603303703318, -23.713076996978288 ], [ -46.139596365469906, -23.713084933647639 ], [ -46.139584749845163, -23.713092187899786 ], [ -46.139584039826559, -23.713100078693003 ], [ -46.139590386376746, -23.713113652464575 ], [ -46.139592011940053, -23.713121526054476 ], [ -46.139575687780336, -23.713124513771554 ], [ -46.139564694979775, -23.713113841699599 ], [ -46.139561412717235, -23.713094510401373 ], [ -46.139558142911646, -23.713076612750083 ], [ -46.139551808822347, -23.713064472624136 ], [ -46.139540000135298, -23.71304950534298 ], [ -46.139534469486954, -23.713040226776123 ], [ -46.139525874554074, -23.713036705733849 ], [ -46.13950643006833, -23.713038999556264 ], [ -46.13948625064743, -23.71304631687509 ], [ -46.139481685353516, -23.713058537279103 ], [ -46.139483317137, -23.713067127693961 ], [ -46.139492771555751, -23.713079961710797 ], [ -46.139500637784309, -23.713089223077162 ], [ -46.139501584456198, -23.713108571579095 ], [ -46.139500930480843, -23.713122913784161 ], [ -46.139495680072102, -23.713145892275747 ], [ -46.139494210203182, -23.713155939273388 ], [ -46.139493587364839, -23.713173865596083 ], [ -46.139490660081172, -23.713195393238376 ], [ -46.139486138375851, -23.713212631407274 ], [ -46.139472205832519, -23.713222053323964 ], [ -46.139461443445519, -23.713237903716202 ], [ -46.139447454851727, -23.71324087421883 ], [ -46.139438959544201, -23.713248822349186 ], [ -46.139438361607567, -23.71326961596591 ], [ -46.139446265208413, -23.713283178275894 ], [ -46.139467322835074, -23.713287324403833 ], [ -46.139478963393522, -23.713282937453982 ], [ -46.139486686400069, -23.713275711878996 ], [ -46.139490647544285, -23.713283568268029 ], [ -46.139484550097151, -23.713298667434145 ], [ -46.139483871209663, -23.71331014234471 ], [ -46.13949563009426, -23.71331937504074 ], [ -46.139511972963312, -23.713318537801719 ], [ -46.139518051724927, -23.713301288164025 ], [ -46.139528857704335, -23.713290455532722 ], [ -46.139548258631365, -23.713283143941585 ], [ -46.139555377488001, -23.713295995156251 ], [ -46.139556293031113, -23.713311759539327 ], [ -46.1395564113622, -23.713325379186198 ], [ -46.139562807745399, -23.713344687546233 ], [ -46.139563710834061, -23.713359018282169 ], [ -46.139564557870813, -23.713366897606353 ], [ -46.139573968723745, -23.713374713852055 ], [ -46.139578171368413, -23.713381196030504 ], [ -46.1396000137713, -23.713386053228618 ] ] ], [ [ [ -46.15504556, -23.71198028 ], [ -46.15423917, -23.71179 ], [ -46.15402472000001, -23.71133722 ], [ -46.15377639, -23.71131278 ], [ -46.15330917, -23.71146944 ], [ -46.15316583, -23.71114028 ], [ -46.152975, -23.71049361 ], [ -46.15217083, -23.7099925 ], [ -46.1519025, -23.70961139 ], [ -46.15165972, -23.70919472 ], [ -46.15156389, -23.70881222 ], [ -46.15157194, -23.70852972 ], [ -46.150530308114242, -23.708289122596717 ], [ -46.150534623068033, -23.708398655783252 ], [ -46.15059790865827, -23.708512884086357 ], [ -46.150681618971198, -23.708588727517601 ], [ -46.150765329380832, -23.708664570899085 ], [ -46.150787751920028, -23.708735613018526 ], [ -46.150804233652117, -23.708839436283025 ], [ -46.150821155588829, -23.708993437019682 ], [ -46.15084551671746, -23.709107954689543 ], [ -46.150865733846835, -23.709193828461533 ], [ -46.150901772581918, -23.709308259261487 ], [ -46.150961418014042, -23.709451189166455 ], [ -46.151005241942627, -23.70956556202383 ], [ -46.151091789304822, -23.709668864021051 ], [ -46.151182166421528, -23.70976496879392 ], [ -46.151330931522288, -23.70986063905989 ], [ -46.151440551360565, -23.70993151011659 ], [ -46.151519188405807, -23.710020533364382 ], [ -46.151562478155292, -23.710073976261508 ], [ -46.151613710324476, -23.710145281721768 ], [ -46.151661301744113, -23.710245288965467 ], [ -46.151716552443268, -23.710330901827497 ], [ -46.151764081075683, -23.710423740824361 ], [ -46.151803572931918, -23.71048796492817 ], [ -46.151839014928548, -23.710534297480333 ], [ -46.151898032524514, -23.710605544874248 ], [ -46.151980090712975, -23.710640777324965 ], [ -46.152085504222981, -23.710675835829132 ], [ -46.152155570058838, -23.710675314104218 ], [ -46.152244846764084, -23.710645974586615 ], [ -46.152314849611308, -23.710638284584569 ], [ -46.152381211793568, -23.710659296364064 ], [ -46.152454585702138, -23.710695608799394 ], [ -46.152497358504519, -23.71076398999946 ], [ -46.1525014157789, -23.710856555151533 ], [ -46.152492524123311, -23.710952203702565 ], [ -46.152476987415959, -23.71102998006425 ], [ -46.152465849097659, -23.711239149348913 ], [ -46.152435116710954, -23.711433529838086 ], [ -46.152344221200096, -23.711795627468092 ], [ -46.152291957716614, -23.712074798457913 ], [ -46.152288852275099, -23.71216443000192 ], [ -46.152289481994814, -23.712236112043964 ], [ -46.152313750666224, -23.712339877056507 ], [ -46.152361658366289, -23.712475725024269 ], [ -46.152397258570751, -23.712539977917462 ], [ -46.152421306962204, -23.712618654191438 ], [ -46.152425923845058, -23.712701059536347 ], [ -46.152414970301763, -23.712783580858904 ], [ -46.152458891200773, -23.712908705468532 ], [ -46.152533953115359, -23.713033598080987 ], [ -46.152671675061661, -23.71320103585327 ], [ -46.152816836091276, -23.713328990365351 ], [ -46.153008866474643, -23.713474517115081 ], [ -46.153134438929676, -23.713588279949338 ], [ -46.15322485183502, -23.713687967418458 ], [ -46.153303933644558, -23.713827166983439 ], [ -46.1533440576857, -23.713963072596773 ], [ -46.153372850580048, -23.714138490353335 ], [ -46.153377913793129, -23.71429616333603 ], [ -46.153379279616232, -23.714451474323692 ], [ -46.153406622793369, -23.71460957858277 ], [ -46.153444904020475, -23.714758389574857 ], [ -46.15534444, -23.71204361 ], [ -46.15504556, -23.71198028 ] ] ], [ [ [ -46.139447940959975, -23.714012665581567 ], [ -46.139434666031441, -23.714026097121643 ], [ -46.139437063348304, -23.714027983226984 ], [ -46.139450084700435, -23.714014417668452 ], [ -46.139447940959975, -23.714012665581567 ] ] ], [ [ [ -46.140055035210708, -23.713021689857296 ], [ -46.140002455201767, -23.713072758563179 ], [ -46.1400142248036, -23.71307565030806 ], [ -46.140028985661118, -23.713071957195101 ], [ -46.140046063406473, -23.71306609640035 ], [ -46.140062362623489, -23.713060241340607 ], [ -46.140078680531161, -23.713056536749452 ], [ -46.140093495490689, -23.713055848181298 ], [ -46.14010378412101, -23.713047479524221 ], [ -46.140121917348758, -23.713033805620693 ], [ -46.140204511804498, -23.712971522735586 ], [ -46.140254703858616, -23.712930741178251 ], [ -46.140258268900588, -23.712927629741973 ], [ -46.140230201517397, -23.712903059738643 ], [ -46.140267432013268, -23.712867004038522 ], [ -46.140297537142864, -23.712893357865251 ], [ -46.140302737787302, -23.71288881893209 ], [ -46.140368443087141, -23.712809300972605 ], [ -46.140371826763676, -23.712788175427811 ], [ -46.140370311093541, -23.712763096174054 ], [ -46.140357159100837, -23.712742881816443 ], [ -46.140331156341631, -23.712737099560425 ], [ -46.140292178172579, -23.712731412932406 ], [ -46.140193502726952, -23.712724971467956 ], [ -46.14016734116796, -23.712721643069361 ], [ -46.140166621501827, -23.712721551509961 ], [ -46.140169074634244, -23.712742198639027 ], [ -46.14015869460389, -23.712816949022891 ], [ -46.140098446110059, -23.712809856327663 ], [ -46.140091972594611, -23.712809094237958 ], [ -46.140073692301449, -23.712819050800366 ], [ -46.140061360507936, -23.712833479057746 ], [ -46.140045931224549, -23.712849841790199 ], [ -46.140026399643894, -23.712871969704079 ], [ -46.140011045115379, -23.712896934314671 ], [ -46.140002940209065, -23.712919933854288 ], [ -46.140004177612674, -23.712942864555767 ], [ -46.140005406709911, -23.712964839492525 ], [ -46.140000025262786, -23.712973674007451 ], [ -46.140055035210708, -23.713021689857296 ] ] ], [ [ [ -46.140458206375754, -23.71277370224368 ], [ -46.14042577386931, -23.712770312735316 ], [ -46.140407235391642, -23.712780623279322 ], [ -46.140402850933249, -23.71281363158441 ], [ -46.140393745461637, -23.712840939733486 ], [ -46.140367599676871, -23.712878409652628 ], [ -46.140330492195552, -23.712908791668603 ], [ -46.140294979140158, -23.712943463140572 ], [ -46.140269087867772, -23.712962849501267 ], [ -46.140275271022396, -23.712971447239262 ], [ -46.14028780845473, -23.712980674136613 ], [ -46.14029951127533, -23.712983455360511 ], [ -46.140304923567179, -23.712979114254281 ], [ -46.140315766845738, -23.712972582511316 ], [ -46.140327369953106, -23.71296389455938 ], [ -46.140338948130463, -23.712952339313254 ], [ -46.140356779442172, -23.712943605453678 ], [ -46.140369927131445, -23.712933472375543 ], [ -46.140393183189673, -23.712921831050043 ], [ -46.140413399930871, -23.712918814555561 ], [ -46.14042040043045, -23.712918046084972 ], [ -46.14043744074074, -23.71290788430834 ], [ -46.140451404341917, -23.712902046424912 ], [ -46.140459868400313, -23.712890514125192 ], [ -46.140461319494392, -23.712878316650968 ], [ -46.140461992062875, -23.712866124915518 ], [ -46.140464438425248, -23.712846937242976 ], [ -46.140448743936837, -23.712845175737499 ], [ -46.140458206375754, -23.71277370224368 ] ] ], [ [ [ -46.139679621378491, -23.712721329427247 ], [ -46.139673904421599, -23.712768005855118 ], [ -46.139680119390292, -23.712767414632573 ], [ -46.139687900488916, -23.712766879401723 ], [ -46.139705513838393, -23.712762926351456 ], [ -46.139715827733554, -23.712755203767333 ], [ -46.139722977698071, -23.712741769534539 ], [ -46.139732701981508, -23.712725926772762 ], [ -46.13973410954128, -23.712708711537882 ], [ -46.139732394697255, -23.712690563478638 ], [ -46.139731908891925, -23.71268244253725 ], [ -46.139727163000089, -23.712673875065249 ], [ -46.139715719725686, -23.712671091884665 ], [ -46.13970322180969, -23.712666404820343 ], [ -46.139692804112059, -23.712662180344513 ], [ -46.139676178980856, -23.71266039115801 ], [ -46.139666836687269, -23.712660459975186 ], [ -46.139658636231594, -23.712672468204818 ], [ -46.13966076627591, -23.71267866538302 ], [ -46.139657199596599, -23.712686338262859 ], [ -46.139651544394489, -23.712692592787974 ], [ -46.139646927224767, -23.7126988396667 ], [ -46.139646989507426, -23.712706007902256 ], [ -46.139644959115351, -23.712711279900713 ], [ -46.139644697924005, -23.712717703121307 ], [ -46.139679621378491, -23.712721329427247 ] ] ], [ [ [ -46.139091190373698, -23.71298434734457 ], [ -46.139115080808956, -23.712971028841459 ], [ -46.139124314067047, -23.712988285205807 ], [ -46.139114696618094, -23.713001498623683 ], [ -46.139108354155766, -23.713018272275928 ], [ -46.139103293673067, -23.71303324431549 ], [ -46.139103397429636, -23.71304519137642 ], [ -46.139109791147803, -23.71306677886669 ], [ -46.13915784148152, -23.713034977073637 ], [ -46.139159468728828, -23.713033900090334 ], [ -46.13917267080955, -23.713027954373135 ], [ -46.139178416373305, -23.713017159025902 ], [ -46.139184187877298, -23.713009350443549 ], [ -46.139193317382457, -23.713014659742754 ], [ -46.139211488193688, -23.713015123337765 ], [ -46.139227084669493, -23.713017995451516 ], [ -46.139239483980553, -23.713026267626958 ], [ -46.139258895263978, -23.713020150778757 ], [ -46.139275701079441, -23.713012858331656 ], [ -46.139291214537231, -23.713006172790685 ], [ -46.139297001599857, -23.71300015626348 ], [ -46.139297510277082, -23.712984022954736 ], [ -46.139287041716834, -23.712973944392566 ], [ -46.139277253061799, -23.71296744517036 ], [ -46.139263052717318, -23.712975913214191 ], [ -46.139246241717352, -23.712982608306792 ], [ -46.139222195643562, -23.712978006238945 ], [ -46.139209785961611, -23.712968539355735 ], [ -46.139198009488723, -23.712957275635311 ], [ -46.139192051212156, -23.712943579508746 ], [ -46.139182241811262, -23.712934690868099 ], [ -46.139169816572007, -23.71292343192216 ], [ -46.139165757922562, -23.712904345286255 ], [ -46.139158538425015, -23.71289484018321 ], [ -46.139145521487769, -23.712890156895558 ], [ -46.139131855779929, -23.712885478383516 ], [ -46.139120821474421, -23.712884962234845 ], [ -46.139107768224797, -23.712876097472474 ], [ -46.13909605920977, -23.71287259933332 ], [ -46.139092846478363, -23.712876207334649 ], [ -46.139086441765841, -23.712885812749391 ], [ -46.139074782909795, -23.712889013843995 ], [ -46.139044778587774, -23.713021135980849 ], [ -46.139044427491712, -23.713034820541036 ], [ -46.139058601006568, -23.713041936841222 ], [ -46.139067683820329, -23.713041869970333 ], [ -46.139078671449546, -23.713037009944873 ], [ -46.139081183535488, -23.71302743318974 ], [ -46.139077825544241, -23.713014315305383 ], [ -46.139084209512284, -23.713002320478637 ], [ -46.139091190373698, -23.71298434734457 ] ] ] ] } }
]
}
