{
"type": "FeatureCollection",
"name": "Sitio Alvorada",
"crs": { "type": "name", "properties": { "name": "urn:ogc:def:crs:OGC:1.3:CRS84" } },
"features": [
{ "type": "Feature", "properties": { "id": null }, "geometry": { "type": "MultiPolygon", "coordinates": [ [ [ [ -46.949295719591063, -23.820729410205836 ], [ -46.94973861, -23.82146472 ], [ -46.94998111, -23.82190333 ], [ -46.95010917, -23.82209722 ], [ -46.95026194, -23.82226972 ], [ -46.9503375, -23.822385 ], [ -46.95024722, -23.82280667 ], [ -46.950259784024979, -23.822917007112963 ], [ -46.9502625, -23.82297556 ], [ -46.95035389, -23.82314972 ], [ -46.9505, -23.82326 ], [ -46.95072694, -23.82336583 ], [ -46.95090806, -23.82345333 ], [ -46.95101972, -23.82357806 ], [ -46.95103472, -23.82371944 ], [ -46.95099056, -23.82389306 ], [ -46.95094722, -23.82400722 ], [ -46.95096806, -23.82411833 ], [ -46.95098222, -23.82416194 ], [ -46.95122944, -23.82382611 ], [ -46.95128056, -23.823718329999988 ], [ -46.95156556, -23.82317528 ], [ -46.95182111, -23.82268389 ], [ -46.95196472, -23.82273167 ], [ -46.95230167, -23.82290806 ], [ -46.95267667, -23.82310278 ], [ -46.95287528, -23.823237219999985 ], [ -46.95297917, -23.82329972 ], [ -46.95307194, -23.82334389 ], [ -46.95361139, -23.82355611 ], [ -46.95378222, -23.82361278 ], [ -46.95424139, -23.82369472 ], [ -46.95480139, -23.82376139 ], [ -46.95485556, -23.82362083 ], [ -46.95492389, -23.8233725 ], [ -46.95500611, -23.82312917 ], [ -46.95505444, -23.82303611 ], [ -46.95499861, -23.82300833 ], [ -46.95424194, -23.82253556 ], [ -46.95380222, -23.82218944 ], [ -46.95317389, -23.82151889 ], [ -46.95293417, -23.82013167 ], [ -46.95236222, -23.81905 ], [ -46.95190944, -23.81805 ], [ -46.95069, -23.81651472 ], [ -46.95026028, -23.81568667 ], [ -46.95003528, -23.8155125 ], [ -46.94981056000001, -23.81550944 ], [ -46.94983806, -23.81616194 ], [ -46.94904556, -23.81647278 ], [ -46.94877778, -23.81619611 ], [ -46.94814806, -23.81625306 ], [ -46.94820222, -23.81635222 ], [ -46.94816778, -23.81640167 ], [ -46.94815722, -23.81644306 ], [ -46.94811389, -23.81651333 ], [ -46.94809806, -23.81652139 ], [ -46.94805056, -23.81648972 ], [ -46.94802167, -23.81650472 ], [ -46.94802361, -23.81653778 ], [ -46.94801583, -23.8165575 ], [ -46.947943541948504, -23.81663701417164 ], [ -46.94786222, -23.81703028 ], [ -46.94800778, -23.81712583 ], [ -46.94805972, -23.81714972 ], [ -46.94811528, -23.81722972 ], [ -46.948185, -23.81728056 ], [ -46.94823889, -23.81733139 ], [ -46.94776778, -23.81759056 ], [ -46.94757222, -23.81770861 ], [ -46.94712083, -23.81801139 ], [ -46.94692278, -23.81817333 ], [ -46.947093755634945, -23.818198059777906 ], [ -46.947295081571937, -23.818192518697071 ], [ -46.947447923051634, -23.818275942747409 ], [ -46.94742667, -23.81842222 ], [ -46.947582140342952, -23.818514824898951 ], [ -46.947718820336874, -23.818482809765243 ], [ -46.947832104656165, -23.818468033549674 ], [ -46.948030198295996, -23.818354441392561 ], [ -46.948177960451581, -23.818363060851645 ], [ -46.948449011655761, -23.818203293020908 ], [ -46.948733593313378, -23.818592509892085 ], [ -46.948965139037732, -23.819101905659686 ], [ -46.94897178667253, -23.819243721868713 ], [ -46.948988773285194, -23.819303287126615 ], [ -46.949078847843957, -23.819463734991885 ], [ -46.94929306, -23.81938778 ], [ -46.94937194, -23.81919917 ], [ -46.94942833, -23.81958722 ], [ -46.94962167, -23.81995139 ], [ -46.94966056, -23.82036333 ], [ -46.949305570401442, -23.820619819940436 ], [ -46.949295719591063, -23.820729410205836 ] ], [ [ -46.94957016292981, -23.818623148375941 ], [ -46.949577949447622, -23.818747807164812 ], [ -46.949457773981031, -23.818807791662408 ], [ -46.949347896420498, -23.81881350748866 ], [ -46.949110313646408, -23.818759628011829 ], [ -46.948982295946038, -23.818690193634502 ], [ -46.948916902548731, -23.818565694021537 ], [ -46.94892196588782, -23.818524920000506 ], [ -46.948967423276997, -23.818418875016349 ], [ -46.949003585423682, -23.818379366513962 ], [ -46.949037611168478, -23.818370416361905 ], [ -46.949107275670237, -23.818383310281565 ], [ -46.949162554634384, -23.81841227541798 ], [ -46.949322697673892, -23.818537671819488 ], [ -46.94948152847703, -23.818555372929147 ], [ -46.94957016292981, -23.818623148375941 ] ], [ [ -46.948117624238051, -23.81803552140676 ], [ -46.948164415587321, -23.818097088971584 ], [ -46.948141019912683, -23.818232537614211 ], [ -46.948047437214143, -23.818280560314776 ], [ -46.947925533435779, -23.818265784099218 ], [ -46.947852883709281, -23.818252239234958 ], [ -46.947801166954825, -23.81815988788772 ], [ -46.947802398306123, -23.818090932215103 ], [ -46.947859040465765, -23.818040446811946 ], [ -46.947942772353933, -23.818003506273055 ], [ -46.948010496675245, -23.817998580867851 ], [ -46.948091765860823, -23.818005968975637 ], [ -46.948117624238051, -23.81803552140676 ] ] ] ] } },
{ "type": "Feature", "properties": { "id": null }, "geometry": { "type": "MultiPolygon", "coordinates": [ ] } },
{ "type": "Feature", "properties": { "id": 3 }, "geometry": { "type": "MultiPolygon", "coordinates": [ ] } },
{ "type": "Feature", "properties": { "id": null }, "geometry": { "type": "MultiPolygon", "coordinates": [ ] } },
{ "type": "Feature", "properties": { "id": null }, "geometry": { "type": "MultiPolygon", "coordinates": [ [ [ [ -46.94921056, -23.82067778 ], [ -46.94911333000001, -23.82082722 ], [ -46.94871972, -23.82131861 ], [ -46.94857778, -23.82150417 ], [ -46.94848028, -23.82165111 ], [ -46.94830056, -23.82202778 ], [ -46.94823417, -23.8223125 ], [ -46.94845778, -23.82232639 ], [ -46.94885944, -23.82242056 ], [ -46.94898528, -23.82251833 ], [ -46.94938417, -23.82292528 ], [ -46.94939833, -23.82298944 ], [ -46.94932333, -23.82352556 ], [ -46.94911222, -23.82382972 ], [ -46.94903167, -23.82440694 ], [ -46.94917472, -23.82470333 ], [ -46.94938056, -23.82488361 ], [ -46.94977861000001, -23.82471083 ], [ -46.9509425, -23.82419194 ], [ -46.950915, -23.82411389 ], [ -46.95089083, -23.82398583 ], [ -46.95093806, -23.82386139 ], [ -46.95097944, -23.82369917 ], [ -46.95096722, -23.82358306 ], [ -46.95087444, -23.82347972 ], [ -46.95070417, -23.82339722 ], [ -46.95047194, -23.82328889 ], [ -46.95031083, -23.82316722 ], [ -46.95020889, -23.82297333 ], [ -46.95019222, -23.82278778 ], [ -46.95022333, -23.82262111 ], [ -46.95028333, -23.82238333 ], [ -46.95021806, -23.82228417 ], [ -46.95006528, -23.82211194 ], [ -46.94993139, -23.82190944 ], [ -46.94969083, -23.82147333 ], [ -46.94937306, -23.82094167 ], [ -46.94921056, -23.82067778 ] ] ] ] } },
{ "type": "Feature", "properties": { "id": null }, "geometry": { "type": "MultiPolygon", "coordinates": [ [ [ [ -46.94690806, -23.81827972 ], [ -46.9469525, -23.81833194 ], [ -46.94698667, -23.81835694 ], [ -46.94704389, -23.81854333 ], [ -46.94709444, -23.81866167 ], [ -46.94711139, -23.81873472 ], [ -46.94709889, -23.81903278 ], [ -46.94709083, -23.81912556 ], [ -46.94710556, -23.81921056 ], [ -46.94714, -23.81930833 ], [ -46.94717722, -23.81946667 ], [ -46.94717194, -23.81987444 ], [ -46.94731694, -23.81983028 ], [ -46.94760361, -23.81964361 ], [ -46.94799778, -23.81953972 ], [ -46.94823778, -23.81947583 ], [ -46.94886778, -23.81953611 ], [ -46.94891694, -23.81951861 ], [ -46.94888083, -23.81935306 ], [ -46.94872056, -23.81919583 ], [ -46.94850278, -23.8190125 ], [ -46.94827694, -23.81887833 ], [ -46.94807694, -23.81878083 ], [ -46.94783778, -23.81867528 ], [ -46.94759083, -23.81858139 ], [ -46.94738972, -23.81846972 ], [ -46.94690806, -23.81827972 ] ] ] ] } }
]
}
