{
"type": "FeatureCollection",
"name": "Faz",
"crs": { "type": "name", "properties": { "name": "urn:ogc:def:crs:OGC:1.3:CRS84" } },
"features": [
{ "type": "Feature", "properties": { "Área (ha)": 716.438 }, "geometry": { "type": "MultiPolygon", "coordinates": [ [ [ [ -50.23316389, -22.10240139 ], [ -50.23363417, -22.102877779999989 ], [ -50.23443056, -22.10388972 ], [ -50.23694333000001, -22.10550833 ], [ -50.23710917, -22.10618139 ], [ -50.23756361, -22.10667611 ], [ -50.23779, -22.107622499999987 ], [ -50.2381875, -22.10811944 ], [ -50.23846528, -22.10877556 ], [ -50.23837111, -22.10977667 ], [ -50.23884333, -22.11068472 ], [ -50.23850139, -22.11088583 ], [ -50.23831667000001, -22.11182944 ], [ -50.23849111, -22.114579439999989 ], [ -50.23923139, -22.11529222 ], [ -50.23962167, -22.11606472 ], [ -50.24019667, -22.11614306 ], [ -50.240575, -22.11725389 ], [ -50.24109583, -22.11738556 ], [ -50.24121389, -22.11754 ], [ -50.24105333, -22.11785 ], [ -50.24134944, -22.11818167 ], [ -50.24138194, -22.11909861 ], [ -50.24157389, -22.11917472 ], [ -50.2414875, -22.11958444 ], [ -50.24174417, -22.11965222 ], [ -50.23694861, -22.12174028 ], [ -50.23653972, -22.12193444 ], [ -50.23675194, -22.12237778 ], [ -50.23684694, -22.12294861 ], [ -50.23682861, -22.12362583 ], [ -50.23603861, -22.12461278 ], [ -50.23533639, -22.12437278 ], [ -50.23467806, -22.124061940000011 ], [ -50.23360222, -22.12402028 ], [ -50.23173, -22.12568222 ], [ -50.23159694, -22.125873609999989 ], [ -50.23123306, -22.12620222 ], [ -50.23037111, -22.12546028 ], [ -50.22595111, -22.12289222 ], [ -50.22593889, -22.12277889 ], [ -50.22606861, -22.12174722 ], [ -50.22589222, -22.12175694 ], [ -50.22491278, -22.12133639 ], [ -50.22388306, -22.12112889 ], [ -50.22295722, -22.12339889 ], [ -50.22266583, -22.1241475 ], [ -50.22228722, -22.128096939999985 ], [ -50.22367056, -22.12977278 ], [ -50.22750194000001, -22.13384194 ], [ -50.22821944, -22.13396944 ], [ -50.23898, -22.13592278 ], [ -50.23976472, -22.13606667 ], [ -50.24021806, -22.13860694 ], [ -50.24730083, -22.138691669999989 ], [ -50.24792278, -22.14077917 ], [ -50.25366516, -22.1437855 ], [ -50.25547281, -22.14236551 ], [ -50.25643392, -22.14091833 ], [ -50.25707039, -22.139818009999988 ], [ -50.2562928, -22.13933685 ], [ -50.25612644, -22.13897871 ], [ -50.25636317, -22.13781 ], [ -50.25664261, -22.13731477 ], [ -50.25717968, -22.13682189 ], [ -50.2573306, -22.13668336 ], [ -50.25738058, -22.1365292 ], [ -50.25726175, -22.13629613 ], [ -50.25683027, -22.13581094 ], [ -50.2566886, -22.13542428 ], [ -50.25664034, -22.13515982 ], [ -50.25666744, -22.13505804 ], [ -50.25727692, -22.13430992 ], [ -50.2572655, -22.13426822 ], [ -50.25815723, -22.1328171 ], [ -50.2583193, -22.13258567 ], [ -50.25853691, -22.13210054 ], [ -50.25946457, -22.131393879999987 ], [ -50.25984041, -22.13117037 ], [ -50.2602998, -22.130281889999988 ], [ -50.26089516, -22.12994591 ], [ -50.26105482, -22.12972945 ], [ -50.26102611000001, -22.12943222 ], [ -50.26049028, -22.12916583 ], [ -50.25850806, -22.12810361 ], [ -50.2582575, -22.12789583 ], [ -50.25796306, -22.12768806 ], [ -50.25756333, -22.12726944 ], [ -50.25523139, -22.12501667 ], [ -50.255515, -22.12388111 ], [ -50.25562639, -22.12296944 ], [ -50.25542861, -22.12192528 ], [ -50.25537778, -22.12191611 ], [ -50.25547417, -22.12101611000001 ], [ -50.25577528, -22.12074 ], [ -50.25604472, -22.119485 ], [ -50.25629194, -22.11857194 ], [ -50.25602556, -22.11829333 ], [ -50.25598167, -22.11831667 ], [ -50.25395222, -22.118565 ], [ -50.25249806, -22.11874194 ], [ -50.25198611, -22.11897167 ], [ -50.25184778, -22.11905028 ], [ -50.25166639, -22.119024169999985 ], [ -50.25164028, -22.11904556 ], [ -50.25135222, -22.11914694 ], [ -50.24968444, -22.12001278 ], [ -50.24806139, -22.12088556 ], [ -50.24745556, -22.120585559999988 ], [ -50.24654944, -22.12007167 ], [ -50.24596528, -22.11916417 ], [ -50.24535583, -22.11824722 ], [ -50.24648361, -22.11706806 ], [ -50.24648722, -22.116793059999988 ], [ -50.24680417, -22.116122779999984 ], [ -50.24700306, -22.11609278 ], [ -50.24738778, -22.11613 ], [ -50.2467675, -22.11530972 ], [ -50.24542139, -22.11547722 ], [ -50.24302194, -22.11287111 ], [ -50.24253056, -22.1131775 ], [ -50.24223833, -22.11288056 ], [ -50.24242139, -22.11251306 ], [ -50.24134722, -22.11207056 ], [ -50.24127583, -22.109411670000011 ], [ -50.24190944, -22.10735972 ], [ -50.24277917, -22.10637556 ], [ -50.243825, -22.10550194 ], [ -50.24527833, -22.10454083 ], [ -50.24729361, -22.10374694 ], [ -50.24401556, -22.102997499999987 ], [ -50.24361278, -22.10339306 ], [ -50.24238194, -22.103839169999986 ], [ -50.24126917, -22.10422611 ], [ -50.24094417, -22.10472639 ], [ -50.2400775, -22.10602917 ], [ -50.23945222, -22.10595306 ], [ -50.2389075, -22.10622778 ], [ -50.23862111, -22.10623667 ], [ -50.23808583, -22.10622694 ], [ -50.23790528, -22.10571 ], [ -50.23808111, -22.10529944 ], [ -50.23852611, -22.10497361 ], [ -50.23872583, -22.10441444 ], [ -50.23901278, -22.103998609999987 ], [ -50.23894, -22.10325972 ], [ -50.23900139, -22.102871389999986 ], [ -50.23774611, -22.10294361 ], [ -50.23749444, -22.103411109999985 ], [ -50.23709472, -22.103968609999985 ], [ -50.23689056, -22.10391917 ], [ -50.23690056, -22.10358722 ], [ -50.235975, -22.10322306 ], [ -50.23534028, -22.10295694 ], [ -50.23316389, -22.10240139 ] ] ] ] } }
]
}
