{
"type": "FeatureCollection",
"name": "Faz",
"crs": { "type": "name", "properties": { "name": "urn:ogc:def:crs:OGC:1.3:CRS84" } },
"features": [
{ "type": "Feature", "properties": { "id": null, "Name": "d16b4923-44f3-4736-9248-1579e49d009f", "descriptio": null, "timestamp": null, "begin": null, "end": null, "altitudeMo": null, "tessellate": -1, "extrude": 0, "visibility": -1, "drawOrder": null, "icon": null, "Área (ha)": 289.126 }, "geometry": { "type": "MultiPolygon", "coordinates": [ [ [ [ -45.74007833, -22.97204, 1029.664 ], [ -45.73948139, -22.97248194, 1009.809 ], [ -45.73783083, -22.97367472, 1073.809 ], [ -45.73621306, -22.97482778, 1003.008 ], [ -45.73562389, -22.9782775, 875.835 ], [ -45.73565944, -22.97847194, 872.721 ], [ -45.73627194, -22.97902778, 861.912 ], [ -45.73630306, -22.97906139, 863.888 ], [ -45.73633417, -22.97909444, 865.264 ], [ -45.73636389, -22.97912417, 865.257 ], [ -45.73641556, -22.97917694, 866.278 ], [ -45.73644972, -22.97921944, 865.887 ], [ -45.73650583, -22.97929111, 864.529 ], [ -45.73662528, -22.97944139, 859.155 ], [ -45.73669111, -22.97952861, 857.132 ], [ -45.73674694, -22.97960639, 857.364 ], [ -45.73681417, -22.97969833, 856.909 ], [ -45.73686056, -22.97975889, 855.928 ], [ -45.73695167, -22.97988083, 854.147 ], [ -45.73700444, -22.9799475, 853.163 ], [ -45.73705611, -22.98001528, 852.068 ], [ -45.73711139, -22.98008417, 850.669 ], [ -45.73716861, -22.98015611, 848.289 ], [ -45.73725694, -22.98027111, 847.664 ], [ -45.73735222, -22.98038833, 843.197 ], [ -45.73739, -22.98043444, 843.616 ], [ -45.73834556, -22.98162167, 807.867 ], [ -45.7369875, -22.98319861, 744.0 ], [ -45.73690306, -22.98327583, 752.328 ], [ -45.73533583, -22.99373417, 852.409 ], [ -45.734595, -22.99459861, 692.064 ], [ -45.73265389, -22.9968525, 657.567 ], [ -45.73068333, -22.99909806, 604.472 ], [ -45.73057972, -22.99917833, 601.486 ], [ -45.73000639, -22.99992611, 598.827 ], [ -45.72960167, -23.00044222, 631.035 ], [ -45.72969944, -23.00059806, 628.534 ], [ -45.72974972, -23.00069167, 629.219 ], [ -45.72979917, -23.00087556, 631.173 ], [ -45.72982306, -23.00107972, 635.838 ], [ -45.7298825, -23.00165194, 640.541 ], [ -45.72981167, -23.00228861, 647.26 ], [ -45.72980306, -23.00298778, 655.227 ], [ -45.72979194, -23.00305333, 654.858 ], [ -45.72998722, -23.00337444, 653.215 ], [ -45.73040417, -23.00382833, 676.327 ], [ -45.73046944, -23.00392361, 679.93 ], [ -45.73053611, -23.00405694, 682.393 ], [ -45.73061222, -23.00414778, 683.652 ], [ -45.73133194, -23.00330556, 675.571 ], [ -45.73137861, -23.00322222, 673.79 ], [ -45.73140056, -23.00304222, 669.802 ], [ -45.73142611, -23.00285, 665.39 ], [ -45.73145806, -23.00269222, 662.442 ], [ -45.73161278, -23.00227611, 656.168 ], [ -45.73182389, -23.00189944, 646.401 ], [ -45.73191583, -23.00156889, 653.758 ], [ -45.73198139, -23.00146111, 655.422 ], [ -45.73283722, -23.00065917, 673.582 ], [ -45.73291972, -23.00060222, 675.246 ], [ -45.73310833, -23.00041861, 675.881 ], [ -45.73334306, -23.00012222, 674.484 ], [ -45.73349917, -22.99991444, 674.744 ], [ -45.73361806, -22.99971333, 674.622 ], [ -45.73371139, -22.99965972, 676.144 ], [ -45.7337925, -22.99962444, 677.743 ], [ -45.73482278, -22.99924083, 700.87 ], [ -45.73539028, -22.99930694, 704.243 ], [ -45.73608583, -22.99908333, 721.466 ], [ -45.73615111, -22.9990725, 721.875 ], [ -45.73624083, -22.99908306, 721.386 ], [ -45.7362975, -22.99909389, 721.334 ], [ -45.73639361, -22.999125, 722.505 ], [ -45.73645528, -22.99915056, 722.623 ], [ -45.73650833, -22.99917528, 722.534 ], [ -45.73656278, -22.99920306, 721.17 ], [ -45.73686083, -22.99938417, 713.663 ], [ -45.73700444, -22.99945778, 709.446 ], [ -45.73717361, -22.99952361, 704.095 ], [ -45.73737111, -22.99957833, 699.291 ], [ -45.73750639, -22.99959694, 696.771 ], [ -45.73759222, -22.99959278, 695.006 ], [ -45.73772944, -22.99958361, 693.697 ], [ -45.73782972, -22.99956306, 692.483 ], [ -45.73793917, -22.99952, 692.476 ], [ -45.73808556, -22.99938917, 694.632 ], [ -45.73870472, -22.99877222, 711.446 ], [ -45.73882306, -22.99866583, 715.654 ], [ -45.73901194, -22.99850667, 721.489 ], [ -45.73913917, -22.99840944, 725.85 ], [ -45.73921139, -22.99836444, 727.868 ], [ -45.73929333, -22.9983325, 729.619 ], [ -45.73945972, -22.99827194, 732.543 ], [ -45.73956278, -22.9982175, 735.258 ], [ -45.74012944, -22.99735389, 760.538 ], [ -45.7408725, -22.99646806, 779.138 ], [ -45.74107, -22.99625278, 784.906 ], [ -45.74116472, -22.99615778, 787.108 ], [ -45.74131333, -22.99603, 788.699 ], [ -45.7418075, -22.99593333, 784.705 ], [ -45.74197778, -22.99590028, 781.776 ], [ -45.74215917, -22.99587917, 783.024 ], [ -45.74243444, -22.99586444, 781.927 ], [ -45.74285, -22.99589333, 792.279 ], [ -45.74320139, -22.99592, 805.324 ], [ -45.74346111, -22.99593389, 810.509 ], [ -45.74351611, -22.99593778, 813.787 ], [ -45.74369333, -22.995715, 819.979 ], [ -45.74404194, -22.99538361, 829.824 ], [ -45.74416389, -22.99494, 832.701 ], [ -45.74423389, -22.99469111, 834.99 ], [ -45.74458361, -22.99443583, 843.834 ], [ -45.74484972, -22.99426083, 846.84 ], [ -45.74547722, -22.99386028, 834.7 ], [ -45.74606306, -22.99355556, 810.657 ], [ -45.74620389, -22.99309611, 811.172 ], [ -45.74680361, -22.9914725, 826.328 ], [ -45.74730222, -22.98978722, 861.195 ], [ -45.74752306, -22.98845417, 883.534 ], [ -45.74755556, -22.98833361, 887.498 ], [ -45.74757389, -22.98832389, 887.804 ], [ -45.74763056, -22.98831722, 890.206 ], [ -45.74765556, -22.98832278, 889.886 ], [ -45.74771306, -22.98834417, 893.013 ], [ -45.74793306, -22.98827833, 877.144 ], [ -45.74822806, -22.98667056, 858.22 ], [ -45.74825806, -22.98663361, 876.133 ], [ -45.74864056, -22.98612139, 859.254 ], [ -45.74940278, -22.98528944, 841.899 ], [ -45.74991056, -22.98498778, 847.548 ], [ -45.74786278, -22.983645, 893.49 ], [ -45.74653611, -22.9823925, 922.284 ], [ -45.74655167, -22.98238778, 923.182 ], [ -45.74804306, -22.97940194, 856.1 ], [ -45.74745722, -22.97953722, 888.845 ], [ -45.74606306, -22.97908972, 905.45 ], [ -45.74300833, -22.97787639, 974.23 ], [ -45.74067167, -22.97576806, 1008.32 ], [ -45.74068056, -22.97525917, 1051.05 ], [ -45.74018583, -22.97375306, 1059.34 ], [ -45.74056778, -22.97306639, 1051.51 ], [ -45.74082361, -22.97288417, 1035.59 ], [ -45.74007833, -22.97204, 1029.664 ] ] ] ] } }
]
}
