{
"type": "FeatureCollection",
"name": "Faz",
"crs": { "type": "name", "properties": { "name": "urn:ogc:def:crs:OGC:1.3:CRS84" } },
"features": [
{ "type": "Feature", "properties": { "id": null, "Área (ha)": 211.84 }, "geometry": { "type": "MultiPolygon", "coordinates": [ [ [ [ -45.89834917, -22.89240222 ], [ -45.89828944, -22.89243944 ], [ -45.89815778, -22.89243306 ], [ -45.8980625, -22.89244806 ], [ -45.89795944, -22.89243861 ], [ -45.89786583, -22.89247667 ], [ -45.89760194, -22.89244139 ], [ -45.89742944, -22.89245222 ], [ -45.89725306, -22.89259806 ], [ -45.89720222, -22.89259639 ], [ -45.89695222, -22.89263306 ], [ -45.89674361, -22.89270972 ], [ -45.89654444, -22.89284278 ], [ -45.89634556, -22.89283056 ], [ -45.89611639, -22.89280444 ], [ -45.89588333, -22.89294722 ], [ -45.89548917, -22.8929 ], [ -45.89517361, -22.89288444 ], [ -45.8950475, -22.89290889 ], [ -45.89501417, -22.89289417 ], [ -45.89480944, -22.89277222 ], [ -45.89475361, -22.89273611 ], [ -45.89465972, -22.89275056 ], [ -45.89455278, -22.89279889 ], [ -45.89446778, -22.89296556 ], [ -45.89429889, -22.89298139 ], [ -45.89423778, -22.89300417 ], [ -45.89418139, -22.89304194 ], [ -45.89397528, -22.89312917 ], [ -45.89378222, -22.89310472 ], [ -45.89358417, -22.89306972 ], [ -45.89322722, -22.89331944 ], [ -45.89275111, -22.893605 ], [ -45.892265, -22.89380889 ], [ -45.89149278, -22.89390833 ], [ -45.89104833, -22.89397694 ], [ -45.89080333, -22.89402944 ], [ -45.89064583, -22.89405833 ], [ -45.89084444, -22.89421861 ], [ -45.89178611, -22.89545583 ], [ -45.89236389, -22.89611861 ], [ -45.89298361, -22.89636083 ], [ -45.89311972, -22.89651083 ], [ -45.89344472, -22.89687306 ], [ -45.89390694, -22.89724667 ], [ -45.89436583, -22.89729833 ], [ -45.89485944, -22.89774194 ], [ -45.89574167, -22.898255 ], [ -45.89618139, -22.89843278 ], [ -45.89664972, -22.89859944 ], [ -45.89709, -22.89898472 ], [ -45.89773583, -22.8997025 ], [ -45.8978825, -22.899985 ], [ -45.89894639, -22.9009775 ], [ -45.89908806, -22.90112111 ], [ -45.89936, -22.90139861 ], [ -45.89986528, -22.90176222 ], [ -45.90003556, -22.90194083 ], [ -45.90030111, -22.90222194 ], [ -45.90044028, -22.90234556 ], [ -45.90052361, -22.902431939999989 ], [ -45.90061389000001, -22.90254222 ], [ -45.90072917, -22.90271556 ], [ -45.90082972, -22.90277583 ], [ -45.90092639, -22.90282722 ], [ -45.90110667, -22.90291 ], [ -45.9013625, -22.90295083 ], [ -45.90164972, -22.902954170000012 ], [ -45.90208083, -22.90294694 ], [ -45.90225333, -22.90294667 ], [ -45.90248389, -22.90291778 ], [ -45.902595, -22.90292278 ], [ -45.9026925, -22.90293444 ], [ -45.90303306, -22.90291361 ], [ -45.90360583, -22.90289806 ], [ -45.9038125, -22.90289028 ], [ -45.90391722, -22.902895 ], [ -45.90406889, -22.90291861 ], [ -45.90422667, -22.90290222 ], [ -45.90447972, -22.90287944 ], [ -45.90455139, -22.90287833 ], [ -45.90465583, -22.90299472 ], [ -45.90467194, -22.90301722 ], [ -45.90475417, -22.903215 ], [ -45.90485917, -22.9034125 ], [ -45.90490194, -22.90356722 ], [ -45.9049325, -22.90372833 ], [ -45.90500833, -22.90390278 ], [ -45.90502083, -22.90392222 ], [ -45.90509111, -22.90400556 ], [ -45.90521583, -22.90415472 ], [ -45.90531694, -22.90432861 ], [ -45.90538056, -22.90446417 ], [ -45.90542722, -22.90459944 ], [ -45.90549611, -22.90475917 ], [ -45.90560778, -22.90499194 ], [ -45.90573222, -22.90521944 ], [ -45.90596861, -22.90556278 ], [ -45.90618278, -22.90582833 ], [ -45.90622056, -22.90586167 ], [ -45.90651472, -22.90606917 ], [ -45.90656056, -22.90610472 ], [ -45.90670167, -22.90623944 ], [ -45.90698528, -22.90650972 ], [ -45.90712583, -22.90665611 ], [ -45.90729556, -22.90690361 ], [ -45.90735139, -22.90705417 ], [ -45.90746, -22.90722694 ], [ -45.90750111, -22.90744944 ], [ -45.90761361, -22.90771056 ], [ -45.90772333, -22.90812444 ], [ -45.90777944, -22.90820889 ], [ -45.90782694, -22.90823417 ], [ -45.90795167, -22.9083125 ], [ -45.90807056, -22.90840028 ], [ -45.90831083, -22.90856111 ], [ -45.90846583, -22.90866556 ], [ -45.90861861, -22.9088075 ], [ -45.90869222, -22.90889111 ], [ -45.9087075, -22.90908111 ], [ -45.90869639, -22.90915 ], [ -45.90861472, -22.90914917 ], [ -45.90864167, -22.90927 ], [ -45.90866833, -22.90928417 ], [ -45.90868056, -22.90937917 ], [ -45.90864667, -22.90946472 ], [ -45.90896833, -22.90951833 ], [ -45.90980972, -22.90948667 ], [ -45.91023028, -22.90944528 ], [ -45.91032111, -22.9094475 ], [ -45.91056694, -22.9094525 ], [ -45.910605, -22.90946194 ], [ -45.91065556, -22.90948333 ], [ -45.91069056, -22.90952806 ], [ -45.91074528, -22.90962917 ], [ -45.9107525, -22.90965389 ], [ -45.91081056, -22.90978333 ], [ -45.91083361, -22.90982333 ], [ -45.91090083, -22.90985639 ], [ -45.91101444, -22.90989861 ], [ -45.9112, -22.90996083 ], [ -45.91161556, -22.91007944 ], [ -45.91176694, -22.91011944 ], [ -45.91210306, -22.91020972 ], [ -45.91230972, -22.91026194 ], [ -45.91229694, -22.91017 ], [ -45.91244083, -22.90967528 ], [ -45.91249194, -22.90946222 ], [ -45.91252389, -22.90923861 ], [ -45.91254917, -22.90911056 ], [ -45.91258472, -22.90898056 ], [ -45.91268, -22.90873611 ], [ -45.91286361, -22.90839722 ], [ -45.91308917, -22.90800528 ], [ -45.91317333, -22.90791611 ], [ -45.91338083, -22.907794719999988 ], [ -45.91341778, -22.90776583 ], [ -45.91343333, -22.90773278 ], [ -45.91343556, -22.90766694 ], [ -45.91340889, -22.90752333 ], [ -45.91340333, -22.90736333 ], [ -45.91343, -22.90724417 ], [ -45.91349028, -22.90715639 ], [ -45.91359333, -22.90708556 ], [ -45.91380861, -22.90700389 ], [ -45.91387417, -22.90696056 ], [ -45.91390306, -22.90692444 ], [ -45.91392194, -22.906875 ], [ -45.91395639, -22.90664306 ], [ -45.9139525, -22.90658417 ], [ -45.91392111, -22.90648833 ], [ -45.91384417, -22.90621444 ], [ -45.91382417, -22.90607806 ], [ -45.91383111, -22.90597556 ], [ -45.91384583, -22.905905 ], [ -45.9139175, -22.90581028 ], [ -45.91395583, -22.90578 ], [ -45.91415583, -22.90569778 ], [ -45.91418778, -22.90567806 ], [ -45.91422083, -22.90564833 ], [ -45.91426694, -22.90543833 ], [ -45.91430556, -22.90523361 ], [ -45.91431556, -22.90516417 ], [ -45.91432056, -22.90507028 ], [ -45.91431444, -22.90500028 ], [ -45.91429194, -22.90487028 ], [ -45.91426361, -22.90473528 ], [ -45.91425861, -22.9046075 ], [ -45.91430278, -22.90447889 ], [ -45.91438972, -22.90432611 ], [ -45.91449972, -22.90416167 ], [ -45.91464528, -22.90391917 ], [ -45.91486333, -22.90360917 ], [ -45.91495333, -22.90349722 ], [ -45.91500694, -22.90342694 ], [ -45.91509611, -22.90332306 ], [ -45.91519944, -22.90321333 ], [ -45.91538028, -22.90300861 ], [ -45.91542333, -22.90295056 ], [ -45.91544806, -22.90290556 ], [ -45.91545972, -22.90287528 ], [ -45.915465, -22.90284194 ], [ -45.91546583, -22.90280194 ], [ -45.91545917, -22.90275972 ], [ -45.91545056, -22.90272583 ], [ -45.91534667, -22.9024425 ], [ -45.91523917, -22.90212361 ], [ -45.91519472, -22.90204111 ], [ -45.91506694, -22.90187417 ], [ -45.91488472, -22.90170333 ], [ -45.91468194, -22.90153917 ], [ -45.91453667, -22.90146417 ], [ -45.91444611, -22.90140611 ], [ -45.91437028, -22.90137306 ], [ -45.91429167, -22.901365559999988 ], [ -45.91406639, -22.90129611 ], [ -45.91393806, -22.90125917 ], [ -45.91351306, -22.90097139 ], [ -45.91322056, -22.90067083 ], [ -45.91316056, -22.90058278 ], [ -45.91313222, -22.90048306 ], [ -45.913115, -22.90040417 ], [ -45.9131425, -22.90028972 ], [ -45.91322250000001, -22.90017194 ], [ -45.91326167, -22.90013222 ], [ -45.91337889, -22.90002722 ], [ -45.91337611, -22.89994333 ], [ -45.91334444, -22.89989556 ], [ -45.91328278, -22.89987083 ], [ -45.9130475, -22.89975111 ], [ -45.9129775, -22.89972472 ], [ -45.91285389, -22.89969778 ], [ -45.91278861, -22.89967139 ], [ -45.91269278, -22.89961917 ], [ -45.91265278, -22.89957639 ], [ -45.91262111, -22.8995275 ], [ -45.91258167, -22.89940139 ], [ -45.91256917, -22.899316389999989 ], [ -45.91257028, -22.89922889 ], [ -45.91258417, -22.89910444 ], [ -45.91263306, -22.89889083 ], [ -45.91263806, -22.89882639 ], [ -45.91262861, -22.89879556 ], [ -45.91256722, -22.89870389 ], [ -45.91254389, -22.89864444 ], [ -45.912535, -22.89858889 ], [ -45.91253944, -22.89852472 ], [ -45.91257, -22.89828694 ], [ -45.91257083, -22.89817833 ], [ -45.91254861, -22.89806861 ], [ -45.91253611, -22.89804083 ], [ -45.91250444, -22.89801333 ], [ -45.91236611, -22.89794917 ], [ -45.91230389, -22.89790194 ], [ -45.91203056, -22.89777972 ], [ -45.91187083, -22.89765944 ], [ -45.91184417, -22.89764444 ], [ -45.91179167, -22.89763667 ], [ -45.91172722, -22.89762389 ], [ -45.91165694, -22.89760222 ], [ -45.91161306, -22.8975725 ], [ -45.91141111, -22.89743111 ], [ -45.9112975, -22.89738 ], [ -45.91115556, -22.89731944 ], [ -45.91107222, -22.89728139 ], [ -45.91058861, -22.89752972 ], [ -45.91014167, -22.89778528 ], [ -45.90941694, -22.89790111 ], [ -45.90866944, -22.897966390000011 ], [ -45.90767139, -22.89729333 ], [ -45.90671611, -22.89674667 ], [ -45.90641417, -22.89648278 ], [ -45.90620139, -22.89639 ], [ -45.90472222, -22.89549417 ], [ -45.90419194, -22.89492806 ], [ -45.90335972, -22.89466639 ], [ -45.90275167, -22.89430806 ], [ -45.90256194, -22.89411944 ], [ -45.90208694, -22.89389611 ], [ -45.90184528, -22.89362222 ], [ -45.90177472, -22.89367861 ], [ -45.90165, -22.89360361 ], [ -45.90155083, -22.89361806 ], [ -45.90151444, -22.89358028 ], [ -45.90145528, -22.89354083 ], [ -45.90141111, -22.8935525 ], [ -45.90133222, -22.89352083 ], [ -45.90125528, -22.89348222 ], [ -45.90115944, -22.89349333 ], [ -45.90112972, -22.893495 ], [ -45.90108917, -22.89345306 ], [ -45.90101944, -22.89342667 ], [ -45.900785, -22.89332389 ], [ -45.90030917, -22.89305806 ], [ -45.89963611, -22.89277972 ], [ -45.89935556, -22.89272194 ], [ -45.89904972, -22.89265889 ], [ -45.89891889, -22.89270306 ], [ -45.89873194, -22.89269694 ], [ -45.89868361, -22.89264972 ], [ -45.89863139, -22.89266944 ], [ -45.89859028, -22.89266056 ], [ -45.89858194, -22.892591939999988 ], [ -45.89847194, -22.89248722 ], [ -45.89834917, -22.89240222 ] ] ] ] } },
{ "type": "Feature", "properties": { "id": null, "Área (ha)": 19.493 }, "geometry": { "type": "MultiPolygon", "coordinates": [ [ [ [ -45.91353556, -22.89509667 ], [ -45.91196417, -22.8961075 ], [ -45.91165389, -22.89634861 ], [ -45.91114, -22.89721083 ], [ -45.91119806, -22.89723806 ], [ -45.91133917, -22.89729833 ], [ -45.91146222, -22.89735361 ], [ -45.91167111, -22.8975 ], [ -45.91170194, -22.89752083 ], [ -45.91175278, -22.89753639 ], [ -45.91180944, -22.89754778 ], [ -45.91187833, -22.89755806 ], [ -45.91192722, -22.89758528 ], [ -45.91208333, -22.89770306 ], [ -45.91235667, -22.89782528 ], [ -45.91241944, -22.89787278 ], [ -45.91256083, -22.89793861 ], [ -45.91261806, -22.89798833 ], [ -45.9126425, -22.8980425 ], [ -45.91266861, -22.89817028 ], [ -45.91266722, -22.89829278 ], [ -45.91263667, -22.89853278 ], [ -45.91263306, -22.898585 ], [ -45.91263889, -22.89862222 ], [ -45.91265528000001, -22.89866444 ], [ -45.91271861, -22.89875861 ], [ -45.91273667, -22.89881694 ], [ -45.91272972, -22.89890361 ], [ -45.91268056, -22.89911861 ], [ -45.91266778, -22.89923417 ], [ -45.91266667, -22.89931083 ], [ -45.91267722, -22.8993825 ], [ -45.91271111, -22.89949111 ], [ -45.91273194, -22.89952306 ], [ -45.91275611, -22.89954889 ], [ -45.91283306, -22.89959056 ], [ -45.912885, -22.89961167 ], [ -45.91300722, -22.89963833 ], [ -45.91308944, -22.89966917 ], [ -45.91332556, -22.89978972 ], [ -45.91341167, -22.89982417 ], [ -45.9134725, -22.89991667 ], [ -45.9134775, -22.90006417 ], [ -45.91333167, -22.90019528 ], [ -45.91330028, -22.90022694 ], [ -45.91323389, -22.90032444 ], [ -45.91321472, -22.900405 ], [ -45.91322722, -22.9004625 ], [ -45.91325111, -22.90054639 ], [ -45.91329833, -22.90061583 ], [ -45.91357861, -22.90090389 ], [ -45.9139825, -22.9011775 ], [ -45.91409639, -22.90121 ], [ -45.91431222, -22.90127667 ], [ -45.91439667, -22.901285 ], [ -45.914495, -22.9013275 ], [ -45.91458833, -22.90138722 ], [ -45.91473861, -22.90146472 ], [ -45.91495167, -22.9016375 ], [ -45.91514194, -22.90181583 ], [ -45.91527889, -22.90199444 ], [ -45.91532972, -22.90209 ], [ -45.91539139, -22.90219472 ], [ -45.9155475, -22.90068306 ], [ -45.91546472, -22.90042861 ], [ -45.91538694, -22.90035917 ], [ -45.91536278, -22.90028056 ], [ -45.91539472, -22.90016778 ], [ -45.91532361, -22.90006972 ], [ -45.91556667, -22.89879556 ], [ -45.91545444, -22.89755528 ], [ -45.91582028, -22.8959925 ], [ -45.91557917, -22.89601222 ], [ -45.91538889000001, -22.89596556 ], [ -45.91521972000001, -22.89590111 ], [ -45.91509194, -22.89587194 ], [ -45.91490167, -22.89583722 ], [ -45.91462806, -22.8958125 ], [ -45.91448, -22.89584194 ], [ -45.91425667, -22.89590556 ], [ -45.91395056, -22.89568556 ], [ -45.91379611, -22.89556556 ], [ -45.91360972, -22.89538361 ], [ -45.91353556, -22.89509667 ] ] ] ] } }
]
}
