{
"type": "FeatureCollection",
"name": "Faz",
"crs": { "type": "name", "properties": { "name": "urn:ogc:def:crs:OGC:1.3:CRS84" } },
"features": [
{ "type": "Feature", "properties": { "id": null, "Área (ha)": 216.002 }, "geometry": { "type": "MultiPolygon", "coordinates": [ [ [ [ -46.13681, -23.7196475, 822.556 ], [ -46.13818472, -23.72062861, 816.98 ], [ -46.13879194, -23.72054611, 801.87 ], [ -46.13943917, -23.72070333, 770.48 ], [ -46.139780560000013, -23.72075083, 753.74 ], [ -46.14103222, -23.72116694, 724.25 ], [ -46.142631110000011, -23.72329361, 710.84 ], [ -46.14375889, -23.72381556, 697.0 ], [ -46.14385, -23.72346972, 711.0 ], [ -46.14353167, -23.72279361, 721.0 ], [ -46.14306917, -23.72179722, 721.0 ], [ -46.14278028, -23.72132278, 721.0 ], [ -46.14228722, -23.72068833, 714.0 ], [ -46.1420275, -23.72022194, 715.0 ], [ -46.14192361, -23.71996083, 715.0 ], [ -46.141455, -23.71943278, 722.62 ], [ -46.143242779999987, -23.71945944, 732.42 ], [ -46.14370556, -23.71956917, 741.73 ], [ -46.14397167, -23.71970194, 747.63 ], [ -46.14420806, -23.71994472, 754.52 ], [ -46.14440583, -23.72021778, 761.5 ], [ -46.14563556, -23.72117528, 775.4 ], [ -46.14618611, -23.72115389, 787.08 ], [ -46.14769111, -23.72162083, 802.47 ], [ -46.1479775, -23.72189, 812.38 ], [ -46.14834528, -23.7221775, 816.85 ], [ -46.14894667, -23.72245889, 822.35 ], [ -46.14949472, -23.72206778, 835.7 ], [ -46.14970222, -23.72185361, 836.65 ], [ -46.14990361, -23.72157722, 828.309999999999832 ], [ -46.15030278, -23.72068222, 849.47 ], [ -46.150390280000011, -23.7202025, 865.42 ], [ -46.15067139, -23.71992111, 876.909999999999854 ], [ -46.15094778, -23.71992556, 884.259999999999877 ], [ -46.15051111, -23.71592194, 888.4 ], [ -46.15023389000001, -23.71364333, 834.58 ], [ -46.15118167, -23.71441333, 856.44 ], [ -46.15173694, -23.71473806, 867.8 ], [ -46.15219806, -23.71508778, 865.379999999999882 ], [ -46.15315806, -23.71516833, 877.91 ], [ -46.15534444, -23.71204361, 921.6 ], [ -46.15504556, -23.71198028, 926.399999999999864 ], [ -46.15423917, -23.71179, 936.87 ], [ -46.15402472, -23.71133722, 936.48 ], [ -46.15377639, -23.71131278, 935.85 ], [ -46.15330917, -23.71146944, 939.23 ], [ -46.15316583, -23.71114028, 936.05 ], [ -46.152975, -23.71049361, 925.549999999999841 ], [ -46.15217083, -23.7099925, 936.409999999999854 ], [ -46.1519025, -23.70961139, 935.53999999999985 ], [ -46.15165972, -23.70919472, 938.2 ], [ -46.15156389, -23.70881222, 938.57 ], [ -46.15157194, -23.70852972, 936.409999999999854 ], [ -46.15025028, -23.70822444, 931.309999999999832 ], [ -46.14957139, -23.70824944, 934.6 ], [ -46.14953917, -23.70827556, 933.77 ], [ -46.149005, -23.70854694, 928.320000000000164 ], [ -46.14845056, -23.70841444, 920.3900000000001 ], [ -46.14807583, -23.70845333, 917.12 ], [ -46.14720528, -23.708295, 821.74 ], [ -46.1468075, -23.70763667, 921.27 ], [ -46.14583722, -23.70710556, 916.27 ], [ -46.14452167, -23.70913889, 850.27 ], [ -46.14272278, -23.71248194, 731.1 ], [ -46.14184056, -23.71283028, 712.5 ], [ -46.13789833, -23.71239083, 739.18 ], [ -46.13765944, -23.71230778, 739.79 ], [ -46.13702083, -23.71457389, 739.7 ], [ -46.13555667, -23.71417333, 757.3 ], [ -46.13622333, -23.71180611, 736.24 ], [ -46.1362, -23.71179778, 736.24 ], [ -46.13484444, -23.71113333, 743.65 ], [ -46.13475889, -23.71215083, 733.94 ], [ -46.13436361, -23.71291417, 752.92 ], [ -46.13415417, -23.71379778, 789.38 ], [ -46.13402056000001, -23.71399333, 793.86 ], [ -46.13276778, -23.71418111, 796.42 ], [ -46.13232694, -23.71450417, 817.65 ], [ -46.1320775, -23.71531833, 839.34 ], [ -46.13195056, -23.716505, 865.14 ], [ -46.13170056, -23.71701722, 875.3 ], [ -46.13184, -23.71942833, 897.46 ], [ -46.13297667, -23.71895583, 876.19 ], [ -46.13365028, -23.718265, 863.34 ], [ -46.1340625, -23.71830194, 859.45 ], [ -46.13427694, -23.71910833, 861.2 ], [ -46.13523611, -23.71904444, 867.35 ], [ -46.13542972, -23.71858139, 856.739999999999895 ], [ -46.13681, -23.7196475, 822.556 ] ] ] ] } }
]
}
