{
"type": "FeatureCollection",
"name": "Faz",
"crs": { "type": "name", "properties": { "name": "urn:ogc:def:crs:OGC:1.3:CRS84" } },
"features": [
{ "type": "Feature", "properties": { "Name": "GEO_e57afdcf-0605-496c-a3a3-1ef409b83f1f", "Área (ha)": 1015.185 }, "geometry": { "type": "MultiPolygon", "coordinates": [ [ [ [ -50.23363417, -22.10287778, 548.77 ], [ -50.23221444, -22.10313028, 575.26 ], [ -50.23239639, -22.10463556, 561.69 ], [ -50.23086417, -22.10486528, 581.53 ], [ -50.23093556, -22.10527917, 583.2 ], [ -50.23109556, -22.105735, 584.54 ], [ -50.23194, -22.10580972, 579.61 ], [ -50.23192722, -22.10593583, 579.55 ], [ -50.23181139, -22.10592556, 579.03 ], [ -50.23181972, -22.10584472, 579.59 ], [ -50.23105917, -22.10577722, 585.99 ], [ -50.23088833, -22.10529, 583.2 ], [ -50.23081611, -22.1048725, 583.03 ], [ -50.22746639, -22.10537444, 608.5 ], [ -50.22750472, -22.1055975, 608.56 ], [ -50.22669444, -22.10571889, 610.76 ], [ -50.22503278, -22.10714528, 621.2 ], [ -50.22497139, -22.10734528, 621.04 ], [ -50.22465417, -22.10839361, 619.68 ], [ -50.22052278, -22.10730694, 607.6 ], [ -50.21993278, -22.10925444, 600.98 ], [ -50.22008861, -22.10929556, 602.02 ], [ -50.22002278, -22.10951278, 601.66 ], [ -50.21981111, -22.10945722, 600.53 ], [ -50.220685, -22.10657194, 608.33 ], [ -50.22036306, -22.105, 600.91 ], [ -50.2182625, -22.10496139, 601.56 ], [ -50.21818194, -22.10449583, 601.2 ], [ -50.21615472, -22.1048, 595.97 ], [ -50.21602694, -22.10481972, 595.31 ], [ -50.21444972, -22.10505194, 594.48 ], [ -50.21301889, -22.10526528, 594.49 ], [ -50.21288472, -22.10529, 594.44 ], [ -50.21263444, -22.10532806, 594.67 ], [ -50.21225306, -22.10538639, 594.08 ], [ -50.2097175, -22.10576806, 593.2 ], [ -50.209675, -22.10558778, 594.15 ], [ -50.20126278, -22.10684333, 592.29 ], [ -50.20128111, -22.1154225, 592.29 ], [ -50.19976806, -22.11627417, 568.88 ], [ -50.19968167, -22.11637444, 567.34 ], [ -50.19955556, -22.11648861, 567.16 ], [ -50.19883611, -22.11691889, 565.01 ], [ -50.198615, -22.11711194, 564.31 ], [ -50.19816639, -22.11758028, 562.02 ], [ -50.19809139, -22.11770306, 560.31 ], [ -50.19795972, -22.11801222, 555.45 ], [ -50.19793333, -22.11831083, 550.15 ], [ -50.19802722, -22.1186775, 553.9 ], [ -50.19833889, -22.119215, 547.54 ], [ -50.19851139, -22.11982833, 543.31 ], [ -50.19853861, -22.12001472, 543.15 ], [ -50.19870917, -22.12032917, 548.93 ], [ -50.19880472, -22.12072139, 554.06 ], [ -50.19895694, -22.12091694, 555.77 ], [ -50.19938722, -22.12124944, 557.7 ], [ -50.19990694, -22.12148694, 565.43 ], [ -50.20004861000001, -22.12157167, 566.37 ], [ -50.20023306, -22.12183917, 567.23 ], [ -50.2004475, -22.12235861, 568.86 ], [ -50.20082333, -22.12295472, 571.05 ], [ -50.20143083, -22.12443806, 570.71 ], [ -50.20146417, -22.124655, 568.21 ], [ -50.20138222, -22.1253475, 559.2 ], [ -50.20119056, -22.1259725, 558.8 ], [ -50.20111972, -22.126645, 569.79 ], [ -50.20115167, -22.12682083, 547.17 ], [ -50.2012325, -22.12698056, 552.15 ], [ -50.20154722, -22.12713278, 550.84 ], [ -50.20165889, -22.12726056, 550.61 ], [ -50.2015675, -22.12742306, 548.08 ], [ -50.20120222, -22.12766667, 545.93 ], [ -50.20027278, -22.12806083, 533.87 ], [ -50.19969306, -22.12819083, 528.13 ], [ -50.19940944, -22.12835194, 522.24 ], [ -50.19934056, -22.12843361, 520.47 ], [ -50.19941611, -22.128729169999989, 516.24 ], [ -50.19965139, -22.12901167, 508.09 ], [ -50.19969583, -22.12916417, 504.72 ], [ -50.19967722, -22.12961694, 499.69 ], [ -50.19973444, -22.12974417, 497.25 ], [ -50.1998925, -22.12984611, 494.84 ], [ -50.20074083, -22.1298, 481.29 ], [ -50.201005, -22.12992694, 477.72 ], [ -50.20137278, -22.13039, 469.37 ], [ -50.20153306000001, -22.13053083, 471.78 ], [ -50.20190056, -22.13076778, 470.96 ], [ -50.20202556, -22.13099056, 470.12 ], [ -50.20863167, -22.13165306, 444.49 ], [ -50.21662889, -22.13255528, 467.0 ], [ -50.22750194000001, -22.13384194, 554.16 ], [ -50.22367056, -22.12977278, 591.81 ], [ -50.22228722, -22.12809694, 587.23 ], [ -50.22266583, -22.1241475, 597.05 ], [ -50.22295722, -22.12339889, 598.1 ], [ -50.22388306, -22.12112889, 590.21 ], [ -50.22491278, -22.12133639, 591.94 ], [ -50.22589222, -22.12175694, 585.76 ], [ -50.22606861, -22.12174722, 586.04 ], [ -50.22593889, -22.12277889, 568.65 ], [ -50.22595111, -22.12289222, 576.95 ], [ -50.23037111, -22.12546028, 530.59 ], [ -50.23123306, -22.12620222, 531.61 ], [ -50.23159694, -22.12587361, 522.32 ], [ -50.23173, -22.12568222, 518.9 ], [ -50.23360222, -22.12402028, 515.47 ], [ -50.23467806, -22.12406194, 518.95 ], [ -50.23533639, -22.12437278, 520.47 ], [ -50.23603861, -22.12461278, 508.72 ], [ -50.23682861, -22.12362583, 521.72 ], [ -50.23684694, -22.12294861, 536.19 ], [ -50.23675194, -22.12237778, 547.75 ], [ -50.23653972, -22.12193444, 552.9 ], [ -50.23694861, -22.12174028, 549.04 ], [ -50.24174417, -22.11965222, 445.12 ], [ -50.2414875, -22.11958444, 430.53 ], [ -50.24157389, -22.11917472, 428.22 ], [ -50.24138194, -22.11909861, 432.74 ], [ -50.24134944, -22.11818167, 426.82 ], [ -50.24105333, -22.11785, 430.24 ], [ -50.24121389, -22.11754, 442.54 ], [ -50.24109583, -22.11738556, 435.71 ], [ -50.240575, -22.11725389, 430.56 ], [ -50.24019667, -22.11614306, 432.4 ], [ -50.23962167, -22.11606472, 429.8 ], [ -50.23923139, -22.11529222, 434.04 ], [ -50.23849111, -22.11457944, 434.66 ], [ -50.23831667000001, -22.11182944, 446.34 ], [ -50.23850139, -22.11088583, 451.16 ], [ -50.23884333, -22.11068472, 414.79 ], [ -50.23837111, -22.10977667, 446.35 ], [ -50.23846528, -22.10877556, 454.19 ], [ -50.2381875, -22.10811944, 448.62 ], [ -50.23779, -22.1076225, 447.71 ], [ -50.23756361, -22.10667611, 485.67 ], [ -50.23710917, -22.10618139, 473.23 ], [ -50.23694333000001, -22.10550833, 480.36 ], [ -50.23443056, -22.10388972, 525.63 ], [ -50.23363417, -22.10287778, 548.77 ] ] ] ] } },
{ "type": "Feature", "properties": { "Name": "GEO_f4a92233-ac46-417a-9ba0-577bd8ad56bd", "Área (ha)": 5.074 }, "geometry": { "type": "MultiPolygon", "coordinates": [ [ [ [ -50.20114306, -22.12402861, 566.41 ], [ -50.20088472, -22.12403833, 565.66 ], [ -50.20093278, -22.12419083, 571.56 ], [ -50.20098722, -22.12435611, 572.17 ], [ -50.20127444, -22.124866669999989, 565.84 ], [ -50.20121583, -22.12521944, 564.86 ], [ -50.20106222, -22.12545583, 572.91 ], [ -50.20080444, -22.12572417, 564.72 ], [ -50.20064889, -22.12588667, 566.39 ], [ -50.20094639, -22.12628556, 557.85 ], [ -50.20098333, -22.12641139, 557.49 ], [ -50.20096833, -22.12698, 557.39 ], [ -50.20105778, -22.12725306, 555.77 ], [ -50.20083667, -22.12741611, 553.86 ], [ -50.20020639, -22.12759417, 543.66 ], [ -50.19990056, -22.12776333, 536.94 ], [ -50.19970417, -22.12789556, 528.25 ], [ -50.19964167, -22.12805111, 529.66 ], [ -50.19922444, -22.12832889, 517.29 ], [ -50.19916111, -22.12840528, 517.52 ], [ -50.1991675, -22.128546939999989, 518.98 ], [ -50.19898056, -22.12884, 517.34 ], [ -50.19897056, -22.12911139, 522.38 ], [ -50.19888667, -22.12935694, 533.0 ], [ -50.19859194, -22.12981778, 548.02 ], [ -50.19855444, -22.13007917, 555.44 ], [ -50.19849167, -22.13019194, 554.92 ], [ -50.19825667, -22.13043333, 548.35 ], [ -50.19803722, -22.13056639, 555.9 ], [ -50.20189028, -22.130976939999986, 470.09 ], [ -50.20181083, -22.13084194, 470.96 ], [ -50.20145944, -22.13061528, 471.78 ], [ -50.20128556, -22.13046222, 469.37 ], [ -50.20092778, -22.13001167, 477.72 ], [ -50.20071583, -22.12990972, 481.29 ], [ -50.19985944, -22.12995667, 494.84 ], [ -50.19964028, -22.12981528, 497.25 ], [ -50.19956, -22.12963667, 499.69 ], [ -50.19957889, -22.12917667, 504.72 ], [ -50.199545, -22.12906111, 508.09 ], [ -50.19930861, -22.12877694, 516.24 ], [ -50.19921444, -22.12840806, 520.47 ], [ -50.19933111, -22.12826944, 522.24 ], [ -50.19964806, -22.12808944, 528.13 ], [ -50.20023472, -22.12795778, 533.87 ], [ -50.20114361, -22.1275725, 545.93 ], [ -50.20147722, -22.12735, 548.08 ], [ -50.20152028, -22.12727361, 550.61 ], [ -50.20147222, -22.12721861, 550.84 ], [ -50.20114417, -22.12706, 552.15 ], [ -50.20103944, -22.12685361, 547.17 ], [ -50.2010025, -22.12664889, 569.79 ], [ -50.20107556, -22.12595222, 558.8 ], [ -50.20126778, -22.12532667, 559.2 ], [ -50.20134694, -22.12465667, 568.21 ], [ -50.2013175, -22.12446556, 570.71 ], [ -50.20114306, -22.12402861, 566.41 ] ] ] ] } }
]
}
