{
"type": "FeatureCollection",
"name": "Faz",
"crs": { "type": "name", "properties": { "name": "urn:ogc:def:crs:OGC:1.3:CRS84" } },
"features": [
{ "type": "Feature", "properties": { "Área (ha)": 23.972, "Soma (ha)": 124.187 }, "geometry": { "type": "MultiPolygon", "coordinates": [ [ [ [ -46.164996901666697, -23.641724271111087, 0.0 ], [ -46.16490242194439, -23.641749275555604, 0.0 ], [ -46.164806200555503, -23.641776911944401, 0.0 ], [ -46.164710839166702, -23.641802013333304, 0.0 ], [ -46.164618848333298, -23.641831333888895, 0.0 ], [ -46.164520101388902, -23.641861608055592, 0.0 ], [ -46.164416975833298, -23.641884509722193, 0.0 ], [ -46.164311241111093, -23.641900656944401, 0.0 ], [ -46.164205412500003, -23.641906147777799, 0.0 ], [ -46.164103465, -23.641907093888896, 0.0 ], [ -46.1640012758334, -23.641902893611103, 0.0 ], [ -46.163901247500007, -23.641899128888909, 0.0 ], [ -46.163800960833413, -23.64189943, 0.0 ], [ -46.163702128611099, -23.641897913888897, 0.0 ], [ -46.1636042991667, -23.641898918888895, 0.0 ], [ -46.163504818333301, -23.641901652222202, 0.0 ], [ -46.163405253055501, -23.641905921666705, 0.0 ], [ -46.163301825277799, -23.641905794444401, 0.0 ], [ -46.163199326388899, -23.641899789722196, 0.0 ], [ -46.163095997500001, -23.641888643333299, 0.0 ], [ -46.162991006666687, -23.641866942500005, 0.0 ], [ -46.16289228666659, -23.641833724722204, 0.0 ], [ -46.16279932138891, -23.641797212222194, 0.0 ], [ -46.162706323888898, -23.641756997222203, 0.0 ], [ -46.162616156944402, -23.6417154061111, 0.0 ], [ -46.162528240833403, -23.6416733466667, 0.0 ], [ -46.162441229166703, -23.641633808888894, 0.0 ], [ -46.16235080888891, -23.641596825555602, 0.0 ], [ -46.162260278055598, -23.641558398055601, 0.0 ], [ -46.16217027, -23.641523669444407, 0.0 ], [ -46.162078599444399, -23.641489404722194, 0.0 ], [ -46.161986721111099, -23.6414537869444, 0.0 ], [ -46.161892390277792, -23.641418006666704, 0.0 ], [ -46.1618006061111, -23.6413819363889, 0.0 ], [ -46.161706660277808, -23.6413453405555, 0.0 ], [ -46.161616440555591, -23.6413088066667, 0.0 ], [ -46.161525338611092, -23.641272279722205, 0.0 ], [ -46.161434839444503, -23.641237373611105, 0.0 ], [ -46.161342191388897, -23.6412033866666, 0.0 ], [ -46.161249945, -23.641170480555502, 0.0 ], [ -46.161156121666593, -23.641136592777798, 0.0 ], [ -46.161062385, -23.641101439722203, 0.0 ], [ -46.160969413055597, -23.6410640233333, 0.0 ], [ -46.160879893333302, -23.641029019166698, 0.0 ], [ -46.160787537222198, -23.640994758888901, 0.0 ], [ -46.160696221388903, -23.640956155555507, 0.0 ], [ -46.160603749166704, -23.640919818888904, 0.0 ], [ -46.160512326666598, -23.640880222777803, 0.0 ], [ -46.160421290555597, -23.640839991666695, 0.0 ], [ -46.160330755, -23.640800930833304, 0.0 ], [ -46.160238451944508, -23.640761521666704, 0.0 ], [ -46.160146526666708, -23.640720484166703, 0.0 ], [ -46.160056791666598, -23.640672114722193, 0.0 ], [ -46.159973177500007, -23.640617467777801, 0.0 ], [ -46.159892965833293, -23.640559544166702, 0.0 ], [ -46.159813593333404, -23.640496736944399, 0.0 ], [ -46.159739878611099, -23.64043072666669, 0.0 ], [ -46.15966720638891, -23.640360644166702, 0.0 ], [ -46.159604006388903, -23.640286336388908, 0.0 ], [ -46.159542688055502, -23.640214181944405, 0.0 ], [ -46.159481579444403, -23.640143561388907, 0.0 ], [ -46.159418546111098, -23.640077019444401, 0.0 ], [ -46.159354534722198, -23.640021864166698, 0.0 ], [ -46.159278296666699, -23.63998098, 0.0 ], [ -46.159194380833299, -23.639947648888906, 0.0 ], [ -46.159101905555602, -23.639921968333301, 0.0 ], [ -46.159004740833304, -23.639898128888891, 0.0 ], [ -46.158909872499997, -23.63986786, 0.0 ], [ -46.1588153116667, -23.639839124166699, 0.0 ], [ -46.158719933888896, -23.639806691388888, 0.0 ], [ -46.158628248888903, -23.639770528333298, 0.0 ], [ -46.158538043611109, -23.639735437777802, 0.0 ], [ -46.158447451944504, -23.639700981944404, 0.0 ], [ -46.158353814444411, -23.639665736388903, 0.0 ], [ -46.158262825277802, -23.639630651111094, 0.0 ], [ -46.158172325277803, -23.639595472222197, 0.0 ], [ -46.158081133888899, -23.639559666111094, 0.0 ], [ -46.157990032222202, -23.639522956388895, 0.0 ], [ -46.157897684444407, -23.639489416666702, 0.0 ], [ -46.157805911111097, -23.639454337222201, 0.0 ], [ -46.157712194166599, -23.639421168888902, 0.0 ], [ -46.157620983888897, -23.639383195277802, 0.0 ], [ -46.157530376666699, -23.639346933055602, 0.0 ], [ -46.157438966388902, -23.639308509166707, 0.0 ], [ -46.157351466111102, -23.639268791388893, 0.0 ], [ -46.1572620872222, -23.639238390277793, 0.0 ], [ -46.157167895277809, -23.639206941111098, 0.0 ], [ -46.157074669444491, -23.6391738591667, 0.0 ], [ -46.156982809166699, -23.639139954166698, 0.0 ], [ -46.156888036388906, -23.639109321944499, 0.0 ], [ -46.15679596, -23.639073160555593, 0.0 ], [ -46.156704584166597, -23.639038619444399, 0.0 ], [ -46.156613381666602, -23.639001457777699, 0.0 ], [ -46.156520604166616, -23.638963585555601, 0.0 ], [ -46.1564302852778, -23.638926597777704, 0.0 ], [ -46.156340064722301, -23.638889609444391, 0.0 ], [ -46.15625398027781, -23.638854757500003, 0.0 ], [ -46.156168510277801, -23.638834080555593, 0.0 ], [ -46.15608389166669, -23.638832182499996, 0.0 ], [ -46.155996411944393, -23.638850536388897, 0.0 ], [ -46.1559053994444, -23.638879663888893, 0.0 ], [ -46.155813338333303, -23.638912140833295, 0.0 ], [ -46.155724637500001, -23.638947753611099, 0.0 ], [ -46.155633728055598, -23.638988620833292, 0.0 ], [ -46.15553474472221, -23.639025484444399, 0.0 ], [ -46.155427072222203, -23.6390440786111, 0.0 ], [ -46.155319478888899, -23.639049395833304, 0.0 ], [ -46.155211225555497, -23.639046499444401, 0.0 ], [ -46.155101995, -23.639032772499995, 0.0 ], [ -46.154995452500003, -23.639001413888899, 0.0 ], [ -46.154898787500002, -23.638956163611091, 0.0 ], [ -46.154809305277801, -23.638902731666693, 0.0 ], [ -46.154729010555499, -23.638846160555495, 0.0 ], [ -46.154647956111113, -23.638792394444497, 0.0 ], [ -46.154566433055493, -23.638741070555593, 0.0 ], [ -46.154485668333287, -23.638686760555601, 0.0 ], [ -46.154405780277798, -23.638631811944503, 0.0 ], [ -46.154323921388908, -23.638575703611103, 0.0 ], [ -46.154243045277802, -23.638519858888891, 0.0 ], [ -46.154162874166701, -23.638466176666704, 0.0 ], [ -46.154079555555597, -23.638411253055597, 0.0 ], [ -46.154000542777801, -23.638355484722204, 0.0 ], [ -46.153922719166601, -23.638301152499995, 0.0 ], [ -46.153841482222212, -23.638248832499993, 0.0 ], [ -46.153761594722297, -23.638193883611102, 0.0 ], [ -46.153681029722193, -23.638139932777804, 0.0 ], [ -46.153602900277804, -23.638084248055506, 0.0 ], [ -46.153524402777798, -23.638031275277804, 0.0 ], [ -46.15344247027781, -23.637977876666596, 0.0 ], [ -46.1533634480556, -23.637920933888903, 0.0 ], [ -46.153281978055603, -23.637864370555501, 0.0 ], [ -46.153205736111097, -23.637800272222197, 0.0 ], [ -46.153131426111102, -23.637732908055501, 0.0 ], [ -46.153066627777797, -23.637677033611102, 0.0 ], [ -46.153496158888913, -23.638924967777804, 0.0 ], [ -46.153525813333303, -23.639008830277806, 0.0 ], [ -46.153624009166698, -23.639038626111098, 0.0 ], [ -46.156304063611103, -23.639813163333397, 0.0 ], [ -46.157283405, -23.640603696388897, 0.0 ], [ -46.1572479152778, -23.640748464444393, 0.0 ], [ -46.157603020833413, -23.640952182500005, 0.0 ], [ -46.158361736944407, -23.641278783888893, 0.0 ], [ -46.158993833333298, -23.641598470277788, 0.0 ], [ -46.159469705, -23.642000515277807, 0.0 ], [ -46.159715759166708, -23.64223268, 0.0 ], [ -46.160149857222187, -23.642499563333295, 0.0 ], [ -46.160269037500008, -23.64261842861109, 0.0 ], [ -46.160988171388901, -23.643123773888899, 0.0 ], [ -46.1611340416666, -23.643189694722196, 0.0 ], [ -46.161427751944487, -23.643411384444406, 0.0 ], [ -46.161672553888913, -23.643723122222298, 0.0 ], [ -46.16208168111109, -23.643903394722205, 0.0 ], [ -46.162377628888898, -23.643978485555596, 0.0 ], [ -46.162904290277787, -23.644068553611095, 0.0 ], [ -46.163605140833297, -23.644710488333303, 0.0 ], [ -46.164915238055499, -23.644304622777799, 0.0 ], [ -46.165118767777805, -23.644249988611101, 0.0 ], [ -46.165406674444505, -23.644169612777805, 0.0 ], [ -46.1662692386111, -23.643931019722203, 0.0 ], [ -46.166150564166706, -23.643715067499997, 0.0 ], [ -46.166080722222198, -23.643588791666694, 0.0 ], [ -46.165971465277799, -23.6433956180555, 0.0 ], [ -46.165744137499999, -23.642965896111097, 0.0 ], [ -46.165431634722189, -23.642549006111096, 0.0 ], [ -46.165366525277797, -23.642414565833302, 0.0 ], [ -46.165270379444401, -23.641775321111105, 0.0 ], [ -46.1652568425, -23.641685831111104, 0.0 ], [ -46.165140544444398, -23.641671441944396, 0.0 ], [ -46.165100761944409, -23.641695764444396, 0.0 ], [ -46.164996901666697, -23.641724271111087, 0.0 ] ] ] ] } },
{ "type": "Feature", "properties": { "Área (ha)": 8.315, "Soma (ha)": 124.187 }, "geometry": { "type": "MultiPolygon", "coordinates": [ [ [ [ -46.165216869722201, -23.640271357777692, 0.0 ], [ -46.163813669444487, -23.640232402499993, 0.0 ], [ -46.163373441111098, -23.640325568611097, 0.0 ], [ -46.163151297222193, -23.640392080555593, 0.0 ], [ -46.162951733333301, -23.640440089166699, 0.0 ], [ -46.162833885277799, -23.640449823888897, 0.0 ], [ -46.162501534722203, -23.640447890277798, 0.0 ], [ -46.162275035555602, -23.640376523611096, 0.0 ], [ -46.1620781913889, -23.640299606111096, 0.0 ], [ -46.161723169166599, -23.640172484166602, 0.0 ], [ -46.161596889166603, -23.640159883055496, 0.0 ], [ -46.1614468880556, -23.640169857222201, 0.0 ], [ -46.161251792777797, -23.640091028888897, 0.0 ], [ -46.160672350833401, -23.639761203333293, 0.0 ], [ -46.160553731944503, -23.639705735, 0.0 ], [ -46.160262910555502, -23.639543719444394, 0.0 ], [ -46.160165268611102, -23.639521329444491, 0.0 ], [ -46.160093369444397, -23.639483303055595, 0.0 ], [ -46.159707394722197, -23.639225181111094, 0.0 ], [ -46.159573124166592, -23.639151133888902, 0.0 ], [ -46.1595461858333, -23.639153502777795, 0.0 ], [ -46.159407512222209, -23.639169441388901, 0.0 ], [ -46.159325931944402, -23.63918974, 0.0 ], [ -46.158996482500001, -23.639327674166701, 0.0 ], [ -46.158914858333297, -23.639376421666704, 0.0 ], [ -46.158736033333398, -23.639508533333299, 0.0 ], [ -46.158576670833398, -23.639635441944399, 0.0 ], [ -46.158678078888897, -23.639662501111108, 0.0 ], [ -46.158767107777798, -23.639697600277692, 0.0 ], [ -46.158857273888898, -23.639728265833288, 0.0 ], [ -46.158950654444411, -23.639756558888898, 0.0 ], [ -46.159042083333304, -23.63978586, 0.0 ], [ -46.159136692777693, -23.639808995833299, 0.0 ], [ -46.159238208888901, -23.639837137777704, 0.0 ], [ -46.1593358975, -23.639875965, 0.0 ], [ -46.159431048055502, -23.639927094166694, 0.0 ], [ -46.1595102725, -23.639995411944501, 0.0 ], [ -46.15957944, -23.640068320277695, 0.0 ], [ -46.1596427275, -23.640141453333293, 0.0 ], [ -46.159704244444399, -23.640213876944401, 0.0 ], [ -46.159763679444403, -23.640283697222198, 0.0 ], [ -46.159830420000013, -23.640348134166604, 0.0 ], [ -46.159899588888898, -23.640410024166709, 0.0 ], [ -46.159973827222203, -23.640468715, 0.0 ], [ -46.160049402222199, -23.640523331944397, 0.0 ], [ -46.160125917777805, -23.640573425833296, 0.0 ], [ -46.160206491666699, -23.640616806111105, 0.0 ], [ -46.160293003888917, -23.6406554458333, 0.0 ], [ -46.160384519444399, -23.640694499166692, 0.0 ], [ -46.160475842222205, -23.640733915555501, 0.0 ], [ -46.160566976388807, -23.640774145833298, 0.0 ], [ -46.160655840555499, -23.640812677222193, 0.0 ], [ -46.160747820277798, -23.640848746944396, 0.0 ], [ -46.160837955833387, -23.640886907222203, 0.0 ], [ -46.160928639722208, -23.6409205477777, 0.0 ], [ -46.1610197341667, -23.640956262499998, 0.0 ], [ -46.161111918055497, -23.640993233611091, 0.0 ], [ -46.1612034905556, -23.641027589722196, 0.0 ], [ -46.1612962325, -23.641061124444398, 0.0 ], [ -46.1613886755556, -23.6410941194444, 0.0 ], [ -46.161482994722206, -23.641128635555603, 0.0 ], [ -46.161575461111099, -23.641164249444497, 0.0 ], [ -46.1616674491666, -23.641201221388901, 0.0 ], [ -46.161757078333409, -23.641237488611097, 0.0 ], [ -46.161850434166602, -23.6412739083333, 0.0 ], [ -46.161941628611103, -23.6413098025, 0.0 ], [ -46.162035662777797, -23.641345313888895, 0.0 ], [ -46.162127246111098, -23.641380843611099, 0.0 ], [ -46.162218818611102, -23.641415108888896, 0.0 ], [ -46.16231158083329, -23.641450900555601, 0.0 ], [ -46.162403292777803, -23.641489861388905, 0.0 ], [ -46.162495385, -23.641527464166703, 0.0 ], [ -46.162585743888904, -23.6415686022222, 0.0 ], [ -46.162674053055611, -23.641610749166599, 0.0 ], [ -46.162761858333397, -23.6416513644444, 0.0 ], [ -46.162851411666601, -23.64169007, 0.0 ], [ -46.16293916305559, -23.641724544166706, 0.0 ], [ -46.163026968333398, -23.641754050833303, 0.0 ], [ -46.163117422777809, -23.641772699444399, 0.0 ], [ -46.163210841388903, -23.6417828366667, 0.0 ], [ -46.163305984166598, -23.641788444722192, 0.0 ], [ -46.163402352777801, -23.641788534722188, 0.0 ], [ -46.163499860277803, -23.641784371111104, 0.0 ], [ -46.163601693055497, -23.641781529722202, 0.0 ], [ -46.163702463333287, -23.641780502777802, 0.0 ], [ -46.1638018836111, -23.641782014444399, 0.0 ], [ -46.16390364055551, -23.641781702222197, 0.0 ], [ -46.164006709166721, -23.641785625, 0.0 ], [ -46.164105563611102, -23.6417896694444, 0.0 ], [ -46.164201237222201, -23.6417887705556, 0.0 ], [ -46.164297169166709, -23.641783805555498, 0.0 ], [ -46.164391546666707, -23.641769369166699, 0.0 ], [ -46.164484887777803, -23.641748618333295, 0.0 ], [ -46.164577866111102, -23.641720103333302, 0.0 ], [ -46.164672497222199, -23.641690040555496, 0.0 ], [ -46.164769618333303, -23.641664384166699, 0.0 ], [ -46.164865839444502, -23.641636747777795, 0.0 ], [ -46.164961101666691, -23.641611556944401, 0.0 ], [ -46.1650455005556, -23.641588434722195, 0.0 ], [ -46.16510994444441, -23.6415481219444, 0.0 ], [ -46.165151658611087, -23.641487297777804, 0.0 ], [ -46.1651764702778, -23.641410795833405, 0.0 ], [ -46.165195416666698, -23.641325125833301, 0.0 ], [ -46.165208065277803, -23.641236793611103, 0.0 ], [ -46.165221493333313, -23.641147913611093, 0.0 ], [ -46.165230686944398, -23.641056898333304, 0.0 ], [ -46.165240483055605, -23.640967503888898, 0.0 ], [ -46.165247139166603, -23.640877771666688, 0.0 ], [ -46.165255825, -23.640784773055596, 0.0 ], [ -46.165265300833298, -23.640692400555601, 0.0 ], [ -46.165278904722193, -23.640601261666699, 0.0 ], [ -46.165291735, -23.640511302222198, 0.0 ], [ -46.165307280277801, -23.640417981111092, 0.0 ], [ -46.165340001666607, -23.640293733611102, 0.0 ], [ -46.165216869722201, -23.640271357777692, 0.0 ] ] ] ] } },
{ "type": "Feature", "properties": { "Área (ha)": 5.619, "Soma (ha)": 124.187 }, "geometry": { "type": "MultiPolygon", "coordinates": [ [ [ [ -46.166689658333397, -23.639744499444401, 0.0 ], [ -46.1664063122222, -23.639685668611097, 0.0 ], [ -46.166075587777698, -23.639667835277795, 0.0 ], [ -46.16578543, -23.639670016666702, 0.0 ], [ -46.165619911944397, -23.6396324255556, 0.0 ], [ -46.165591602777802, -23.639723494722194, 0.0 ], [ -46.165564547777791, -23.6398122963889, 0.0 ], [ -46.165540215833303, -23.639898639166702, 0.0 ], [ -46.165520612500011, -23.639987565555497, 0.0 ], [ -46.165502683611109, -23.640077382222191, 0.0 ], [ -46.165487610833303, -23.640168713055608, 0.0 ], [ -46.165471650555602, -23.640259418333301, 0.0 ], [ -46.165452251111098, -23.640349246388901, 0.0 ], [ -46.165432846111102, -23.640438441944504, 0.0 ], [ -46.165417951944399, -23.640527784444402, 0.0 ], [ -46.165405212499998, -23.640616930277801, 0.0 ], [ -46.165391884444396, -23.64070599, 0.0 ], [ -46.165382675555612, -23.640795289722192, 0.0 ], [ -46.165374271111112, -23.640886841388905, 0.0 ], [ -46.16536742638889, -23.640977387777802, 0.0 ], [ -46.165357545, -23.641068227777804, 0.0 ], [ -46.165348077222191, -23.641161503333304, 0.0 ], [ -46.165334276388897, -23.6412525536111, 0.0 ], [ -46.165321170555607, -23.641344591666698, 0.0 ], [ -46.1653002455555, -23.641439308055503, 0.0 ], [ -46.16526885166671, -23.6415363611111, 0.0 ], [ -46.165242330277813, -23.641574763333299, 0.0 ], [ -46.16530062611109, -23.641581911666588, 0.0 ], [ -46.165423644444502, -23.642399505555602, 0.0 ], [ -46.165483161666707, -23.642522427777795, 0.0 ], [ -46.165795069444506, -23.642938509166701, 0.0 ], [ -46.1660239922222, -23.643371199444395, 0.0 ], [ -46.166133049722191, -23.643564013333297, 0.0 ], [ -46.166202992222203, -23.643690559444504, 0.0 ], [ -46.166324854166589, -23.643912177499995, 0.0 ], [ -46.166483491666597, -23.643858601944398, 0.0 ], [ -46.166793249166687, -23.6437992830555, 0.0 ], [ -46.166799408333397, -23.643587268888897, 0.0 ], [ -46.1667715930555, -23.643347061666692, 0.0 ], [ -46.1668254194445, -23.643126470555604, 0.0 ], [ -46.166818583888897, -23.642941558333398, 0.0 ], [ -46.166762638333402, -23.642746178055599, 0.0 ], [ -46.166625978888902, -23.6425583591666, 0.0 ], [ -46.166419353888898, -23.642340811111097, 0.0 ], [ -46.166234266111097, -23.642141886111098, 0.0 ], [ -46.165892214444497, -23.641864213055491, 0.0 ], [ -46.165591865277698, -23.641745630277796, 0.0 ], [ -46.165422719722201, -23.6416308475, 0.0 ], [ -46.165424765277798, -23.641352574166699, 0.0 ], [ -46.16558618, -23.641203335555502, 0.0 ], [ -46.165969166388898, -23.641288241944416, 0.0 ], [ -46.166312621944499, -23.641392591388907, 0.0 ], [ -46.166640285, -23.641451630555494, 0.0 ], [ -46.166963334722197, -23.641421563611104, 0.0 ], [ -46.167170067777803, -23.64116496, 0.0 ], [ -46.16725919027779, -23.640922879166684, 0.0 ], [ -46.167423795, -23.64061412, 0.0 ], [ -46.167526092222197, -23.640464873055592, 0.0 ], [ -46.16765702305559, -23.640095495277798, 0.0 ], [ -46.167370061666702, -23.639916575555493, 0.0 ], [ -46.167010919722188, -23.639833841388899, 0.0 ], [ -46.166689658333397, -23.639744499444401, 0.0 ] ] ] ] } },
{ "type": "Feature", "properties": { "Área (ha)": 0.542, "Soma (ha)": 124.187 }, "geometry": { "type": "MultiPolygon", "coordinates": [ [ [ [ -46.166931002222199, -23.638966481944401, 0.0 ], [ -46.166850968333314, -23.638977386944397, 0.0 ], [ -46.166734821111113, -23.6389989086111, 0.0 ], [ -46.166636653611093, -23.639002446666602, 0.0 ], [ -46.166540319166707, -23.638994810277698, 0.0 ], [ -46.166452215, -23.639003038611097, 0.0 ], [ -46.166367256666589, -23.6390277488889, 0.0 ], [ -46.166275897777801, -23.639062285833397, 0.0 ], [ -46.166177382222209, -23.639095926388894, 0.0 ], [ -46.166072329444503, -23.639120135, 0.0 ], [ -46.165969758333297, -23.639128776944503, 0.0 ], [ -46.165880476388899, -23.639136744722201, 0.0 ], [ -46.1658086258334, -23.639162676666704, 0.0 ], [ -46.165756498888904, -23.639212028888899, 0.0 ], [ -46.165727516944493, -23.6392656238889, 0.0 ], [ -46.166969163055491, -23.639643140833297, 0.0 ], [ -46.166931002222199, -23.638966481944401, 0.0 ] ] ] ] } },
{ "type": "Feature", "properties": { "Área (ha)": 85.739, "Soma (ha)": 124.187 }, "geometry": { "type": "MultiPolygon", "coordinates": [ [ [ [ -46.174336467499998, -23.628816384166704, 0.0 ], [ -46.17365766, -23.628465773333293, 0.0 ], [ -46.173239866111103, -23.628277105833298, 0.0 ], [ -46.172759991388908, -23.628172808611101, 0.0 ], [ -46.172228962222199, -23.628114053611096, 0.0 ], [ -46.1720365008333, -23.628087510277798, 0.0 ], [ -46.171714150277801, -23.628038105, 0.0 ], [ -46.171366923055594, -23.627980035833293, 0.0 ], [ -46.170941417777797, -23.627959856666696, 0.0 ], [ -46.170844361388902, -23.627958421666701, 0.0 ], [ -46.170160242777698, -23.627858096111101, 0.0 ], [ -46.170136313611103, -23.627945068888899, 0.0 ], [ -46.169876601944402, -23.628590878611092, 0.0 ], [ -46.1697868438889, -23.628837300833304, 0.0 ], [ -46.169763819444398, -23.628948922499998, 0.0 ], [ -46.169753834999987, -23.629138116111093, 0.0 ], [ -46.1697599755556, -23.629211405, 0.0 ], [ -46.169840228888901, -23.62949501916669, 0.0 ], [ -46.1699529786111, -23.629938695833399, 0.0 ], [ -46.169878831111099, -23.630088635, 0.0 ], [ -46.169849426111107, -23.630166165833295, 0.0 ], [ -46.169808015, -23.6303266958333, 0.0 ], [ -46.169783869444402, -23.630378357222192, 0.0 ], [ -46.16957083, -23.630695070277795, 0.0 ], [ -46.169497205, -23.630771489444399, 0.0 ], [ -46.169422200833303, -23.630869233055598, 0.0 ], [ -46.169381621388901, -23.630880647777794, 0.0 ], [ -46.166814954444391, -23.631129735, 0.0 ], [ -46.163441901666701, -23.631477854444505, 0.0 ], [ -46.163161638333413, -23.631688131111098, 0.0 ], [ -46.163063232222306, -23.631789479166699, 0.0 ], [ -46.162984075277791, -23.631939272222205, 0.0 ], [ -46.162679989999987, -23.632216198333296, 0.0 ], [ -46.162367666944498, -23.632459588333301, 0.0 ], [ -46.162190422777797, -23.632547256944399, 0.0 ], [ -46.162045674444393, -23.632607136111098, 0.0 ], [ -46.161792762499999, -23.632762565277698, 0.0 ], [ -46.162261285277808, -23.633356575833297, 0.0 ], [ -46.162645640833297, -23.634065554166703, 0.0 ], [ -46.163019844444413, -23.634612492777805, 0.0 ], [ -46.162951640277797, -23.634737276944399, 0.0 ], [ -46.16257080138891, -23.6352706386111, 0.0 ], [ -46.162365916111099, -23.635525596666699, 0.0 ], [ -46.162307149444487, -23.635609126388893, 0.0 ], [ -46.162260616666593, -23.635723722777801, 0.0 ], [ -46.162236766388901, -23.63579814, 0.0 ], [ -46.162218005833402, -23.635860597777807, 0.0 ], [ -46.162200308611098, -23.636010200555596, 0.0 ], [ -46.162169464166688, -23.636325087222204, 0.0 ], [ -46.162173309722199, -23.636416456666698, 0.0 ], [ -46.162188161666698, -23.6364775786111, 0.0 ], [ -46.162211615277798, -23.636535836388898, 0.0 ], [ -46.162305989166697, -23.636665723888893, 0.0 ], [ -46.162349759166688, -23.636737828055598, 0.0 ], [ -46.16241833805551, -23.63688841, 0.0 ], [ -46.162484252777809, -23.637059242500005, 0.0 ], [ -46.162504798333401, -23.637110116111096, 0.0 ], [ -46.16247752611109, -23.637363200833295, 0.0 ], [ -46.162385519166598, -23.637745649722188, 0.0 ], [ -46.162363675833298, -23.637803163055501, 0.0 ], [ -46.162303481944413, -23.637913888055589, 0.0 ], [ -46.162275736111113, -23.637969097499997, 0.0 ], [ -46.162251842222197, -23.638038638055598, 0.0 ], [ -46.162235700555598, -23.6381312408333, 0.0 ], [ -46.162363545833308, -23.638188083888895, 0.0 ], [ -46.163475238611099, -23.638544437499998, 0.0 ], [ -46.164548985833292, -23.638888243055597, 0.0 ], [ -46.165605730833398, -23.639226659722194, 0.0 ], [ -46.165650869722199, -23.639143050555596, 0.0 ], [ -46.1657362261111, -23.639062209722198, 0.0 ], [ -46.16585036277781, -23.639020981388892, 0.0 ], [ -46.165957721388899, -23.639011413611101, 0.0 ], [ -46.166050880555602, -23.639003578333291, 0.0 ], [ -46.166139516666703, -23.638983133055497, 0.0 ], [ -46.166229336666703, -23.638952473333408, 0.0 ], [ -46.1663236219444, -23.638916812500003, 0.0 ], [ -46.166426193055599, -23.63888696, 0.0 ], [ -46.16653932722221, -23.638876445277795, 0.0 ], [ -46.166639684166604, -23.6388843605556, 0.0 ], [ -46.166728276944397, -23.638881165277805, 0.0 ], [ -46.166767323611097, -23.638873465833289, 0.0 ], [ -46.16692465694441, -23.638850425833301, 0.0 ], [ -46.167568912500002, -23.638274429166596, 0.0 ], [ -46.168233404444408, -23.637703786666595, 0.0 ], [ -46.169371915833302, -23.637899768055497, 0.0 ], [ -46.169637913055602, -23.637220043888895, 0.0 ], [ -46.169908804444397, -23.636374285, 0.0 ], [ -46.170581095555598, -23.636550653611099, 0.0 ], [ -46.171212988611103, -23.636957174166696, 0.0 ], [ -46.171389901111098, -23.636325535, 0.0 ], [ -46.171607105833402, -23.635683295277797, 0.0 ], [ -46.171645877499998, -23.63524832, 0.0 ], [ -46.171735827222207, -23.634880242222199, 0.0 ], [ -46.17181637833329, -23.634645719722208, 0.0 ], [ -46.171955625833412, -23.634265528333305, 0.0 ], [ -46.172031622777702, -23.634125147777805, 0.0 ], [ -46.172065363888898, -23.634006219722199, 0.0 ], [ -46.171874212500008, -23.633973615555597, 0.0 ], [ -46.171447267500014, -23.6342014522222, 0.0 ], [ -46.170780194444397, -23.634533426666696, 0.0 ], [ -46.170298580555603, -23.635062961388897, 0.0 ], [ -46.169806490555601, -23.6353737422222, 0.0 ], [ -46.169615207777802, -23.635425851388895, 0.0 ], [ -46.169494780555503, -23.6353874725, 0.0 ], [ -46.169440778888912, -23.635157126944396, 0.0 ], [ -46.169502391388903, -23.634942075555589, 0.0 ], [ -46.1695566841667, -23.634785873888895, 0.0 ], [ -46.1697738211111, -23.634422076111093, 0.0 ], [ -46.17003784694441, -23.634183280555501, 0.0 ], [ -46.170133251944399, -23.634108683611096, 0.0 ], [ -46.170232797777793, -23.634047783333298, 0.0 ], [ -46.170390809722193, -23.633947426111099, 0.0 ], [ -46.170468194444403, -23.633896808055596, 0.0 ], [ -46.170592495833297, -23.633830843611101, 0.0 ], [ -46.170690224722307, -23.633786123055501, 0.0 ], [ -46.170784395555501, -23.63373817777779, 0.0 ], [ -46.170918138333299, -23.633675664166692, 0.0 ], [ -46.171068465, -23.633659175833301, 0.0 ], [ -46.171277443055487, -23.6336130730555, 0.0 ], [ -46.171571318333399, -23.633369262777798, 0.0 ], [ -46.171781638333293, -23.633066476111104, 0.0 ], [ -46.171785441111098, -23.632876968055495, 0.0 ], [ -46.171644067777798, -23.632643670277798, 0.0 ], [ -46.171485297222198, -23.63243814, 0.0 ], [ -46.171337438611097, -23.632269104722194, 0.0 ], [ -46.171336348611099, -23.632146556388907, 0.0 ], [ -46.171368745, -23.6320196911111, 0.0 ], [ -46.171523257499999, -23.632066210277795, 0.0 ], [ -46.171587670555503, -23.632089295555591, 0.0 ], [ -46.171639372222202, -23.632127017777805, 0.0 ], [ -46.171857916666703, -23.632319000555498, 0.0 ], [ -46.172106386944407, -23.63250299, 0.0 ], [ -46.172341663055604, -23.632592248888901, 0.0 ], [ -46.172517536111101, -23.632637611944499, 0.0 ], [ -46.17273230083341, -23.632449037777803, 0.0 ], [ -46.173173178333407, -23.632080473055499, 0.0 ], [ -46.173536740555512, -23.631616307499996, 0.0 ], [ -46.173661261388887, -23.631190436944404, 0.0 ], [ -46.173759014166599, -23.6306319163889, 0.0 ], [ -46.173709933333299, -23.630283403888903, 0.0 ], [ -46.173490321111103, -23.630026495555594, 0.0 ], [ -46.17299283722221, -23.629761844166701, 0.0 ], [ -46.172682849166698, -23.6296481338889, 0.0 ], [ -46.172566936388897, -23.629543793888896, 0.0 ], [ -46.172617285555503, -23.629495727499997, 0.0 ], [ -46.172716303055502, -23.629475109722197, 0.0 ], [ -46.172905193611101, -23.629474675277798, 0.0 ], [ -46.173121032500013, -23.629473313888905, 0.0 ], [ -46.173357565277797, -23.629473150833302, 0.0 ], [ -46.173760023888903, -23.629513547500004, 0.0 ], [ -46.174177691388898, -23.6295335975, 0.0 ], [ -46.17453776, -23.629448234166599, 0.0 ], [ -46.174776384166591, -23.6292869322222, 0.0 ], [ -46.174972961388903, -23.629071398611096, 0.0 ], [ -46.174336467499998, -23.628816384166704, 0.0 ] ] ] ] } }
]
}
