{
"type": "FeatureCollection",
"name": "Faz",
"crs": { "type": "name", "properties": { "name": "urn:ogc:def:crs:OGC:1.3:CRS84" } },
"features": [
{ "type": "Feature", "properties": { "id": null, "Name": "b79c17c0-529f-4293-898a-ebd28ce8434d", "description": null, "timestamp": null, "begin": null, "end": null, "altitudeMode": null, "tessellate": -1, "extrude": 0, "visibility": -1, "drawOrder": null, "icon": null }, "geometry": { "type": "Polygon", "coordinates": [ [ [ -46.185714824799398, -23.4498298289102, 708.91 ], [ -46.184977678945003, -23.4500906618896, 701.48 ], [ -46.1840800932764, -23.4503963317384, 671.18 ], [ -46.183334528743401, -23.450646925000999, 693.73 ], [ -46.182112517519997, -23.450380453074299, 719.89 ], [ -46.181721664563703, -23.4503618282112, 720.62 ], [ -46.181360667888399, -23.450376122320399, 718.22 ], [ -46.181418959038098, -23.451481691705901, 725.99 ], [ -46.181439253779899, -23.451705250948301, 727.0 ], [ -46.181431875263897, -23.452108297127602, 724.85 ], [ -46.181465572579803, -23.453310148733902, 721.19 ], [ -46.181498273864797, -23.453530723840299, 724.64 ], [ -46.181562331977901, -23.454502852197599, 711.04 ], [ -46.1815656215541, -23.454905546491599, 727.97 ], [ -46.181616617613301, -23.4560267949924, 735.58 ], [ -46.181665060354199, -23.457157997396099, 743.9 ], [ -46.181696178457898, -23.4579374597227, 768.98 ], [ -46.181701755171296, -23.458047061097801, 772.91 ], [ -46.181722350758001, -23.458689142100202, 783.33 ], [ -46.181769123456696, -23.459489438951501, 764.92 ], [ -46.181815555651198, -23.459998469265301, 771.65 ], [ -46.181804511344197, -23.460407413342399, 772.28 ], [ -46.181804701909499, -23.461473501518402, 769.17 ], [ -46.181838546979797, -23.462108075900701, 773.5 ], [ -46.181911525672703, -23.4627945562817, 787.51 ], [ -46.181972377123301, -23.463339422756601, 811.95 ], [ -46.182016283604298, -23.464158165143999, 839.77 ], [ -46.182005152019002, -23.4651178561266, 880.64 ], [ -46.182187203959202, -23.4674755273901, 1001.63 ], [ -46.182226368865898, -23.468948462991001, 938.51 ], [ -46.182720521172001, -23.4691486489935, 955.25 ], [ -46.183257756311797, -23.469425997447399, 956.11 ], [ -46.183670597239399, -23.469576401077202, 958.77 ], [ -46.184081656594202, -23.469636772241099, 960.25 ], [ -46.184484730562097, -23.469822561303399, 963.58 ], [ -46.184659366884098, -23.4699180531723, 970.55 ], [ -46.184941728620402, -23.470049575092901, 963.58 ], [ -46.185110418253302, -23.470104017940098, 970.52 ], [ -46.185407596546398, -23.470184307643802, 975.55 ], [ -46.185556434067699, -23.470230320915402, 980.22 ], [ -46.1857136728309, -23.470296139626502, 981.25 ], [ -46.186142540751199, -23.470398818231601, 984.25 ], [ -46.186555038611203, -23.470422593922699, 990.12 ], [ -46.186746702731597, -23.470418425841899, 995.63 ], [ -46.186854856798398, -23.470447587487399, 1001.23 ], [ -46.186972046880697, -23.470534662976998, 1002.45 ], [ -46.1873502308121, -23.4710236431218, 1010.33 ], [ -46.187496400699899, -23.471154300627799, 1015.74 ], [ -46.187585873910798, -23.471229303761401, 1015.45 ], [ -46.187726977993798, -23.471318996281799, 1016.58 ], [ -46.187812703873803, -23.471369100683901, 1017.44 ], [ -46.1883531184519, -23.4716166927644, 1018.02 ], [ -46.188827261660798, -23.4718982050032, 1023.22 ], [ -46.189336784014799, -23.472183329432301, 1022.54 ], [ -46.189239940771799, -23.471144263725801, 982.34 ], [ -46.189270146650003, -23.470931430223999, 976.29 ], [ -46.189395407981401, -23.470575263202502, 1000.34 ], [ -46.189561498464101, -23.4700665123653, 1010.41 ], [ -46.189809161030603, -23.470138410708099, 1010.02 ], [ -46.190206019442797, -23.4705362029482, 1011.78 ], [ -46.190317931042003, -23.470580325880299, 1008.06 ], [ -46.190600752812003, -23.470565974006298, 1003.4 ], [ -46.191102549993197, -23.470405173076699, 994.63 ], [ -46.1912945967781, -23.470421859398598, 994.8 ], [ -46.191515513051201, -23.470491611107299, 997.3 ], [ -46.192250742229, -23.4708456279511, 997.22 ], [ -46.192666792842701, -23.471111947936301, 991.45 ], [ -46.193961765070199, -23.471629209324298, 981.83 ], [ -46.194982044117801, -23.472203747899201, 977.88 ], [ -46.196094797823001, -23.472793646237701, 960.0 ], [ -46.195944400079597, -23.473205193608599, 953.61 ], [ -46.195916981628699, -23.473259051332899, 954.07 ], [ -46.195599148708602, -23.4745494783769, 973.24 ], [ -46.195346304231201, -23.4753162991456, 1003.75 ], [ -46.195540369285297, -23.475382276756498, 1002.39 ], [ -46.196042120972002, -23.475562671849701, 990.47 ], [ -46.196486614221499, -23.474789773327998, 966.19 ], [ -46.196751987855599, -23.474251352903401, 955.57 ], [ -46.196946087717997, -23.4738329666345, 955.87 ], [ -46.196837197211401, -23.4736033174512, 952.32 ], [ -46.196747398061603, -23.473427801242199, 952.58 ], [ -46.196709002419098, -23.473198152715302, 954.09 ], [ -46.196695329284204, -23.4731042392349, 952.3 ], [ -46.196809300173001, -23.473083133758301, 952.14 ], [ -46.196868345338203, -23.473029575005, 951.93 ], [ -46.1968883613822, -23.4728932255932, 952.53 ], [ -46.1968928038511, -23.4724848751477, 958.78 ], [ -46.196979165949699, -23.472333746556501, 961.87 ], [ -46.196859223036, -23.472094337765899, 953.83 ], [ -46.196884162812097, -23.4720045533467, 951.2 ], [ -46.197158715638302, -23.471583562288401, 941.45 ], [ -46.197263865893298, -23.4714856657571, 937.62 ], [ -46.197312147900398, -23.4713244431113, 934.62 ], [ -46.197430326689499, -23.4711405563928, 926.58 ], [ -46.197553885965199, -23.471010456303802, 922.38 ], [ -46.197713019242201, -23.470905822787699, 916.04 ], [ -46.197933068580497, -23.4708574392556, 914.43 ], [ -46.198040009573397, -23.470871248730401, 915.17 ], [ -46.198561444420903, -23.471042814744099, 909.47 ], [ -46.198758281553701, -23.4710368761152, 907.48 ], [ -46.198899177698998, -23.4710161040625, 907.49 ], [ -46.199122413576703, -23.471027844455801, 909.85 ], [ -46.199323299575099, -23.4710149196872, 905.57 ], [ -46.199450234451099, -23.471031012914299, 902.97 ], [ -46.199558074450302, -23.471003449945101, 900.91 ], [ -46.199762449334401, -23.470856650279501, 894.47 ], [ -46.199859486845803, -23.470847143000501, 891.38 ], [ -46.199919213251199, -23.470858334082301, 889.93 ], [ -46.2000010934131, -23.470850839981701, 886.91 ], [ -46.200052647583597, -23.470781171269302, 883.56 ], [ -46.2006363582068, -23.470661164332402, 869.02 ], [ -46.200928854444101, -23.470536805380199, 862.87 ], [ -46.201324157082503, -23.470056172380801, 846.69 ], [ -46.201288640192999, -23.469691029802, 837.87 ], [ -46.201248875568901, -23.469581241635201, 833.93 ], [ -46.201260340142198, -23.469528228474498, 831.57 ], [ -46.201241211003101, -23.469459194220001, 830.3 ], [ -46.201168947589601, -23.469317594400401, 826.93 ], [ -46.201064318063402, -23.469212911906698, 824.29 ], [ -46.200917795676702, -23.468925482575099, 821.1 ], [ -46.200767445317602, -23.468745106358401, 820.49 ], [ -46.2006641464761, -23.468592636442001, 820.94 ], [ -46.200654793804297, -23.468413793540201, 821.1 ], [ -46.200718273024897, -23.468169001459898, 824.77 ], [ -46.200737532960197, -23.468014504043701, 826.43 ], [ -46.200709281301897, -23.467792003656399, 826.88 ], [ -46.200807154537003, -23.4674747846536, 828.4 ], [ -46.2011852643992, -23.4667396852211, 816.44 ], [ -46.201452098900397, -23.466258235236602, 816.54 ], [ -46.201629519240598, -23.465871130940599, 821.18 ], [ -46.201670375633398, -23.465571781636299, 819.85 ], [ -46.2017839372092, -23.465225178970702, 814.62 ], [ -46.201894354923802, -23.4649855339669, 812.05 ], [ -46.202263648726301, -23.464402591313, 809.38 ], [ -46.202368296286998, -23.464250235218799, 807.33 ], [ -46.202458297879502, -23.464134660058601, 804.55 ], [ -46.203168121264397, -23.463328629517299, 783.29 ], [ -46.202469640632998, -23.4634847528378, 786.73 ], [ -46.2014967526475, -23.463350184473999, 784.85 ], [ -46.2007968462515, -23.462981036352101, 780.45 ], [ -46.200543435347697, -23.462857177669299, 779.37 ], [ -46.199917031153703, -23.4627450395162, 775.28 ], [ -46.199333520513498, -23.462807600510299, 776.1 ], [ -46.199329463410599, -23.4627161420585, 774.96 ], [ -46.198689931287802, -23.462678700519099, 763.16 ], [ -46.197722110219601, -23.462583898488901, 737.64 ], [ -46.197754087110098, -23.462514742133799, 738.41 ], [ -46.197823839686997, -23.462519986651799, 738.92 ], [ -46.197915862633103, -23.462389406086398, 742.46 ], [ -46.197779780869503, -23.462183267243201, 739.52 ], [ -46.197813510661803, -23.461776768683499, 729.54 ], [ -46.197856067076501, -23.461361170756501, 718.9 ], [ -46.198080153207002, -23.461132667194899, 716.33 ], [ -46.198205618214999, -23.460911062427101, 714.4 ], [ -46.197985739860798, -23.460629431335999, 707.56 ], [ -46.1980908943979, -23.460511303697199, 711.12 ], [ -46.198359445053597, -23.460350104611098, 707.78 ], [ -46.198577970527602, -23.460004774733299, 708.21 ], [ -46.198495906182004, -23.4599802975697, 710.0 ], [ -46.198491046921703, -23.459767370725199, 704.26 ], [ -46.198356458788602, -23.459628867170899, 704.18 ], [ -46.198603251212198, -23.459410936047199, 703.3 ], [ -46.198638937490998, -23.459232288511899, 702.77 ], [ -46.1987976686938, -23.459128108903901, 701.61 ], [ -46.198849284643202, -23.459011476033599, 702.79 ], [ -46.199078822522203, -23.458910274250901, 702.62 ], [ -46.199171438143999, -23.4589215742538, 701.6 ], [ -46.199310663698398, -23.458749807403301, 701.17 ], [ -46.199018536446403, -23.458782308882899, 701.91 ], [ -46.199212254727499, -23.4582596987212, 699.84 ], [ -46.199300381492897, -23.457980036311199, 699.07 ], [ -46.1991890843275, -23.457612855861001, 699.42 ], [ -46.199197593710998, -23.4571676248042, 699.05 ], [ -46.199138356006401, -23.4568846697764, 698.25 ], [ -46.199113493841601, -23.456765824904199, 697.86 ], [ -46.199269832482699, -23.456635562072599, 697.79 ], [ -46.199104922531298, -23.456423775218099, 698.11 ], [ -46.198924047126603, -23.456297730084, 697.2 ], [ -46.198636164259, -23.4559214294888, 697.34 ], [ -46.1983902069789, -23.4556780218117, 698.71 ], [ -46.198495966994997, -23.455161055416902, 696.8 ], [ -46.198251824367702, -23.455064306130801, 697.0 ], [ -46.198205549301697, -23.4551543450021, 698.36 ], [ -46.197771507158201, -23.455092018585699, 700.25 ], [ -46.197572890527098, -23.455353923464699, 700.14 ], [ -46.197598387096498, -23.455608417919098, 699.89 ], [ -46.1960807789103, -23.4557136279148, 700.9 ], [ -46.1957546717789, -23.4555378446486, 701.7 ], [ -46.1952880932566, -23.4554281643255, 700.52 ], [ -46.195206755676999, -23.4553317884187, 701.45 ], [ -46.194995734735201, -23.455282015333101, 701.53 ], [ -46.194619679843001, -23.454951269117501, 708.28 ], [ -46.194210925701803, -23.4548486388715, 706.88 ], [ -46.194112143641398, -23.454575828581099, 706.44 ], [ -46.1939951913225, -23.454328987577401, 714.98 ], [ -46.193963022116897, -23.4541699167697, 707.6 ], [ -46.1938295466203, -23.4539906679396, 708.68 ], [ -46.193569822635297, -23.453793508894599, 711.59 ], [ -46.1934428235149, -23.453735684873699, 710.63 ], [ -46.1933959109002, -23.453700639945101, 712.24 ], [ -46.1933538002232, -23.453600801854201, 712.47 ], [ -46.193437557481403, -23.4529754468793, 715.26 ], [ -46.193458302973802, -23.452778490080998, 717.81 ], [ -46.193700668922197, -23.452166552759302, 737.08 ], [ -46.193893035334099, -23.451644590960999, 749.66 ], [ -46.193556373688303, -23.451447568813901, 753.7 ], [ -46.192837124831698, -23.451226015296001, 757.26 ], [ -46.192582430090901, -23.451293802502899, 755.93 ], [ -46.192109985505397, -23.4516846872313, 756.48 ], [ -46.191102047986099, -23.451801035187898, 752.19 ], [ -46.191090269331198, -23.4520267341106, 743.39 ], [ -46.190144423103099, -23.452004508989699, 725.44 ], [ -46.189108316002901, -23.451970954048701, 722.03 ], [ -46.187781676445297, -23.4519499002879, 725.91 ], [ -46.187163384175001, -23.451971856409301, 726.32 ], [ -46.186392615368902, -23.452086098395601, 713.28 ], [ -46.186285403345003, -23.4514921829842, 706.08 ], [ -46.186146214990302, -23.450759514227901, 671.84 ], [ -46.186061752691003, -23.450257367223301, 696.22 ], [ -46.1859918452312, -23.4499270711398, 711.55 ], [ -46.185714824799398, -23.4498298289102, 708.91 ] ] ] } }
]
}
