{
"type": "FeatureCollection",
"name": "Montanhas do Japi",
"crs": { "type": "name", "properties": { "name": "urn:ogc:def:crs:OGC:1.3:CRS84" } },
"features": [
{ "type": "Feature", "properties": { "id": null, "Name": "4ae92b15-bc73-43b4-9b3f-db96750dd6b7", "description": null, "timestamp": null, "begin": null, "end": null, "altitudeMode": null, "tessellate": -1, "extrude": 0, "visibility": -1, "drawOrder": null, "icon": null, "Área (ha)": 348.93547652452128 }, "geometry": { "type": "Polygon", "coordinates": [ [ [ -46.90881417, -23.23686417, 1027.66 ], [ -46.90865361, -23.23717306, 1034.27 ], [ -46.90843083, -23.23770056, 1048.619999999999891 ], [ -46.90843667, -23.23840556, 1054.06 ], [ -46.90804583, -23.23877417, 1060.6 ], [ -46.90766111, -23.23910278, 1074.48 ], [ -46.90737361, -23.23936361, 1087.31 ], [ -46.90677528, -23.23966, 1097.44 ], [ -46.90627861, -23.23995556, 1089.630000000000109 ], [ -46.9057725, -23.24070917, 1085.46 ], [ -46.90556444, -23.24101528, 1076.91 ], [ -46.90489472, -23.24137167, 1060.31 ], [ -46.90448944, -23.241485, 1079.27 ], [ -46.90420028, -23.24167, 1080.21 ], [ -46.90371556, -23.24204194, 1078.66 ], [ -46.90328833, -23.24240139, 1104.0 ], [ -46.90310917, -23.24245444, 1106.42 ], [ -46.90304167, -23.24265611, 1108.380000000000109 ], [ -46.90288694, -23.24281583, 1109.16 ], [ -46.90312083, -23.24342833, 1070.91 ], [ -46.90330444, -23.24413333, 1059.6 ], [ -46.90281333, -23.24487806, 1041.44 ], [ -46.90259722, -23.24562861, 1026.41 ], [ -46.90315, -23.24596889, 999.9 ], [ -46.90366972, -23.24623167, 972.32 ], [ -46.90403333, -23.24638194, 958.66 ], [ -46.90444694, -23.24643194, 947.51 ], [ -46.90474111, -23.24647611, 942.95 ], [ -46.90533833, -23.24687028, 925.09 ], [ -46.90556222, -23.24712722, 919.66 ], [ -46.90586944, -23.24748139, 898.89 ], [ -46.90635611, -23.24809, 883.95 ], [ -46.90701139, -23.24875167, 854.04 ], [ -46.90738889, -23.24916889, 843.37 ], [ -46.9074275, -23.24922833, 841.5 ], [ -46.90720528, -23.24935722, 838.08 ], [ -46.90684694, -23.24982278, 839.65 ], [ -46.90626333, -23.25049972, 839.5 ], [ -46.90610444, -23.25081611, 838.89 ], [ -46.90611278, -23.25095556, 837.32 ], [ -46.90606639, -23.25142111, 836.84 ], [ -46.90601861, -23.25171, 838.14 ], [ -46.90592444, -23.25190972, 838.55 ], [ -46.90539611, -23.25237889, 831.74 ], [ -46.90501722, -23.25278417, 824.24 ], [ -46.90474278, -23.25326028, 817.28 ], [ -46.90471972, -23.25333222, 816.07 ], [ -46.90465278, -23.25337389, 815.41 ], [ -46.90451722, -23.25342833, 813.64 ], [ -46.90446278, -23.2535675, 809.21 ], [ -46.90471139, -23.25359389, 811.76 ], [ -46.90487167, -23.25357389, 811.1 ], [ -46.90527556, -23.25342306, 808.47 ], [ -46.90536583, -23.25341111, 806.85 ], [ -46.90548917, -23.25341167, 805.43 ], [ -46.90549056, -23.25336056, 805.49 ], [ -46.90716556, -23.25349778, 802.96 ], [ -46.90737222, -23.25353861, 803.68 ], [ -46.90752194, -23.25363944, 802.48 ], [ -46.90780194, -23.25390333, 803.45 ], [ -46.90790556, -23.25403944, 803.93 ], [ -46.90803333, -23.25423139, 804.65 ], [ -46.90849417, -23.25504333, 813.76 ], [ -46.90908722, -23.25547972, 822.36 ], [ -46.90955667, -23.25566222, 830.23 ], [ -46.91011306, -23.25589556, 832.58 ], [ -46.91073722, -23.25613556, 834.76 ], [ -46.91092694, -23.25621944, 835.57 ], [ -46.91115333, -23.25633028, 836.04 ], [ -46.91117278, -23.25629056, 835.04 ], [ -46.91144667, -23.25602639, 829.41 ], [ -46.91182167, -23.2558425, 815.58 ], [ -46.91186972, -23.25577444, 815.23 ], [ -46.91203056, -23.25574222, 815.35 ], [ -46.91258694, -23.2554775, 830.06 ], [ -46.91282111, -23.25522972, 842.63 ], [ -46.91333389, -23.2549775, 871.4 ], [ -46.91418917, -23.25427556, 890.49 ], [ -46.91452417, -23.25399028, 914.73 ], [ -46.91474694, -23.25381639, 932.93 ], [ -46.91501, -23.25361833, 947.68 ], [ -46.915285, -23.25340222, 959.35 ], [ -46.91555639, -23.25316611, 977.19 ], [ -46.91580333, -23.25287806, 993.82 ], [ -46.91609722, -23.25260111, 1010.28 ], [ -46.91633278, -23.25236667, 1016.29 ], [ -46.91649889, -23.25222333, 1024.99 ], [ -46.916635, -23.2520575, 1033.21 ], [ -46.91670528, -23.25182528, 1043.1400000000001 ], [ -46.91674361, -23.25164028, 1044.81 ], [ -46.91708611, -23.25144861, 1039.79 ], [ -46.91728889, -23.25136944, 1050.45 ], [ -46.91785861, -23.2511575, 1065.11 ], [ -46.91844028, -23.25098417, 1080.8900000000001 ], [ -46.91885389, -23.250945, 1090.25 ], [ -46.91914, -23.25101889, 1088.65 ], [ -46.9193325, -23.25109389, 1082.52 ], [ -46.91962778, -23.25123667, 1074.24 ], [ -46.92003361, -23.25138028, 1071.45 ], [ -46.92056417, -23.25108, 1074.22 ], [ -46.92086417, -23.25089083, 1071.75 ], [ -46.92124556, -23.25071083, 1077.57 ], [ -46.92165722, -23.25062222, 1086.44 ], [ -46.92203417, -23.25053028, 1091.52 ], [ -46.92242333, -23.25060972, 1092.58 ], [ -46.92292806, -23.25074472, 1097.11 ], [ -46.92323111, -23.25076056, 1095.92 ], [ -46.92354444, -23.2508275, 1096.07 ], [ -46.92377444, -23.25081222, 1098.51 ], [ -46.92417972, -23.2506775, 1110.78 ], [ -46.924685, -23.25064333, 1128.99 ], [ -46.92509111, -23.25065889, 1146.19 ], [ -46.92548222, -23.25065917, 1161.43 ], [ -46.92575722, -23.25068417, 1172.15 ], [ -46.92602667, -23.25076111, 1176.23 ], [ -46.92621389, -23.25083306, 1176.45 ], [ -46.92658667, -23.25094111, 1177.619999999999891 ], [ -46.92696333, -23.25101611, 1180.51 ], [ -46.92723194, -23.25097194, 1184.6400000000001 ], [ -46.92757972, -23.251045, 1189.85 ], [ -46.92775056, -23.2508875, 1194.49 ], [ -46.92797722, -23.25081611, 1198.42 ], [ -46.92872417, -23.2508775, 1191.880000000000109 ], [ -46.92927056, -23.25092, 1191.94 ], [ -46.92964944, -23.25100111, 1195.29 ], [ -46.930053648929999, -23.2509109101882, 1205.0 ], [ -46.930392659557697, -23.250918661784901, 1205.564 ], [ -46.931539329497902, -23.251176622181099, 1213.821999999999889 ], [ -46.9327029565845, -23.251261629002101, 1212.755000000000109 ], [ -46.933847394264603, -23.250998592003501, 1204.108 ], [ -46.93416167, -23.25066528, 1199.67 ], [ -46.93420056, -23.2504225, 1194.95 ], [ -46.93443083, -23.25024222, 1190.43 ], [ -46.93497222, -23.24996611, 1183.71 ], [ -46.9349925, -23.24973722, 1182.45 ], [ -46.92858806, -23.24981611, 1164.0 ], [ -46.92862472, -23.24877583, 1071.5 ], [ -46.92858083, -23.24854694, 1061.5 ], [ -46.92854306, -23.24828778, 1056.0 ], [ -46.92852611, -23.24804306, 1052.25 ], [ -46.92850667, -23.24780444, 1048.0 ], [ -46.92848111, -23.24756778, 1046.25 ], [ -46.92842389, -23.24733333, 1042.5 ], [ -46.92836278, -23.24710444, 1038.25 ], [ -46.92830917, -23.24685083, 1036.5 ], [ -46.9282725, -23.24662083, 1033.0 ], [ -46.92827028, -23.24638556, 1029.0 ], [ -46.92830583, -23.24614556, 1027.5 ], [ -46.92830833, -23.245865, 1023.25 ], [ -46.92829639, -23.245635, 1019.25 ], [ -46.92823889, -23.24537694, 1005.0 ], [ -46.92816333, -23.24514028, 1004.75 ], [ -46.92809861, -23.24491944, 1003.0 ], [ -46.92804972, -23.24469722, 999.0 ], [ -46.92798944, -23.24459472, 998.0 ], [ -46.92783833, -23.24458778, 997.5 ], [ -46.92758167, -23.244555, 996.0 ], [ -46.92733611, -23.2444975, 994.75 ], [ -46.92708556, -23.24444778, 993.0 ], [ -46.92682417, -23.24440917, 991.0 ], [ -46.92655639, -23.2443675, 989.5 ], [ -46.92629472, -23.24434472, 988.0 ], [ -46.92602472, -23.24427694, 986.25 ], [ -46.92586889, -23.24427, 985.0 ], [ -46.92571222, -23.24196528, 1073.11 ], [ -46.92544194, -23.24191667, 1073.57 ], [ -46.92503417, -23.24185139, 1074.24 ], [ -46.92452972, -23.24165556, 1068.67 ], [ -46.92402528, -23.24160861, 1062.49 ], [ -46.92352167, -23.24149556, 1056.35 ], [ -46.92287, -23.2416875, 1060.48 ], [ -46.9225925, -23.24174028, 1062.48 ], [ -46.92227667, -23.24160056, 1051.55 ], [ -46.92219972, -23.24145778, 1046.43 ], [ -46.92172306, -23.24108583, 1036.99 ], [ -46.9211675, -23.2410675, 1034.44 ], [ -46.92078083, -23.24103194, 1035.04 ], [ -46.92049333, -23.2410725, 1040.86 ], [ -46.92009111, -23.24107861, 1034.28 ], [ -46.91975611, -23.24101833, 1028.51 ], [ -46.9193725, -23.24099556, 1025.3 ], [ -46.91915722, -23.24067361, 1020.98 ], [ -46.91901, -23.24028139, 1009.6 ], [ -46.91878167, -23.23990611, 1004.55 ], [ -46.91859583, -23.23951833, 1002.77 ], [ -46.91859083, -23.23920194, 996.3 ], [ -46.91842806, -23.23889861, 1003.58 ], [ -46.91823556, -23.23853472, 1003.16 ], [ -46.91798972, -23.23810917, 1006.43 ], [ -46.91801139, -23.23792944, 1007.22 ], [ -46.91794806, -23.23767389, 1013.72 ], [ -46.91768583, -23.23755667, 1012.18 ], [ -46.91738611, -23.2375175, 1011.36 ], [ -46.91681, -23.237295, 1015.77 ], [ -46.91616, -23.23750556, 1016.99 ], [ -46.91556139, -23.23771167, 1007.95 ], [ -46.9152875, -23.2381225, 1011.41 ], [ -46.91501889, -23.23824611, 1013.87 ], [ -46.91477444, -23.23823111, 1019.11 ], [ -46.91434417, -23.23803722, 1018.77 ], [ -46.9139825, -23.23796361, 1019.94 ], [ -46.91372472, -23.23786139, 1022.68 ], [ -46.91338444, -23.23777611, 1028.83 ], [ -46.91316667, -23.23769806, 1032.1400000000001 ], [ -46.91275667, -23.23779944, 1035.79 ], [ -46.91219917, -23.23792333, 1037.17 ], [ -46.91198306, -23.23807361, 1040.33 ], [ -46.91161333, -23.23813417, 1043.2 ], [ -46.91149417, -23.23817972, 1040.44 ], [ -46.91133833, -23.23817306, 1040.56 ], [ -46.91074639, -23.23800417, 1036.94 ], [ -46.91041556, -23.23803722, 1036.01 ], [ -46.91006528, -23.23794056, 1036.9 ], [ -46.90981833, -23.23791222, 1036.7 ], [ -46.90953972, -23.2377375, 1031.95 ], [ -46.90929056, -23.2375025, 1029.34 ], [ -46.90911361, -23.237125, 1026.47 ], [ -46.90881417, -23.23686417, 1027.66 ] ] ] } }
]
}
