{
"type": "FeatureCollection",
"name": "Recanto do Saua",
"crs": { "type": "name", "properties": { "name": "urn:ogc:def:crs:OGC:1.3:CRS84" } },
"features": [
{ "type": "Feature", "properties": { "id": 1, "Área (ha)": 261.675 }, "geometry": { "type": "MultiPolygon", "coordinates": [ [ [ [ -45.75678917, -22.94226889 ], [ -45.75383222, -22.94058861 ], [ -45.7504425, -22.93807583 ], [ -45.750243330000011, -22.93803694 ], [ -45.74935806, -22.93794111 ], [ -45.74853361, -22.93809806 ], [ -45.74820972, -22.9380975 ], [ -45.74804972, -22.93806028 ], [ -45.74773028, -22.93790556 ], [ -45.74710806, -22.93771472 ], [ -45.74601861, -22.93766528 ], [ -45.74530694, -22.93758611 ], [ -45.74507056, -22.9375125 ], [ -45.74438806, -22.93721361 ], [ -45.74377361, -22.93701889 ], [ -45.74299278, -22.93732444 ], [ -45.74252139, -22.93740167 ], [ -45.74109222, -22.93808333 ], [ -45.7395775, -22.93885306 ], [ -45.73839917, -22.93882472 ], [ -45.73717361, -22.93760694 ], [ -45.73505667, -22.93670361 ], [ -45.73468389, -22.93695139 ], [ -45.73445194, -22.93737528 ], [ -45.73428028, -22.93790722 ], [ -45.73825389, -22.94688056 ], [ -45.73972972, -22.95024028 ], [ -45.73992861, -22.95013444 ], [ -45.740052085638254, -22.950060061252476 ], [ -45.740178035511903, -22.950106640591006 ], [ -45.740200884686608, -22.950138693579369 ], [ -45.740221845013465, -22.950196562871437 ], [ -45.740229898045698, -22.950254212754636 ], [ -45.74027917, -22.95043861 ], [ -45.74030056, -22.95050694 ], [ -45.74034361, -22.95059056 ], [ -45.74038194, -22.95064694 ], [ -45.74042083, -22.95068917 ], [ -45.74047417, -22.95072972 ], [ -45.74061028, -22.95081361 ], [ -45.74074667, -22.9508975 ], [ -45.74080667, -22.95095722 ], [ -45.74083167, -22.95099611 ], [ -45.74084917, -22.95103694 ], [ -45.74086972, -22.9511425 ], [ -45.7408725, -22.95124056 ], [ -45.74086028, -22.95138306 ], [ -45.74080611, -22.95157111 ], [ -45.74215694, -22.95254833 ], [ -45.74226417, -22.95244583 ], [ -45.74252361, -22.95232861 ], [ -45.74409667, -22.95243889 ], [ -45.74423222, -22.95278917 ], [ -45.74440389, -22.95301556 ], [ -45.74473778, -22.95328111 ], [ -45.74482694, -22.95340944 ], [ -45.744995, -22.95360278 ], [ -45.74519694, -22.95352528 ], [ -45.74634111000001, -22.95293833 ], [ -45.74685778, -22.95274583 ], [ -45.74695861, -22.95265 ], [ -45.74714444, -22.95224333 ], [ -45.74758722, -22.9521175 ], [ -45.74821361, -22.95202583 ], [ -45.74869111, -22.9519 ], [ -45.74892639, -22.95177278 ], [ -45.74988944, -22.95102083 ], [ -45.75010556, -22.95077056 ], [ -45.75114056, -22.94953361 ], [ -45.75122056, -22.94945528 ], [ -45.75203361, -22.94841361 ], [ -45.75199806, -22.94834639 ], [ -45.75198333, -22.94826917 ], [ -45.75180472, -22.94818528 ], [ -45.75167139, -22.948115 ], [ -45.75179139, -22.94785917 ], [ -45.75223167, -22.94792917 ], [ -45.75235639, -22.94809833 ], [ -45.75245944, -22.94803972 ], [ -45.7528475, -22.94759861 ], [ -45.75389667, -22.94697306 ], [ -45.75490083, -22.94651306 ], [ -45.75507917, -22.94640889 ], [ -45.75522, -22.94631889 ], [ -45.75614, -22.945225 ], [ -45.75578083, -22.94363972 ], [ -45.75588167, -22.94348194 ], [ -45.75631944, -22.9430625 ], [ -45.75678917, -22.94226889 ] ] ] ] } }
]
}
