{
"type": "FeatureCollection",
"name": "Sao Joao das Montanhas",
"crs": { "type": "name", "properties": { "name": "urn:ogc:def:crs:OGC:1.3:CRS84" } },
"features": [
{ "type": "Feature", "properties": { "id": null, "Name": "4d043449-46de-4df3-92ff-ae228be669cf", "description": null, "timestamp": null, "begin": null, "end": null, "altitudeMode": null, "tessellate": -1, "extrude": 0, "visibility": -1, "drawOrder": null, "icon": null, "Área (ha)": 140.36625970552782 }, "geometry": { "type": "Polygon", "coordinates": [ [ [ -46.92203417, -23.25053028, 1091.52 ], [ -46.92165722, -23.25062222, 1086.44 ], [ -46.92124556, -23.25071083, 1077.57 ], [ -46.92086417, -23.25089083, 1071.75 ], [ -46.92056417, -23.25108, 1074.22 ], [ -46.92003361, -23.25138028, 1071.45 ], [ -46.91962778, -23.25123667, 1074.24 ], [ -46.9193325, -23.25109389, 1082.52 ], [ -46.91914, -23.25101889, 1088.65 ], [ -46.91885389, -23.250945, 1090.25 ], [ -46.91844028, -23.25098417, 1080.8900000000001 ], [ -46.91785861, -23.2511575, 1065.11 ], [ -46.91728889, -23.25136944, 1050.45 ], [ -46.91708611, -23.25144861, 1039.79 ], [ -46.91674361, -23.25164028, 1044.81 ], [ -46.91670528, -23.25182528, 1043.1400000000001 ], [ -46.916635, -23.2520575, 1033.21 ], [ -46.91649889, -23.25222333, 1024.99 ], [ -46.91633278, -23.25236667, 1016.29 ], [ -46.91609722, -23.25260111, 1010.28 ], [ -46.91580333, -23.25287806, 993.82 ], [ -46.91555639, -23.25316611, 977.19 ], [ -46.915285, -23.25340222, 959.35 ], [ -46.91501, -23.25361833, 947.68 ], [ -46.91474694, -23.25381639, 932.93 ], [ -46.91452417, -23.25399028, 914.73 ], [ -46.91418917, -23.25427556, 890.49 ], [ -46.91333389, -23.2549775, 871.4 ], [ -46.91282111, -23.25522972, 842.63 ], [ -46.91258694, -23.2554775, 830.06 ], [ -46.91203056, -23.25574222, 815.35 ], [ -46.91186972, -23.25577444, 815.23 ], [ -46.91182167, -23.2558425, 815.58 ], [ -46.91144667, -23.25602639, 829.41 ], [ -46.91117278, -23.25629056, 835.04 ], [ -46.91115333, -23.25633028, 836.04 ], [ -46.91126028, -23.25643056, 838.23 ], [ -46.9114175, -23.25657389, 839.58 ], [ -46.91150083, -23.2566675, 841.33 ], [ -46.91155528, -23.25676056, 842.39 ], [ -46.91157611, -23.25688028, 843.77 ], [ -46.9115925, -23.25729083, 847.02 ], [ -46.91160278, -23.25752194, 847.89 ], [ -46.91162528, -23.2576675, 848.09 ], [ -46.91167167, -23.25780583, 848.47 ], [ -46.91178556, -23.25803472, 849.48 ], [ -46.91186139, -23.25819583, 849.25 ], [ -46.91194667, -23.25839028, 854.75 ], [ -46.91200444, -23.25855972, 845.64 ], [ -46.91207889, -23.25869694, 843.97 ], [ -46.91216, -23.25881361, 842.05 ], [ -46.91228611, -23.25897444, 840.19 ], [ -46.91248972, -23.25921417, 838.53 ], [ -46.91263694, -23.25936389, 838.51 ], [ -46.91283806, -23.25950694, 838.99 ], [ -46.91303222, -23.25963639, 839.44 ], [ -46.91344778, -23.25986222, 843.19 ], [ -46.91409444, -23.26016639, 856.48 ], [ -46.91426944, -23.26025083, 858.79 ], [ -46.91444333, -23.26034722, 862.54 ], [ -46.91459528, -23.26043361, 860.76 ], [ -46.91473972, -23.26049333, 861.71 ], [ -46.91489306, -23.26054361, 862.1 ], [ -46.91506972, -23.26058611, 862.76 ], [ -46.91523583, -23.2606075, 863.51 ], [ -46.91548889, -23.26061944, 863.91 ], [ -46.91568278, -23.2606325, 864.01 ], [ -46.91585667, -23.26065417, 864.25 ], [ -46.91610083, -23.26070389, 864.76 ], [ -46.91638667, -23.26076389, 865.77 ], [ -46.91668194, -23.26081417, 867.58 ], [ -46.91705778, -23.26086472, 871.56 ], [ -46.91721528, -23.260895, 873.54 ], [ -46.91740111, -23.26093944, 875.75 ], [ -46.91758222, -23.26101194, 877.45 ], [ -46.91783111, -23.26113333, 879.88 ], [ -46.91795694, -23.26121583, 881.23 ], [ -46.91832667, -23.26149111, 885.34 ], [ -46.91866861, -23.26174556, 888.71 ], [ -46.91879194, -23.26180889, 889.26 ], [ -46.91891083, -23.26183639, 889.71 ], [ -46.91900944, -23.26182806, 890.31 ], [ -46.91911306, -23.2617875, 891.22 ], [ -46.91938361, -23.26162889, 897.01 ], [ -46.91957333, -23.26152806, 899.81 ], [ -46.91970333, -23.26147472, 902.27 ], [ -46.91981472, -23.26145917, 904.06 ], [ -46.91997278, -23.26146611, 905.87 ], [ -46.92061667, -23.26155556, 914.01 ], [ -46.92086111, -23.26158194, 917.64 ], [ -46.92107444, -23.26160028, 921.01 ], [ -46.92119083, -23.26163306, 922.44 ], [ -46.92129528, -23.26168639, 923.96 ], [ -46.9213825, -23.26175333, 925.21 ], [ -46.92149333, -23.26191, 927.92 ], [ -46.92165083, -23.26211306, 932.2 ], [ -46.92176778, -23.26224056, 934.63 ], [ -46.92184361, -23.26234667, 936.29 ], [ -46.92188194, -23.2624675, 937.97 ], [ -46.92188806, -23.26257444, 939.13 ], [ -46.92187444, -23.26268278, 940.35 ], [ -46.92172278, -23.26318361, 946.39 ], [ -46.92166667, -23.26341917, 949.21 ], [ -46.92165222, -23.26354583, 950.43 ], [ -46.92165444, -23.26444639, 956.99 ], [ -46.92167, -23.26449194, 957.3 ], [ -46.92173083, -23.26453889, 958.28 ], [ -46.92205222, -23.26453667, 958.45 ], [ -46.92233028, -23.26451389, 957.37 ], [ -46.92276833, -23.26444889, 956.46 ], [ -46.9229675, -23.26440361, 956.23 ], [ -46.92365861, -23.26414611, 955.18 ], [ -46.92378139, -23.26408528, 954.47 ], [ -46.92384944, -23.26403778, 953.25 ], [ -46.92392667, -23.26387556, 954.25 ], [ -46.92399583, -23.26373028, 954.07 ], [ -46.92409722, -23.26351833, 954.7 ], [ -46.92416889, -23.26337361, 955.46 ], [ -46.92422778, -23.26329472, 955.56 ], [ -46.92444167, -23.26313139, 955.48 ], [ -46.92485694, -23.2628375, 954.34 ], [ -46.925245, -23.26252167, 955.63 ], [ -46.92536639, -23.26243111, 957.38 ], [ -46.92567306, -23.26197, 962.82 ], [ -46.92599111, -23.26151833, 965.85 ], [ -46.92637111, -23.26088889, 969.86 ], [ -46.92644806, -23.26075361, 971.22 ], [ -46.92652, -23.26040778, 973.38 ], [ -46.92599056, -23.26037472, 961.06 ], [ -46.925725, -23.26036944, 951.71 ], [ -46.92537944, -23.26031444, 942.14 ], [ -46.92515472, -23.26082722, 938.25 ], [ -46.92498333, -23.26080722, 935.59 ], [ -46.92456611, -23.26110556, 935.17 ], [ -46.92392917, -23.26074639, 945.37 ], [ -46.92311444, -23.26080167, 940.13 ], [ -46.92298056, -23.260225, 955.68 ], [ -46.9229675, -23.26009139, 959.45 ], [ -46.92296, -23.25972389, 968.51 ], [ -46.9229975, -23.25922944, 979.22 ], [ -46.92296722, -23.25898861, 985.42 ], [ -46.92288833, -23.25884472, 989.14 ], [ -46.92295944, -23.258345, 1002.34 ], [ -46.92308944, -23.25792889, 1013.96 ], [ -46.92304722, -23.25745083, 1027.07 ], [ -46.92304167, -23.256905, 1039.94 ], [ -46.922975, -23.25683972, 1041.18 ], [ -46.92284917, -23.25665472, 1045.57 ], [ -46.9228425, -23.25662056, 1046.71 ], [ -46.9228525, -23.25658778, 1046.91 ], [ -46.92294028, -23.2565775, 1050.02 ], [ -46.92322028, -23.2565675, 1050.99 ], [ -46.92371333, -23.25658611, 1052.43 ], [ -46.92387667, -23.25660417, 1055.91 ], [ -46.92429167, -23.25655833, 1067.71 ], [ -46.92471472, -23.25647306, 1082.6400000000001 ], [ -46.92521861, -23.25639861, 1093.9 ], [ -46.925335, -23.25585444, 1075.61 ], [ -46.92532417, -23.25549278, 1057.35 ], [ -46.92522278, -23.25498667, 1054.47 ], [ -46.92527417, -23.25479306, 1061.619999999999891 ], [ -46.92538889, -23.25450833, 1072.78 ], [ -46.92560361, -23.25405222, 1098.82 ], [ -46.92583056, -23.25374667, 1110.619999999999891 ], [ -46.92590778, -23.25310083, 1120.09 ], [ -46.92615, -23.25265778, 1131.369999999999891 ], [ -46.92627194, -23.252275, 1136.82 ], [ -46.92651722, -23.25209806, 1144.68 ], [ -46.92682778, -23.25179556, 1156.85 ], [ -46.92693, -23.25166583, 1164.43 ], [ -46.92727611, -23.25136056, 1176.59 ], [ -46.92757972, -23.251045, 1189.85 ], [ -46.92723194, -23.25097194, 1184.6400000000001 ], [ -46.92696333, -23.25101611, 1180.51 ], [ -46.92658667, -23.25094111, 1177.619999999999891 ], [ -46.92621389, -23.25083306, 1176.45 ], [ -46.92602667, -23.25076111, 1176.23 ], [ -46.92575722, -23.25068417, 1172.15 ], [ -46.92548222, -23.25065917, 1161.43 ], [ -46.92509111, -23.25065889, 1146.19 ], [ -46.924685, -23.25064333, 1128.99 ], [ -46.92417972, -23.2506775, 1110.78 ], [ -46.92377444, -23.25081222, 1098.51 ], [ -46.92354444, -23.2508275, 1096.07 ], [ -46.92323111, -23.25076056, 1095.92 ], [ -46.92292806, -23.25074472, 1097.11 ], [ -46.92242333, -23.25060972, 1092.58 ], [ -46.92203417, -23.25053028, 1091.52 ] ] ] } }
]
}
