{
"type": "FeatureCollection",
"name": "Sitio Ernane",
"crs": { "type": "name", "properties": { "name": "urn:ogc:def:crs:OGC:1.3:CRS84" } },
"features": [
{ "type": "Feature", "properties": { "id": null, "Name": null, "descriptio": null, "timestamp": null, "begin": null, "end": null, "altitudeMo": null, "tessellate": -1, "extrude": 0, "visibility": 0, "drawOrder": null, "icon": null, "Área (ha)": 42.621, "area (ha)": 42.621 }, "geometry": { "type": "MultiPolygon", "coordinates": [ [ [ [ -46.279006004333503, -23.18997500056258, 0.0 ], [ -46.280443668365479, -23.191592357427705, 0.0 ], [ -46.28243923187258, -23.191158434335005, 0.0 ], [ -46.282267570495613, -23.186010421129325, 0.0 ], [ -46.282396316528299, -23.183446202701905, 0.0 ], [ -46.281173229217508, -23.183465927646598, 0.0 ], [ -46.280057430267277, -23.183663176933806, 0.0 ], [ -46.279499530792179, -23.183919600572391, 0.0 ], [ -46.277911663055399, -23.184846666549799, 0.0 ], [ -46.27666711807251, -23.184866391287969, 0.0 ], [ -46.275851726531982, -23.185043913801191, 0.0 ], [ -46.27522945404052, -23.185280610118959, 0.0 ], [ -46.276988983154297, -23.188594314593391, 0.0 ], [ -46.278641223907471, -23.189619968388996, 0.0 ], [ -46.279006004333503, -23.18997500056258, 0.0 ] ] ] ] } },
{ "type": "Feature", "properties": { "id": null, "Name": null, "descriptio": null, "timestamp": null, "begin": null, "end": null, "altitudeMo": null, "tessellate": -1, "extrude": 0, "visibility": 0, "drawOrder": null, "icon": null, "Área (ha)": 42.621, "area (ha)": 42.621 }, "geometry": { "type": "MultiPolygon", "coordinates": [ [ [ [ -46.279006004333503, -23.18997500056258, 0.0 ], [ -46.280443668365479, -23.191592357427705, 0.0 ], [ -46.28243923187258, -23.191158434335005, 0.0 ], [ -46.282267570495613, -23.186010421129325, 0.0 ], [ -46.282396316528299, -23.183446202701905, 0.0 ], [ -46.281173229217508, -23.183465927646598, 0.0 ], [ -46.280057430267277, -23.183663176933806, 0.0 ], [ -46.279499530792179, -23.183919600572391, 0.0 ], [ -46.277911663055399, -23.184846666549799, 0.0 ], [ -46.27666711807251, -23.184866391287969, 0.0 ], [ -46.275851726531982, -23.185043913801191, 0.0 ], [ -46.27522945404052, -23.185280610118959, 0.0 ], [ -46.276988983154297, -23.188594314593391, 0.0 ], [ -46.278641223907471, -23.189619968388996, 0.0 ], [ -46.279006004333503, -23.18997500056258, 0.0 ] ] ] ] } }
]
}
