{
"type": "FeatureCollection",
"name": "Sitio Marilia",
"crs": { "type": "name", "properties": { "name": "urn:ogc:def:crs:OGC:1.3:CRS84" } },
"features": [
{ "type": "Feature", "properties": { "Área (ha)": 65.93 }, "geometry": { "type": "MultiPolygon", "coordinates": [ [ [ [ -46.41321472, -23.06827833, 837.56 ], [ -46.41333694, -23.06825417, 836.15 ], [ -46.41349944, -23.06824722, 834.7 ], [ -46.41362472, -23.06824944, 833.36 ], [ -46.41374611, -23.068255, 831.98 ], [ -46.41429667, -23.06827417, 823.93 ], [ -46.41451417, -23.06827722, 820.48 ], [ -46.41468389, -23.06828917, 817.81 ], [ -46.41512806, -23.06836528, 810.4 ], [ -46.41523472, -23.06839639, 807.52 ], [ -46.41543528, -23.06823806, 803.66 ], [ -46.41553306, -23.06814694, 801.7 ], [ -46.41589028, -23.06806083, 796.38 ], [ -46.41615389, -23.06794417, 793.1 ], [ -46.41629472, -23.06788583, 791.17 ], [ -46.41630333, -23.06785472, 790.96 ], [ -46.41652583, -23.06790806, 789.33 ], [ -46.41749083, -23.06825, 800.99 ], [ -46.41757528, -23.06790361, 803.99 ], [ -46.41745806, -23.06783667, 803.99 ], [ -46.41733056, -23.06777472, 802.99 ], [ -46.41714639, -23.06770639, 802.99 ], [ -46.41715861, -23.06743667, 804.99 ], [ -46.41744833, -23.06696861, 814.37 ], [ -46.41769944, -23.06656222, 822.99 ], [ -46.41890639, -23.06578889, 847.06 ], [ -46.41876972, -23.06567389, 848.24 ], [ -46.41839833, -23.06521667, 852.43 ], [ -46.41824139, -23.06502944, 854.92 ], [ -46.4179275, -23.06479833, 856.31 ], [ -46.41766667, -23.06461056, 855.54 ], [ -46.41742139, -23.06443, 850.87 ], [ -46.41734056, -23.06436417, 849.28 ], [ -46.41715111, -23.06417722, 841.25 ], [ -46.41705917, -23.06409944, 835.12 ], [ -46.41702306, -23.06414861, 834.52 ], [ -46.41691917, -23.0642125, 833.19 ], [ -46.41687, -23.06429306, 833.19 ], [ -46.41680778, -23.06448417, 824.22 ], [ -46.41685139, -23.06453833, 824.04 ], [ -46.41682194, -23.06454583, 824.43 ], [ -46.41670833, -23.06456306, 829.08 ], [ -46.4165475, -23.06461222, 838.32 ], [ -46.41648139, -23.06462167, 842.36 ], [ -46.41615361, -23.06460528, 853.55 ], [ -46.41603722, -23.06460972, 855.17 ], [ -46.41592083, -23.06458833, 856.2 ], [ -46.415825, -23.06429417, 858.96 ], [ -46.41576722, -23.0640625, 860.96 ], [ -46.41573611, -23.06393667, 861.73 ], [ -46.41568917, -23.06379889, 863.19 ], [ -46.41547389, -23.06335611, 869.08 ], [ -46.41541556, -23.063265, 870.16 ], [ -46.41528056, -23.06316389, 871.76 ], [ -46.41501861, -23.06287972, 876.6 ], [ -46.41471056, -23.0625275, 883.45 ], [ -46.41464333, -23.06246444, 884.93 ], [ -46.41438167, -23.06226694, 888.98 ], [ -46.41408833, -23.06208222, 892.64 ], [ -46.41366333, -23.06185389, 896.8 ], [ -46.41340694, -23.06172694, 899.1 ], [ -46.41336694, -23.06170111, 899.81 ], [ -46.41296444, -23.06113417, 906.74 ], [ -46.41285278, -23.06099361, 908.59 ], [ -46.41269861, -23.06079194, 911.74 ], [ -46.41241167, -23.06040222, 916.31 ], [ -46.41217167, -23.06012028, 918.09 ], [ -46.41203889, -23.059985, 917.61 ], [ -46.41187778, -23.05985361, 917.9 ], [ -46.41164667, -23.05973306, 919.2 ], [ -46.41154583, -23.05966556, 919.98 ], [ -46.41124417, -23.05942222, 923.05 ], [ -46.41106528, -23.05925222, 923.4 ], [ -46.41085111, -23.05899444, 922.0 ], [ -46.41071861, -23.05889444, 920.34 ], [ -46.41035778, -23.05869861, 924.21 ], [ -46.41018861, -23.05862556, 927.49 ], [ -46.41008556, -23.05860083, 928.99 ], [ -46.40977194, -23.05851139, 927.49 ], [ -46.40963028, -23.05848361, 935.34 ], [ -46.40905806, -23.05839361, 945.87 ], [ -46.40889556, -23.05835694, 949.09 ], [ -46.40878583, -23.05830722, 951.04 ], [ -46.40872083, -23.05826917, 952.38 ], [ -46.40851167, -23.05812611, 956.03 ], [ -46.40827944, -23.05797389, 959.86 ], [ -46.40816278, -23.05809361, 957.19 ], [ -46.40804944, -23.05812056, 953.51 ], [ -46.40787333, -23.05833611, 943.63 ], [ -46.40770778, -23.05847639, 936.84 ], [ -46.4076175, -23.05854917, 935.04 ], [ -46.40751389, -23.05864222, 935.8 ], [ -46.40746694, -23.058715, 936.65 ], [ -46.40741861, -23.05881528, 938.18 ], [ -46.40741083, -23.05886806, 939.2 ], [ -46.40741722, -23.05901306, 939.65 ], [ -46.40743083, -23.059135, 938.44 ], [ -46.40749778, -23.05951194, 933.97 ], [ -46.40758444, -23.05973833, 931.03 ], [ -46.40767611, -23.05995639, 928.76 ], [ -46.40774333, -23.06013556, 926.52 ], [ -46.40788972, -23.06056611, 920.94 ], [ -46.40800611, -23.06087194, 917.43 ], [ -46.40811806, -23.06114333, 914.8 ], [ -46.40817889, -23.06133472, 913.11 ], [ -46.40829389, -23.06174, 909.18 ], [ -46.40835972, -23.06200278, 907.0 ], [ -46.40839306, -23.0621125, 905.72 ], [ -46.40848167, -23.06235306, 903.2 ], [ -46.40853389, -23.06252111, 900.97 ], [ -46.40856222, -23.06258722, 900.16 ], [ -46.40877167, -23.0628625, 896.03 ], [ -46.40891306, -23.06305139, 893.61 ], [ -46.40909694, -23.06328667, 890.75 ], [ -46.40918861, -23.06341528, 889.48 ], [ -46.40938583, -23.06379944, 887.01 ], [ -46.40971028, -23.0644125, 882.77 ], [ -46.40982833, -23.06464389, 881.21 ], [ -46.40995472, -23.06487583, 882.1 ], [ -46.41005639, -23.06501111, 882.57 ], [ -46.41018333, -23.06517306, 882.78 ], [ -46.41028833, -23.06530083, 882.87 ], [ -46.41035333, -23.06545583, 883.36 ], [ -46.41043167, -23.06561528, 884.28 ], [ -46.41054417, -23.06586556, 885.26 ], [ -46.41057222, -23.06593806, 885.2 ], [ -46.4106, -23.06604861, 885.06 ], [ -46.41074111, -23.06670611, 882.5 ], [ -46.41093972, -23.06765278, 882.63 ], [ -46.41095167, -23.06770028, 882.37 ], [ -46.41097306, -23.06771528, 882.04 ], [ -46.41099806, -23.06773306, 881.62 ], [ -46.41141639, -23.06796028, 871.71 ], [ -46.411455, -23.06799639, 870.41 ], [ -46.41160611, -23.068175, 866.24 ], [ -46.41173194, -23.06832917, 862.32 ], [ -46.41193556, -23.06860139, 858.57 ], [ -46.41201833, -23.06860389, 857.71 ], [ -46.41285389, -23.068375, 841.93 ], [ -46.41321472, -23.06827833, 837.56 ] ] ] ] } }
]
}
