{
"type": "FeatureCollection",
"name": "Sitio Alvorada",
"crs": { "type": "name", "properties": { "name": "urn:ogc:def:crs:OGC:1.3:CRS84" } },
"features": [
{ "type": "Feature", "properties": { "Name": "a1345df5-7f17-40a4-a3fe-0585d57e49ee", "Matrícula": "108380", "Área (ha)": 30.171 }, "geometry": { "type": "MultiPolygon", "coordinates": [ [ [ [ -46.94981056000001, -23.81550944, 745.32 ], [ -46.94983806, -23.81616194, 730.43 ], [ -46.94904556, -23.81647278, 729.01 ], [ -46.94877778, -23.81619611, 727.35 ], [ -46.94814806, -23.81625306, 724.58 ], [ -46.94820222, -23.81635222, 721.14 ], [ -46.94816778, -23.81640167, 721.01 ], [ -46.94815722, -23.81644306, 720.95 ], [ -46.94811389, -23.81651333, 720.75 ], [ -46.94809806, -23.81652139, 720.7 ], [ -46.94807778, -23.81650694, 720.66 ], [ -46.94805056, -23.81648972, 720.61 ], [ -46.94802167, -23.81650472, 720.52 ], [ -46.94802361, -23.81653778, 720.48 ], [ -46.94801583, -23.8165575, 720.44 ], [ -46.94778167, -23.81679944, 719.49 ], [ -46.94768639, -23.81686278, 719.15 ], [ -46.94766167, -23.81691833, 719.0 ], [ -46.947745, -23.81699806, 720.31 ], [ -46.94786222, -23.81703028, 721.57 ], [ -46.94800778, -23.81712583, 723.52 ], [ -46.94805972, -23.81714972, 724.15 ], [ -46.94811528, -23.81722972, 725.19 ], [ -46.948185, -23.81728056, 726.16 ], [ -46.94823889, -23.81733139, 727.0 ], [ -46.94776778, -23.81759056, 743.07 ], [ -46.94757222, -23.81770861, 745.8 ], [ -46.94737028, -23.81784444, 749.81 ], [ -46.94712083, -23.81801139, 755.414 ], [ -46.94692278, -23.81817333, 760.77 ], [ -46.94691139, -23.81821917, 761.85 ], [ -46.94742667, -23.81842222, 761.85 ], [ -46.94761972, -23.81853611, 757.5 ], [ -46.94786333, -23.81862861, 755.4 ], [ -46.94810528, -23.818735, 760.1 ], [ -46.94830861, -23.81883389, 753.23 ], [ -46.94854111, -23.81897139, 751.75 ], [ -46.94876444, -23.81915889, 747.55 ], [ -46.9489375, -23.81932861, 743.5 ], [ -46.94897722, -23.8195, 740.3 ], [ -46.94929306, -23.81938778, 735.7 ], [ -46.94937194, -23.81919917, 731.75 ], [ -46.94942833, -23.81958722, 734.65 ], [ -46.94962167, -23.81995139, 737.55 ], [ -46.94966056, -23.82036333, 740.55 ], [ -46.94925139, -23.82065806, 744.0 ], [ -46.94942, -23.82093194, 748.18 ], [ -46.94973861, -23.82146472, 756.28 ], [ -46.94998111, -23.82190333, 762.74 ], [ -46.95010917, -23.82209722, 765.82 ], [ -46.95026194, -23.82226972, 768.73 ], [ -46.9503375, -23.822385, 770.55 ], [ -46.95031861, -23.8224825, 770.6 ], [ -46.95024722, -23.82280667, 765.11 ], [ -46.9502625, -23.82297556, 762.36 ], [ -46.95035389, -23.82314972, 759.5 ], [ -46.9505, -23.82326, 757.38 ], [ -46.95072694, -23.82336583, 754.65 ], [ -46.95090806, -23.82345333, 752.12 ], [ -46.95101972, -23.82357806, 749.48 ], [ -46.95103472, -23.82371944, 747.32 ], [ -46.95099056, -23.82389306, 745.01 ], [ -46.95094722, -23.82400722, 743.51 ], [ -46.95096806, -23.82411833, 741.66 ], [ -46.95098222, -23.82416194, 740.69 ], [ -46.95122944, -23.82382611, 732.1 ], [ -46.95128056, -23.823718329999988, 732.25 ], [ -46.95144583, -23.82340333, 757.1 ], [ -46.95156556, -23.82317528, 775.0 ], [ -46.95176111, -23.82276917, 778.5 ], [ -46.95180306, -23.82267306, 781.0 ], [ -46.95182111, -23.82268389, 781.41 ], [ -46.95196472, -23.82273167, 784.2 ], [ -46.95230167, -23.82290806, 791.3 ], [ -46.95267667, -23.82310278, 799.21 ], [ -46.95287528, -23.823237219999985, 803.7 ], [ -46.95297917, -23.82329972, 805.98 ], [ -46.95307194, -23.82334389, 807.9 ], [ -46.95361139, -23.82355611, 818.62 ], [ -46.95378222, -23.82361278, 821.93 ], [ -46.95390972, -23.82363306, 824.2 ], [ -46.95424139, -23.82369472, 830.23 ], [ -46.954625, -23.82374278, 837.08 ], [ -46.95480139, -23.82376139, 840.24 ], [ -46.95485556, -23.82362083, 842.03 ], [ -46.95492389, -23.8233725, 845.1 ], [ -46.95500611, -23.82312917, 848.16 ], [ -46.95505444, -23.82303611, 849.38 ], [ -46.95499861, -23.82300833, 850.05 ], [ -46.95424194, -23.82253556, 821.45 ], [ -46.95380222, -23.82218944, 800.35 ], [ -46.95317389, -23.82151889, 756.6 ], [ -46.95293417, -23.82013167, 821.15 ], [ -46.95236222, -23.81905, 803.47 ], [ -46.95190944, -23.81805, 788.69 ], [ -46.95128944, -23.8172925, 785.24 ], [ -46.95069, -23.81651472, 759.1 ], [ -46.95026028, -23.81568667, 749.17 ], [ -46.950075, -23.81553833, 744.35 ], [ -46.95003528, -23.8155125, 745.73 ], [ -46.94981056000001, -23.81550944, 745.32 ] ] ] ] } },
{ "type": "Feature", "properties": { "Name": "Sitio Alvorada 2", "Matrícula": "108381", "Área (ha)": 5.678 }, "geometry": { "type": "MultiPolygon", "coordinates": [ [ [ [ -46.94921056, -23.82067778, 744.0 ], [ -46.94911333000001, -23.82082722, 747.18 ], [ -46.94871972, -23.82131861, 758.28 ], [ -46.94857778, -23.82150417, 762.42 ], [ -46.94848028, -23.82165111, 765.55 ], [ -46.94830056, -23.82202778, 772.95 ], [ -46.94823417, -23.8223125, 778.0 ], [ -46.94845778, -23.82232639, 776.23 ], [ -46.94885944, -23.82242056, 772.97 ], [ -46.94898528, -23.82251833, 771.81 ], [ -46.94938417, -23.82292528, 774.75 ], [ -46.94939833, -23.82298944, 774.94 ], [ -46.94932333, -23.82352556, 776.52 ], [ -46.94911222, -23.82382972, 777.5 ], [ -46.94903167, -23.82440694, 779.2 ], [ -46.94917472, -23.82470333, 780.0 ], [ -46.94938056, -23.82488361, 781.0 ], [ -46.94977861000001, -23.82471083, 770.58 ], [ -46.9509425, -23.82419194, 740.69 ], [ -46.950915, -23.82411389, 741.66 ], [ -46.95089083, -23.82398583, 743.51 ], [ -46.95093806, -23.82386139, 745.01 ], [ -46.95097944, -23.82369917, 747.32 ], [ -46.95096722, -23.82358306, 749.48 ], [ -46.95087444, -23.82347972, 752.12 ], [ -46.95070417, -23.82339722, 754.65 ], [ -46.95047194, -23.82328889, 757.38 ], [ -46.95031083, -23.82316722, 759.5 ], [ -46.95020889, -23.82297333, 762.36 ], [ -46.95019222, -23.82278778, 765.11 ], [ -46.95022333, -23.82262111, 767.33 ], [ -46.95028333, -23.82238333, 770.55 ], [ -46.95021806, -23.82228417, 768.73 ], [ -46.95006528, -23.82211194, 765.82 ], [ -46.94993139, -23.82190944, 762.74 ], [ -46.94969083, -23.82147333, 756.26 ], [ -46.94937306, -23.82094167, 748.18 ], [ -46.94921056, -23.82067778, 744.0 ] ] ] ] } },
{ "type": "Feature", "properties": { "Name": "Sitio Alvorada 3", "Matrícula": "108379", "Área (ha)": 1.654 }, "geometry": { "type": "MultiPolygon", "coordinates": [ [ [ [ -46.94690806, -23.81827972, 761.45 ], [ -46.9469525, -23.81833194, 762.4 ], [ -46.94698667, -23.81835694, 762.5 ], [ -46.94704389, -23.81854333, 765.2 ], [ -46.94709444, -23.81866167, 767.1 ], [ -46.94711139, -23.81873472, 768.18 ], [ -46.94709889, -23.81903278, 771.4 ], [ -46.94709083, -23.81912556, 771.77 ], [ -46.94710556, -23.81921056, 772.12 ], [ -46.94714, -23.81930833, 772.52 ], [ -46.94717722, -23.81946667, 773.2 ], [ -46.94717194, -23.81987444, 774.85 ], [ -46.94731694, -23.81983028, 771.84 ], [ -46.94760361, -23.81964361, 765.7 ], [ -46.94799778, -23.81953972, 757.9 ], [ -46.94823778, -23.81947583, 753.24 ], [ -46.94886778, -23.81953611, 741.0 ], [ -46.94891694, -23.81951861, 740.0 ], [ -46.94888083, -23.81935306, 740.3 ], [ -46.94872056, -23.81919583, 743.5 ], [ -46.94850278, -23.8190125, 747.55 ], [ -46.94827694, -23.81887833, 751.75 ], [ -46.94807694, -23.81878083, 753.32 ], [ -46.94783778, -23.81867528, 755.44 ], [ -46.94759083, -23.81858139, 757.5 ], [ -46.94738972, -23.81846972, 760.1 ], [ -46.94690806, -23.81827972, 761.45 ] ] ] ] } }
]
}
