{
"type": "FeatureCollection",
"name": "Sitio Sao Benedito",
"crs": { "type": "name", "properties": { "name": "urn:ogc:def:crs:OGC:1.3:CRS84" } },
"features": [
{ "type": "Feature", "properties": { "id": null, "Name": "Limite da Propriedade", "descriptio": null, "timestamp": null, "begin": null, "end": null, "altitudeMo": null, "tessellate": -1, "extrude": 0, "visibility": -1, "drawOrder": null, "icon": null, "Área (ha)": 27.862 }, "geometry": { "type": "MultiPolygon", "coordinates": [ [ [ [ -46.07715444, -23.41618972, 717.98 ], [ -46.07671472, -23.41653556, 711.51 ], [ -46.07637139, -23.41671472, 702.32 ], [ -46.076285, -23.41673472, 700.1 ], [ -46.0757375, -23.41676417, 684.89 ], [ -46.075135, -23.41676806, 671.02 ], [ -46.07446972000001, -23.41675167, 653.92 ], [ -46.07413417, -23.41675361, 642.97 ], [ -46.07402306, -23.41675917, 640.79 ], [ -46.07367528, -23.41681, 649.79 ], [ -46.07328833, -23.41684056, 661.88 ], [ -46.07297444, -23.4167525, 669.74 ], [ -46.07259306, -23.41667722, 677.66 ], [ -46.0725225, -23.4168625, 675.1 ], [ -46.07237111, -23.41705639, 675.92 ], [ -46.07227278, -23.41724167, 672.92 ], [ -46.07225278, -23.41737778, 669.01 ], [ -46.07230361, -23.41757472, 663.01 ], [ -46.07243556, -23.41783889, 659.58 ], [ -46.07249639, -23.41808278, 657.03 ], [ -46.07248444, -23.41837944, 653.97 ], [ -46.07257861, -23.41872139, 652.57 ], [ -46.0727075, -23.4189525, 657.39 ], [ -46.07274917, -23.41912167, 658.73 ], [ -46.07275944, -23.41956778, 658.07 ], [ -46.07256944, -23.42010444, 662.15 ], [ -46.07247306, -23.42032194, 664.03 ], [ -46.0723578870832, -23.42048320955189, 672.53 ], [ -46.072389026020993, -23.420497266114602, 673.83 ], [ -46.072508958609703, -23.420526338105699, 672.39 ], [ -46.072631762170893, -23.420559454629601, 670.37 ], [ -46.072889558431491, -23.420620094208193, 669.13 ], [ -46.073041759498913, -23.4206576147152, 668.55 ], [ -46.073183288739898, -23.420694666487588, 666.19 ], [ -46.073551645271401, -23.420823548734695, 668.11 ], [ -46.073774638228606, -23.420876839270491, 671.02 ], [ -46.074038563133897, -23.420944840914402, 671.87 ], [ -46.074165756133503, -23.420976029328909, 672.28 ], [ -46.074229620299903, -23.420994466694701, 674.27 ], [ -46.074253927175498, -23.420998725126992, 675.39 ], [ -46.074290864792601, -23.4210036192266, 677.23 ], [ -46.07456537985, -23.421037677608503, 679.19 ], [ -46.074792898917991, -23.421069620313698, 681.41 ], [ -46.074922037920899, -23.421087246907604, 680.34 ], [ -46.075236562071602, -23.421130783150996, 678.28 ], [ -46.07537766438481, -23.421151217200496, 678.37 ], [ -46.075495233243203, -23.4211662134195, 679.63 ], [ -46.075643555912002, -23.421183887945592, 681.03 ], [ -46.075772379591513, -23.4211988064407, 684.82 ], [ -46.075897963437299, -23.421212482685494, 685.29 ], [ -46.076199995357399, -23.421248245300202, 688.28 ], [ -46.076321853732601, -23.421261134004194, 691.32 ], [ -46.076449151859599, -23.4212810299754, 693.36 ], [ -46.076558216670797, -23.421297348459497, 694.28 ], [ -46.076678466197102, -23.421317021871204, 697.47 ], [ -46.076787906443791, -23.421331350594691, 699.56 ], [ -46.076883510810909, -23.42134125870809, 701.11 ], [ -46.0769455363492, -23.421350133846598, 701.89 ], [ -46.076994062009703, -23.421359824601904, 702.39 ], [ -46.07708194, -23.42129417, 701.47 ], [ -46.07727361, -23.42118694, 701.68 ], [ -46.07751083, -23.42088444, 687.049999999999841 ], [ -46.07770028, -23.42071056, 682.25 ], [ -46.07778833, -23.42065639, 679.79 ], [ -46.07818833, -23.42054306, 671.82 ], [ -46.07838056, -23.42052833, 669.21 ], [ -46.07867583, -23.42052, 666.74 ], [ -46.07875389, -23.42051083, 666.55 ], [ -46.07882972, -23.42049222, 666.19 ], [ -46.07895611, -23.42043694, 665.42 ], [ -46.07910056, -23.42030972, 665.7 ], [ -46.07915194, -23.42023222, 666.29 ], [ -46.07919389, -23.42013167, 665.78 ], [ -46.07922056, -23.41995556, 664.33 ], [ -46.0791775, -23.41982639, 662.4 ], [ -46.07911333, -23.41970722, 659.83 ], [ -46.07877806, -23.41929778, 661.53 ], [ -46.07860833, -23.41897444, 659.64 ], [ -46.07811, -23.41871944, 665.83 ], [ -46.07798333, -23.41860528, 666.99 ], [ -46.07776639, -23.41835639, 669.7 ], [ -46.07770389, -23.41826528, 670.74 ], [ -46.0776175, -23.41788194, 668.33 ], [ -46.077605560000016, -23.41757556, 671.73 ], [ -46.07769444, -23.41724917, 679.51 ], [ -46.07769083, -23.41713278, 686.28 ], [ -46.07763889, -23.416875, 694.08 ], [ -46.07752472, -23.41658417, 704.97 ], [ -46.07740889, -23.41643, 710.68 ], [ -46.07715444, -23.41618972, 717.98 ] ] ] ] } }
]
}
