{
"type": "FeatureCollection",
"name": "Aguas do Pontal",
"crs": { "type": "name", "properties": { "name": "urn:ogc:def:crs:OGC:1.3:CRS84" } },
"features": [
{"type":"Feature","properties":{"recibo":"SP-3515350-654C244FEC5E4E09A3934CED9A421DA1","modfiscais":11.3159,"tema":"Área do Imovel","area":339.4763,"municipio":"Euclides da Cunha Paulista","estado":"São Paulo"},"geometry":{"type":"MultiPolygon","coordinates":[[[[-52.66627468,-22.491721524444401],[-52.664050356388898,-22.4914583875],[-52.661712817500003,-22.491177884722202],[-52.659228638333303,-22.4908819688889],[-52.656608981388899,-22.490569253611099],[-52.653770033611103,-22.4902284011111],[-52.650711479722297,-22.489865362500002],[-52.647322303333297,-22.4894612113889],[-52.6435034505555,-22.489005646666701],[-52.6362503641666,-22.498481410555499],[-52.636508631666601,-22.4983675202778],[-52.636670346666598,-22.498291729722201],[-52.637010947777803,-22.498178718055499],[-52.63723619,-22.497852021666699],[-52.637733369166703,-22.497507839444399],[-52.637923112222197,-22.497253663611101],[-52.638343944722202,-22.496823103055601],[-52.6386389302778,-22.4968728463889],[-52.641642052777797,-22.4973781041667],[-52.656024801388902,-22.49979697],[-52.661406700277801,-22.5007014897222],[-52.670072260277799,-22.502158936666699],[-52.674744478333302,-22.4927300991667],[-52.6736281405556,-22.492599275277701],[-52.6706269794444,-22.492239275833299],[-52.668432040833302,-22.491978707222199],[-52.6662837152778,-22.4917225933333],[-52.66627468,-22.491721524444401]]]]}},
{"type":"Feature","properties":{"recibo":"SP-3515350-654C244FEC5E4E09A3934CED9A421DA1","modfiscais":11.3159,"tema":"Área Líquida do Imóvel","area":339.4763,"municipio":"Euclides da Cunha Paulista","estado":"São Paulo"},"geometry":{"type":"MultiPolygon","coordinates":[[[[-52.66627468,-22.491721524444401],[-52.664050356388898,-22.4914583875],[-52.661712817500003,-22.491177884722202],[-52.659228638333303,-22.4908819688889],[-52.656608981388899,-22.490569253611099],[-52.653770033611103,-22.4902284011111],[-52.650711479722297,-22.489865362500002],[-52.647322303333297,-22.4894612113889],[-52.6435034505555,-22.489005646666701],[-52.6362503641666,-22.498481410555499],[-52.636508631666601,-22.4983675202778],[-52.636670346666598,-22.498291729722201],[-52.637010947777803,-22.498178718055499],[-52.63723619,-22.497852021666699],[-52.637733369166703,-22.497507839444399],[-52.637923112222197,-22.497253663611101],[-52.638343944722202,-22.496823103055601],[-52.6386389302778,-22.4968728463889],[-52.641642052777797,-22.4973781041667],[-52.656024801388902,-22.49979697],[-52.661406700277801,-22.5007014897222],[-52.670072260277799,-22.502158936666699],[-52.674744478333302,-22.4927300991667],[-52.6736281405556,-22.492599275277701],[-52.6706269794444,-22.492239275833299],[-52.668432040833302,-22.491978707222199],[-52.6662837152778,-22.4917225933333],[-52.66627468,-22.491721524444401]]]]}}
]
}
