{
"type": "FeatureCollection",
"name": "Bragança Pta",
"crs": { "type": "name", "properties": { "name": "urn:ogc:def:crs:OGC:1.3:CRS84" } },
"features": [
{"type":"Feature","properties":{"recibo":"SP-3507605-7536456D2BB94591B6ED443457EA4D0E","modfiscais":14.5291,"tema":"Área Líquida do Imóvel","area":232.4364,"municipio":"Bragança Paulista","estado":"São Paulo"},"geometry":{"type":"MultiPolygon","coordinates":[[[[-46.605036714443997,-22.983812001389001],[-46.605132506666997,-22.983776842499999],[-46.605358101943999,-22.983623406111001],[-46.605665877222002,-22.983515108889002],[-46.605835563333002,-22.983486467778],[-46.605970988610999,-22.983519234167002],[-46.606216128889002,-22.983677601667001],[-46.606278503055997,-22.983658964444],[-46.607533068056,-22.983140693888998],[-46.607846505,-22.983028069722],[-46.608580337778001,-22.982701791943999],[-46.608652446389002,-22.982656146943999],[-46.608764685555997,-22.982548021944002],[-46.608881025,-22.982332986389],[-46.609130615555998,-22.982073045556],[-46.609718613611001,-22.981748717778],[-46.609960297778002,-22.981648993056002],[-46.610167549167002,-22.981574526667],[-46.610312703889001,-22.98150929],[-46.610563552777997,-22.981367864167002],[-46.61085669,-22.981187128611001],[-46.610934816110998,-22.981153924167],[-46.611158422499997,-22.981079620555999],[-46.611914081389003,-22.980791184167],[-46.611970616667001,-22.980783662221999],[-46.612091736666997,-22.980796050555998],[-46.612768620833002,-22.980897311389],[-46.613062792500003,-22.980917818333001],[-46.613083553610998,-22.980867973889001],[-46.613304147500003,-22.980425274443999],[-46.613408781388998,-22.980279406667002],[-46.613619393889003,-22.980038813888999],[-46.613692290278003,-22.979916244721998],[-46.613901352778001,-22.979589022778001],[-46.61395807,-22.979326335],[-46.613965774443997,-22.979205569444002],[-46.613960161667002,-22.97902786],[-46.614097184721999,-22.978409450278001],[-46.614231077222001,-22.978054434722001],[-46.614302525832997,-22.977885315556001],[-46.614387415278003,-22.977712139167],[-46.614412643610997,-22.977668213055999],[-46.614487887499997,-22.97755678],[-46.614541979167001,-22.977502156943999],[-46.614637541943999,-22.977418664721998],[-46.614831445,-22.97728286],[-46.614993693332998,-22.977200618889],[-46.61517969,-22.977115728889],[-46.615284261389,-22.977041828333],[-46.615314776943997,-22.97697126],[-46.615401775,-22.976881324444001],[-46.615459241388997,-22.976781976110999],[-46.615498229444,-22.976667666667002],[-46.615531648888997,-22.976602220833001],[-46.615613575833002,-22.976494098610999],[-46.615669715,-22.976344038611],[-46.615693934166998,-22.976153781389002],[-46.615716025833002,-22.9758823825],[-46.615812308888998,-22.975376286667],[-46.616071021110997,-22.9744633225],[-46.616117554166998,-22.974281727499999],[-46.616142978611002,-22.974202806944],[-46.616162799167,-22.974165911111001],[-46.616348035556001,-22.973888510833],[-46.616594854166998,-22.973499627778001],[-46.616645312221998,-22.973404921111001],[-46.616674333611002,-22.973248711943999],[-46.616660669444002,-22.973099448332999],[-46.615615313611002,-22.971695487222],[-46.615692321944003,-22.97156396],[-46.615928061666999,-22.970939953889001],[-46.615938465,-22.970908933055998],[-46.61593654,-22.970882951667001],[-46.615991691666999,-22.970811853889],[-46.616362524444,-22.970470273333],[-46.616324933610997,-22.970327841111001],[-46.616344658888998,-22.970198323611001],[-46.616506405,-22.969947699721999],[-46.616856836388997,-22.969421596667001],[-46.617075168889002,-22.968715879167],[-46.617154451110999,-22.968272071944],[-46.617254103889003,-22.967832473611001],[-46.617363019443999,-22.967377631666999],[-46.617397734167,-22.967249510833],[-46.617569796666999,-22.967203603889001],[-46.617670188333001,-22.967151438056],[-46.617683339444,-22.96714066],[-46.617455813055997,-22.96684315],[-46.616663874167003,-22.965787841389002],[-46.615712986388999,-22.964537660556001],[-46.615615160833002,-22.964490379722001],[-46.615483591389001,-22.964758405],[-46.615353346667,-22.965012391666999],[-46.615209665278002,-22.965239523333],[-46.615149900277999,-22.965306841111001],[-46.615047768610999,-22.965389776388999],[-46.614884625556002,-22.965492268056],[-46.614767315278002,-22.965562334167],[-46.614525732221999,-22.965715352777998],[-46.614516636666998,-22.965723788056],[-46.614365886111003,-22.965728768611001],[-46.614264936388999,-22.965724438611002],[-46.614171323055999,-22.965724504722001],[-46.613910155277999,-22.965710733611001],[-46.613555061389,-22.965687749722001],[-46.612853762778002,-22.965662387222],[-46.612597246111001,-22.965717325556],[-46.610346143332997,-22.966218955277999],[-46.610296373333,-22.966221445],[-46.608850946110998,-22.966003344722001],[-46.608670764722,-22.966025444166998],[-46.607479061389,-22.966205465],[-46.606636595555997,-22.966309553889001],[-46.605524546110999,-22.9664373325],[-46.605652525556003,-22.966796884444001],[-46.605709332499998,-22.967025745278001],[-46.605706938889,-22.967076411667001],[-46.605624233889003,-22.967270921943999],[-46.605569103889003,-22.967476092778],[-46.605546980278,-22.967751225],[-46.605537753055998,-22.967790011110999],[-46.605338020833003,-22.968208080278],[-46.605213631943997,-22.968356195556002],[-46.605125609166997,-22.968497598610998],[-46.605047785833001,-22.968572246667001],[-46.605074331944003,-22.968939583611],[-46.605117534167,-22.969073511388999],[-46.605200338610999,-22.969138168333],[-46.605219369444001,-22.969185892222001],[-46.605210485,-22.969263051111],[-46.605328223055999,-22.969648288889001],[-46.605297679722,-22.969955551110999],[-46.605268387221997,-22.970094019167],[-46.605165141943999,-22.970501726944001],[-46.605144954722,-22.970620028889002],[-46.6051502575,-22.971410966111002],[-46.605123749166999,-22.971929360832998],[-46.605090674722,-22.972231884722],[-46.605039710832997,-22.972376263611],[-46.605038401667002,-22.97242531],[-46.604533548889002,-22.972704327222001],[-46.60407388,-22.972970495],[-46.603768881943999,-22.973163673056],[-46.603490228056003,-22.9733765625],[-46.603353587222003,-22.973509773610999],[-46.603262644167003,-22.973609426944002],[-46.603077563611002,-22.973747727778001],[-46.602674023055997,-22.974130137222001],[-46.602346008056003,-22.974351895832999],[-46.602113621944,-22.974558625833001],[-46.602015465,-22.974630408332999],[-46.601903728332999,-22.974751861388999],[-46.601822056944002,-22.975040462500001],[-46.601614835832997,-22.975557927221999],[-46.601536225556004,-22.975740247777999],[-46.601773391944,-22.976228942222001],[-46.601756979167,-22.976354656388999],[-46.601771415278002,-22.976493140833],[-46.601864776943998,-22.976621401111],[-46.601994918056,-22.9766774],[-46.602114677499998,-22.976780631943999],[-46.602134000555999,-22.976855940278],[-46.602086145278001,-22.977160851943999],[-46.601889469443996,-22.977634574444],[-46.601735235555999,-22.977876535833001],[-46.601660919444001,-22.977888812222002],[-46.601493808611004,-22.978196582778001],[-46.601430476388998,-22.978417184444002],[-46.601410591388998,-22.978644364444001],[-46.601267741111002,-22.978844053610999],[-46.601261396666999,-22.979065110833002],[-46.601193921666997,-22.979263391111001],[-46.601020001944001,-22.979449488333],[-46.600724981389,-22.979620350556001],[-46.600594127222003,-22.979896909167],[-46.600482955555997,-22.980161311111001],[-46.600489093055998,-22.980287680556],[-46.600504402222001,-22.980390295],[-46.600559340833001,-22.98086037],[-46.600566450556002,-22.980971985556],[-46.600530393889002,-22.981332198333],[-46.600540705556,-22.981564048888998],[-46.6005671725,-22.981808554444001],[-46.600577572222001,-22.981955907500002],[-46.600681178610998,-22.982120007222001],[-46.600719680833002,-22.982174438055999],[-46.600762671666999,-22.982226228333001],[-46.600891085278001,-22.982286405833001],[-46.601009664444,-22.982263064722002],[-46.601321703056001,-22.982178423889],[-46.601462654721999,-22.982185618332998],[-46.601602496110999,-22.982174267222],[-46.601799913611003,-22.982103655],[-46.601897431388998,-22.982091264722001],[-46.602238369722002,-22.982137528610998],[-46.602403824166998,-22.98225891],[-46.602598446111003,-22.982362681944],[-46.602701270555997,-22.982408780278],[-46.603169709444003,-22.982556615278],[-46.603288609167002,-22.982608374443998],[-46.603527520556,-22.982743171944001],[-46.603991456944001,-22.983079428332999],[-46.604099788055997,-22.983172474444],[-46.604396776944,-22.983466846111],[-46.604519550277999,-22.983564592221999],[-46.604659153333003,-22.983669441667001],[-46.604865781667002,-22.983777793055999],[-46.605036714443997,-22.983812001389001]]]]}}
]
}
