{
"type": "FeatureCollection",
"name": "Fazenda Rio Grande",
"crs": { "type": "name", "properties": { "name": "urn:ogc:def:crs:OGC:1.3:CRS84" } },
"features": [
{"type":"Feature","properties":{"Nome do Projeto":null,"Município":null,"Região Hidrográfica":null,"UGRHI":null,"Propriedade":"Fazenda Rio Grande","Área (ha)":216.0023264608127,"Fotos do Projeto":null},"geometry":{"type":"MultiPolygon","coordinates":[[[[-46.135429709261473,-23.718581393760228],[-46.13680998924611,-23.719647503759557],[-46.138184709230821,-23.720628613758851],[-46.138791929224361,-23.720546113758353],[-46.139439159217339,-23.720703333757932],[-46.139780549213611,-23.720750833757688],[-46.141032209199992,-23.721166943756902],[-46.142631099181649,-23.723293613756383],[-46.14375887916929,-23.723815563755725],[-46.143849989168459,-23.723469723755542],[-46.143531659172268,-23.722793613755545],[-46.143069159177713,-23.721797223755562],[-46.142780269181102,-23.721322783755685],[-46.142287209186748,-23.720688333755827],[-46.142027489189751,-23.72022194375587],[-46.141923599191017,-23.719960833755863],[-46.141454989196319,-23.719432783756059],[-46.143242769177093,-23.719459443754761],[-46.14370554917204,-23.719569173754433],[-46.143971659169118,-23.71970194375427],[-46.144208049166437,-23.719944723754175],[-46.144405819164163,-23.720217783754102],[-46.145635549150477,-23.721175283753539],[-46.146186099144529,-23.721153893753101],[-46.147691099128053,-23.721620833752102],[-46.147977489124862,-23.721890003751991],[-46.148345269120739,-23.722177503751798],[-46.148946659114088,-23.722458893751426],[-46.14949470910841,-23.722067783750902],[-46.149702209106273,-23.721853613750703],[-46.149903599104277,-23.721577223750458],[-46.150302769100442,-23.720682223749883],[-46.150390269099745,-23.720202503749675],[-46.150671379096835,-23.719921113749383],[-46.150947769093868,-23.719925563749161],[-46.150511099100676,-23.715921943748224],[-46.150233879104903,-23.713643333747715],[-46.15118165909422,-23.714413333747242],[-46.151736929088088,-23.714738063746932],[-46.152198049082919,-23.7150877837467],[-46.153158049072559,-23.715168333746025],[-46.155344429050587,-23.712043613743415],[-46.155045549053831,-23.711980283743621],[-46.154239159062662,-23.711790003744181],[-46.154024709065219,-23.71133722374416],[-46.153776379067892,-23.711312783744329],[-46.153309159072869,-23.711469443744733],[-46.153165819074601,-23.711140283744761],[-46.152974989076966,-23.710493613744703],[-46.15217081908591,-23.709992503745131],[-46.15190248908899,-23.70961139374522],[-46.151659709091831,-23.709194723745256],[-46.151563879093082,-23.70881222374522],[-46.15157192909313,-23.70852972374513],[-46.150250269107516,-23.708224443746005],[-46.149571379114832,-23.708249443746517],[-46.149539159115179,-23.708275563746557],[-46.149004989120769,-23.708546943747034],[-46.148450549126821,-23.708414443747436],[-46.148075819130852,-23.708453333747709],[-46.147205269140287,-23.708295003748304],[-46.146807489144933,-23.707636673748361],[-46.145837209155601,-23.707105563748939],[-46.144521659168731,-23.709138893750563],[-46.142722769186292,-23.712481943752927],[-46.141840549195578,-23.712830283753675],[-46.137898319238168,-23.712390833756452],[-46.137659429240799,-23.712307783756618],[-46.13702081924648,-23.714573893757798],[-46.13555665926242,-23.71417333375874],[-46.136223319256473,-23.711806113757504],[-46.136199989256752,-23.71179778375755],[-46.13484442927161,-23.711133333758323],[-46.134758879271999,-23.712150833758688],[-46.134363599275858,-23.712914173759238],[-46.134154159277642,-23.713797783759645],[-46.134020549279001,-23.713993333759792],[-46.132767769292322,-23.714181113760802],[-46.132326929296859,-23.714504173761213],[-46.132077489299121,-23.715318333761687],[-46.13195054929988,-23.716505003762141],[-46.131700549302273,-23.71701722376249],[-46.13183998929955,-23.719428333763123],[-46.132976659287628,-23.718955833762145],[-46.133650269280729,-23.718265003761456],[-46.13406248927631,-23.718301943761166],[-46.134276929273589,-23.719108333761248],[-46.135236099263317,-23.719044443760534],[-46.135429709261473,-23.718581393760228]]]]}}
]
}
