{
"type": "FeatureCollection",
"name": "Fazenda Modelo",
"crs": { "type": "name", "properties": { "name": "urn:ogc:def:crs:OGC:1.3:CRS84" } },
"features": [
{ "type": "Feature", "properties": { "CAR": "SP-3525508-8CBC443071014AAEAABDF3B666864617", "Município": "Joanópolis", "Área (ha)": 887.368706934594, "Estado": "São Paulo" }, "geometry": { "type": "MultiPolygon", "coordinates": [ [ [ [ -46.170468818872841, -22.891496515026649 ], [ -46.171068549156203, -22.891753031440899 ], [ -46.1713367700577, -22.891841986043801 ], [ -46.171610355377197, -22.8919259986708 ], [ -46.172077059745803, -22.891935882505798 ], [ -46.172629594802899, -22.8919605920903 ], [ -46.173037290573099, -22.892039662730401 ], [ -46.173348426818798, -22.892202745780001 ], [ -46.173622012138402, -22.892425131440898 ], [ -46.173992156982401, -22.8927562383052 ], [ -46.174276471138, -22.8929687392998 ], [ -46.174609065055797, -22.893126879358899 ], [ -46.174920201301603, -22.893196065576799 ], [ -46.175370812416098, -22.8933097285725 ], [ -46.175655126571698, -22.893383856561901 ], [ -46.175832152366603, -22.893537054278202 ], [ -46.175826787948601, -22.893764379603098 ], [ -46.175714135169997, -22.893971937175699 ], [ -46.175547838211102, -22.8941201923904 ], [ -46.1753171682358, -22.894312923927199 ], [ -46.175183057784999, -22.894485887893801 ], [ -46.175006031990002, -22.8945600152406 ], [ -46.174877285957301, -22.894550131596699 ], [ -46.173563003540004, -22.895923951192501 ], [ -46.173702478408799, -22.8962599912782 ], [ -46.173847317695603, -22.896428011008901 ], [ -46.174099445343003, -22.8965762635396 ], [ -46.174362301826498, -22.8963884769733 ], [ -46.175934076309197, -22.895222217741399 ], [ -46.176014542579601, -22.895246926727399 ], [ -46.176068186759998, -22.895335879039699 ], [ -46.176180839538603, -22.895345762626299 ], [ -46.176363229751601, -22.895464365610099 ], [ -46.176529526710503, -22.895558259565298 ], [ -46.176749467849703, -22.8955879102745 ], [ -46.176797747612, -22.895706513046498 ], [ -46.176921129226699, -22.8958251157148 ], [ -46.177055239677401, -22.895815232163098 ], [ -46.177183985710101, -22.895889358783499 ], [ -46.177232265472398, -22.8960425536707 ], [ -46.1781281232834, -22.896521904297199 ], [ -46.178900599479697, -22.8967788750696 ], [ -46.178857684135401, -22.897238456198899 ], [ -46.178171038627603, -22.897895703925698 ], [ -46.1766421794891, -22.899165714947198 ], [ -46.1768299341202, -22.8992596063405 ], [ -46.177055239677401, -22.899333731078901 ], [ -46.177151799202001, -22.899397972486 ], [ -46.177280545234701, -22.899511630285598 ], [ -46.177409291267402, -22.899615404715099 ], [ -46.177527308464001, -22.899803186814299 ], [ -46.177639961242697, -22.899995910277401 ], [ -46.1782515048981, -22.900124392433899 ], [ -46.178922057151802, -22.899254664689899 ], [ -46.179538965225198, -22.899249723038999 ], [ -46.180171966552699, -22.8991904232149 ], [ -46.180284619331402, -22.8992596063405 ], [ -46.1805582046509, -22.8999316691534 ], [ -46.1807781457901, -22.900529604592101 ], [ -46.1815023422241, -22.9001095675759 ], [ -46.181582808494603, -22.899803186814299 ], [ -46.181690096855199, -22.898720965358699 ], [ -46.1816954612732, -22.897683210648101 ], [ -46.183390617370598, -22.8959733689044 ], [ -46.183454990386998, -22.896091971339398 ], [ -46.183385252952597, -22.896205631909002 ], [ -46.183379888534503, -22.896314350625602 ], [ -46.183476448059103, -22.896368709951201 ], [ -46.183605194091797, -22.896373651706998 ], [ -46.183750033378601, -22.8962698747975 ], [ -46.183986067771897, -22.896304467109498 ], [ -46.1840933561325, -22.896358826439101 ], [ -46.184206008911097, -22.8963983604833 ], [ -46.184420585632303, -22.8964230692551 ], [ -46.184796094894402, -22.8965317877974 ], [ -46.185021400451703, -22.8966355645066 ], [ -46.185155510902398, -22.8967788750696 ], [ -46.185327172279401, -22.8968777098525 ], [ -46.185477375984199, -22.8969913697638 ], [ -46.185627579688997, -22.897174213769102 ], [ -46.185836791992202, -22.896897476800401 ], [ -46.185455918312101, -22.896645447998502 ], [ -46.1851018667221, -22.8963884769733 ], [ -46.185168280683698, -22.896436680432 ], [ -46.185082570863102, -22.896388400305099 ], [ -46.184152364730799, -22.8957855815035 ], [ -46.183949483226399, -22.8956244633486 ], [ -46.183988538028601, -22.895596481141599 ], [ -46.184431314468398, -22.895933834736301 ], [ -46.184626215855197, -22.896063660489201 ], [ -46.184626219439672, -22.896063662936999 ], [ -46.184265017509503, -22.895805348610601 ], [ -46.183771491050699, -22.895410005922098 ], [ -46.184216737747199, -22.8950146620815 ], [ -46.184324026107802, -22.894841698789001 ], [ -46.184334754943798, -22.894624258908401 ], [ -46.184388399124103, -22.894416702333601 ], [ -46.184576153755202, -22.8942635056105 ], [ -46.184790730476401, -22.894253621945001 ], [ -46.184951663017301, -22.8942289127781 ], [ -46.185085773468003, -22.894214087275799 ], [ -46.185273528099103, -22.894233854611901 ], [ -46.185434460640003, -22.8942289127781 ], [ -46.185611486434901, -22.894219029110101 ], [ -46.185788512229898, -22.894248680112 ], [ -46.185911893844597, -22.8942289127781 ], [ -46.186046004295399, -22.894199261771899 ], [ -46.186201572418199, -22.894139959740102 ], [ -46.186405420303302, -22.894169610759199 ], [ -46.186550259590199, -22.894100425037799 ], [ -46.186716556549101, -22.893966995332399 ], [ -46.1867755651474, -22.893843449192001 ], [ -46.187000870704601, -22.893719902939001 ], [ -46.1873120069504, -22.893764379603098 ], [ -46.187510490417502, -22.893794030704299 ], [ -46.187703609466602, -22.8938286236476 ], [ -46.1879450082779, -22.893887925815498 ], [ -46.188207864761402, -22.8939324024245 ], [ -46.1884492635727, -22.894075715843002 ], [ -46.188696026802099, -22.894135017902901 ], [ -46.188910603523297, -22.894243738278799 ], [ -46.189178824424701, -22.894337633078798 ], [ -46.189388036727898, -22.8944117605066 ], [ -46.189586520195, -22.894550131596699 ], [ -46.189801096916199, -22.8946193170889 ], [ -46.190010309219403, -22.894624258908401 ], [ -46.190128326416001, -22.8946193170889 ], [ -46.190257072448702, -22.894624258908401 ], [ -46.190358996391303, -22.894683560728598 ], [ -46.190503835678101, -22.894683560728598 ], [ -46.1906915903091, -22.894737920707598 ], [ -46.190820336341901, -22.894752746152701 ], [ -46.190938353538499, -22.894812047916702 ], [ -46.191083192825303, -22.894836756977401 ], [ -46.191276311874397, -22.894831815165599 ], [ -46.191399693489103, -22.8947972224781 ], [ -46.191560626029997, -22.894772513410199 ], [ -46.191743016243002, -22.8947082698126 ], [ -46.191877126693697, -22.8947230952609 ], [ -46.192038059234598, -22.894693444362701 ], [ -46.192220449447603, -22.894634142546899 ], [ -46.192327737808199, -22.894569898883798 ], [ -46.192483305931098, -22.894480946069301 ], [ -46.192536950111403, -22.894382109540299 ], [ -46.1926174163818, -22.8943277494187 ], [ -46.1927407979965, -22.894303040265299 ], [ -46.1928373575211, -22.894214087275799 ], [ -46.192880272865303, -22.8940510066437 ], [ -46.192998290062, -22.893991704546998 ], [ -46.193175315856898, -22.893887925815498 ], [ -46.193448901176403, -22.893695193675001 ], [ -46.193443536758402, -22.893477751956901 ], [ -46.1934059858322, -22.8932454842823 ], [ -46.1933416128159, -22.892998390574999 ], [ -46.193261146545403, -22.8927562383052 ], [ -46.193175315856898, -22.892588214027299 ], [ -46.193116307258599, -22.892336177220301 ], [ -46.193062663078301, -22.892133559055601 ], [ -46.193051934242199, -22.891906230998501 ], [ -46.193030476570101, -22.891639367141199 ], [ -46.192955374717698, -22.891402154382899 ], [ -46.192976832389803, -22.891219302598799 ], [ -46.193068027496302, -22.891130347587598 ], [ -46.193228960037203, -22.8910957539564 ], [ -46.193368434905999, -22.8909178437139 ], [ -46.193497180938699, -22.890799236755999 ], [ -46.193540096282803, -22.890725107354601 ], [ -46.193593740463299, -22.890641093984101 ], [ -46.193636655807502, -22.890557080561599 ], [ -46.193765401840203, -22.8904335313164 ], [ -46.193845868110699, -22.890359401715202 ], [ -46.193926334381104, -22.8902556202056 ], [ -46.194001436233499, -22.8901518386166 ], [ -46.194087266921997, -22.890008521053701 ], [ -46.194173097610602, -22.8897713054447 ], [ -46.194221377372699, -22.8895439734302 ], [ -46.194248199462898, -22.889385829195501 ], [ -46.194307208061197, -22.889217800744198 ], [ -46.194344758987398, -22.8890497720848 ], [ -46.1944144964218, -22.888827380892302 ], [ -46.194452047348001, -22.888703830072298 ], [ -46.194548606872601, -22.888535800776701 ], [ -46.194650530815103, -22.888313408741901 ], [ -46.194736361503601, -22.8880712481118 ], [ -46.1947631835938, -22.887838971183001 ], [ -46.194790005683998, -22.887740129816201 ], [ -46.1948597431183, -22.8875424468666 ], [ -46.194945573806798, -22.8872755744278 ], [ -46.194929480552702, -22.8870087014643 ], [ -46.195009946823099, -22.886474953962999 ], [ -46.194865107536302, -22.884547514955699 ], [ -46.194012165069601, -22.8835640163012 ], [ -46.193851232528701, -22.883257598179199 ], [ -46.193695664405801, -22.883079677661801 ], [ -46.193357706069897, -22.882872103430199 ], [ -46.193100214004502, -22.8826941824077 ], [ -46.192821264267003, -22.882629933092201 ], [ -46.192590594291701, -22.8825557992289 ], [ -46.192359924316399, -22.882511318891499 ], [ -46.191995143890402, -22.882382820057099 ], [ -46.191818118095398, -22.882239494290602 ], [ -46.191651821136503, -22.882165360214 ], [ -46.191458702087402, -22.882249378830998 ], [ -46.191383600235, -22.881631593668001 ], [ -46.191029548644998, -22.881384478815601 ], [ -46.191034913063, -22.8812312673812 ], [ -46.190932989120498, -22.880529457955699 ], [ -46.190369725227399, -22.879886953188102 ], [ -46.189779639244101, -22.8793037539204 ], [ -46.189243197441101, -22.878868824022199 ], [ -46.185997724533102, -22.8765261094726 ], [ -46.184506416320801, -22.875191633749299 ], [ -46.1836534738541, -22.874855541499802 ], [ -46.182349920272799, -22.875255886584601 ], [ -46.181555986404398, -22.8751174958246 ], [ -46.1804294586182, -22.874860484038901 ], [ -46.179340481758103, -22.8746578397881 ], [ -46.178771853447003, -22.874558988824301 ], [ -46.1781549453735, -22.8743958845767 ], [ -46.177865266799898, -22.874227837571301 ], [ -46.1777794361114, -22.874035077515 ], [ -46.172608137130702, -22.874366229237999 ], [ -46.172372102737398, -22.873965881530498 ], [ -46.172280907630899, -22.873713810146398 ], [ -46.1721897125244, -22.8733282883009 ], [ -46.172087788581798, -22.8731602399744 ], [ -46.171980500221203, -22.873007019260299 ], [ -46.171808838844299, -22.872848855761202 ], [ -46.171535253524802, -22.872789544401599 ], [ -46.171379685401902, -22.872646208508801 ], [ -46.171057820320101, -22.872488044589499 ], [ -46.1707091331482, -22.872315052591901 ], [ -46.170204877853401, -22.872058035502899 ], [ -46.169872283935597, -22.8718652723669 ], [ -46.169679164886503, -22.871697222230299 ], [ -46.169636249542201, -22.871509401243401 ], [ -46.168220043182401, -22.869784401611899 ], [ -46.167377829551697, -22.8696015207105 ], [ -46.166685819625897, -22.870777885450199 ], [ -46.164389848709099, -22.874904966882799 ], [ -46.163172125816303, -22.876901737311101 ], [ -46.1626571416855, -22.876694153634102 ], [ -46.1623728275299, -22.876768290697999 ], [ -46.162297725677497, -22.8768127729169 ], [ -46.1621850728989, -22.877267479208001 ], [ -46.162099242210402, -22.877435522451901 ], [ -46.162104606628397, -22.877613450365899 ], [ -46.162131428718602, -22.8777370112801 ], [ -46.1620563268662, -22.877766665882799 ], [ -46.160961985588102, -22.877989075196499 ], [ -46.160216331481898, -22.8781768872221 ], [ -46.160189509391799, -22.878325159690402 ], [ -46.160087585449197, -22.878216426562801 ], [ -46.159873008727999, -22.878181829640301 ], [ -46.1596584320068, -22.878137347869899 ], [ -46.159545779228203, -22.8780088448956 ], [ -46.159535050392201, -22.877806205342999 ], [ -46.1595940589905, -22.877549198646101 ], [ -46.159508228302002, -22.877351500855902 ], [ -46.159325838089003, -22.877143917866501 ], [ -46.158961057662999, -22.876901737311101 ], [ -46.158526539802601, -22.876595304152499 ], [ -46.1580169200897, -22.876224617955899 ], [ -46.157711148262003, -22.875918183269398 ], [ -46.157512664794901, -22.875715540596801 ], [ -46.157442927360499, -22.8755870353307 ], [ -46.157501935958898, -22.875389334683899 ], [ -46.157625317573597, -22.875097725704499 ], [ -46.157711148262003, -22.874835771341601 ], [ -46.157813072204597, -22.874628184506498 ], [ -46.157813072204597, -22.874430482463801 ], [ -46.157743334770203, -22.874198182195801 ], [ -46.157598495483398, -22.873946111242802 ], [ -46.1574482917786, -22.873689097240401 ], [ -46.157346367835999, -22.8734815086525 ], [ -46.1573195457458, -22.873333230895501 ], [ -46.157351732254, -22.873199780775799 ], [ -46.157255172729499, -22.873011961866698 ], [ -46.1570674180984, -22.872878511431299 ], [ -46.156235933303797, -22.872211257287599 ], [ -46.155908703804002, -22.871964125291299 ], [ -46.155581474304199, -22.871613197084098 ], [ -46.155297160148599, -22.871499515921101 ], [ -46.155136227607699, -22.871563770503101 ], [ -46.154771447181702, -22.871553885184799 ], [ -46.154664158821099, -22.8713611213334 ], [ -46.154599785804798, -22.870990420850202 ], [ -46.154406666755698, -22.870797656199102 ], [ -46.154181361198397, -22.870664203588099 ], [ -46.154090166091898, -22.870466495775201 ], [ -46.153886318206801, -22.870362699058301 ], [ -46.153602004051201, -22.870239131434701 ], [ -46.153156757354701, -22.870056251145499 ], [ -46.152904629707301, -22.869888198770699 ], [ -46.152829527854898, -22.869621291630601 ], [ -46.152668595313997, -22.869443353245799 ], [ -46.152405738830602, -22.869314842045199 ], [ -46.1521428823471, -22.869285185597001 ], [ -46.151901483535802, -22.8692901283388 ], [ -46.151654720306396, -22.869171502485699 ], [ -46.151456236839302, -22.869201158958699 ], [ -46.151252388954198, -22.8691220750163 ], [ -46.150989532470703, -22.869062762029301 ], [ -46.150678396224997, -22.869028162774899 ], [ -46.152641773223898, -22.8634822826712 ], [ -46.151740550994901, -22.862829811305598 ], [ -46.1518907546997, -22.862256424791902 ], [ -46.150839328765898, -22.861801668250401 ], [ -46.150410175323501, -22.861173904002399 ], [ -46.150174140930197, -22.861075043226599 ], [ -46.149455308914199, -22.860941581065099 ], [ -46.148784756660497, -22.860481877061499 ], [ -46.148076653480501, -22.8599183668065 ], [ -46.147722601890599, -22.859779960421601 ], [ -46.1475026607513, -22.859602009148102 ], [ -46.1473149061203, -22.859552578197398 ], [ -46.147137880325303, -22.859364740421 ], [ -46.146875023841901, -22.859112641944598 ], [ -46.1466819047928, -22.8589890640893 ], [ -46.1463332176208, -22.858825941148201 ], [ -46.146118640899701, -22.858697419905301 ], [ -46.145936250686603, -22.858494751544399 ], [ -46.145812869072003, -22.858326684869599 ], [ -46.145657300949097, -22.858198163154501 ], [ -46.145410537719698, -22.858069641317901 ], [ -46.144874095916798, -22.857585211764501 ], [ -46.144482493400602, -22.857723620384501 ], [ -46.144353747367902, -22.8578620288636 ], [ -46.144080162048297, -22.858133902251399 ], [ -46.143801212310798, -22.858479922140301 ], [ -46.143656373024001, -22.8587616805419 ], [ -46.143887042999303, -22.858914917322199 ], [ -46.144069433212302, -22.859107698832599 ], [ -46.144101619720502, -22.859315309384101 ], [ -46.144096255302401, -22.859577293674999 ], [ -46.144037246704102, -22.8598442205464 ], [ -46.143887042999303, -22.8600864315131 ], [ -46.143763661384597, -22.8603583004512 ], [ -46.1434632539749, -22.860729029944899 ], [ -46.143189668655403, -22.861114587545501 ], [ -46.143484711646998, -22.861727523017802 ], [ -46.143237948417699, -22.863121446621399 ], [ -46.1432111263275, -22.863699772430099 ], [ -46.143216490745502, -22.864119922115002 ], [ -46.143372058868401, -22.864475812596499 ], [ -46.1422616243362, -22.8660031653278 ], [ -46.142063140869098, -22.866334336632299 ], [ -46.141864657402003, -22.866566650349199 ], [ -46.1416339874268, -22.866878048963599 ], [ -46.1412853002548, -22.8672438178532 ], [ -46.141097545623801, -22.8674118734993 ], [ -46.140770316123998, -22.8678616684704 ], [ -46.140528917312601, -22.868716769088898 ], [ -46.140389442443798, -22.869191273468399 ], [ -46.140249967575102, -22.8696707189183 ], [ -46.140164136886597, -22.869991995850299 ], [ -46.140378713607802, -22.870234188727402 ], [ -46.140673756599398, -22.870510980058199 ], [ -46.141054630279498, -22.870847083058798 ], [ -46.141542792320202, -22.871212841261499 ], [ -46.1419773101807, -22.8715242292255 ], [ -46.142207980155902, -22.871786189975602 ], [ -46.142390370369, -22.872156888287002 ], [ -46.142562031745904, -22.872448503580902 ], [ -46.142712235450702, -22.8727203477826 ], [ -46.143023371696501, -22.872952650578299 ], [ -46.143388152122498, -22.873323345706002 ], [ -46.1437475681305, -22.873614958495398 ], [ -46.144117712974598, -22.8738571449124 ], [ -46.1445039510727, -22.874089445763701 ], [ -46.1448204517364, -22.874128986294501 ], [ -46.145158410072298, -22.874138871425501 ], [ -46.146445870399504, -22.873180010376601 ], [ -46.1473470926285, -22.8725671265722 ], [ -46.1478835344315, -22.872216199922899 ], [ -46.148425340652501, -22.871756534067 ], [ -46.148951053619399, -22.87099536353 ], [ -46.149852275848403, -22.8711831852277 ], [ -46.149471402168302, -22.871850444422101 ], [ -46.148902773857102, -22.872339765747899 ], [ -46.148951053619399, -22.872730233016 ], [ -46.147781610488899, -22.873422197569202 ], [ -46.146896481513998, -22.8745738164735 ], [ -46.147046685218797, -22.874751748137101 ], [ -46.147320270538302, -22.875023587728499 ], [ -46.147652864456198, -22.875255886584601 ], [ -46.147985458374002, -22.875414047280501 ], [ -46.148301959037802, -22.8754486449082 ], [ -46.1486721038818, -22.875423932317901 ], [ -46.148961782455402, -22.875512897621899 ], [ -46.149197816848798, -22.875720483104601 ], [ -46.149407029151902, -22.8760318607338 ], [ -46.149546504020698, -22.876392662490399 ], [ -46.149648427963299, -22.8766892111617 ], [ -46.149734258651698, -22.876975874261699 ], [ -46.149852275848403, -22.8771686301438 ], [ -46.150141954421997, -22.877311961263398 ], [ -46.150673031806903, -22.877578853289801 ], [ -46.151209473609903, -22.877895169086202 ], [ -46.151542067527799, -22.878206541728701 ], [ -46.151810288429303, -22.878641473748299 ], [ -46.152062416076703, -22.8788984783777 ], [ -46.152480840682998, -22.879249387759302 ], [ -46.152926087379498, -22.879659604619 ], [ -46.153355240821803, -22.8799858002733 ], [ -46.153607368469203, -22.8801291284191 ], [ -46.153891682624803, -22.880267514071399 ], [ -46.154143810272203, -22.8806283045732 ], [ -46.1543852090836, -22.8810484018945 ], [ -46.154680252075202, -22.881463555617302 ], [ -46.154943108558697, -22.8817699777888 ], [ -46.155286431312597, -22.882096168372701 ], [ -46.155656576156602, -22.882358108728798 ], [ -46.156048178672798, -22.8826645288812 ], [ -46.1563754081726, -22.882961063854101 ], [ -46.156793832778902, -22.883257598179199 ], [ -46.157292723655701, -22.883549189633801 ], [ -46.157485842704801, -22.883732051751998 ], [ -46.157539486885099, -22.8839000869947 ], [ -46.1576038599014, -22.884107659654301 ], [ -46.157743334770203, -22.8844289024305 ], [ -46.1579847335815, -22.884636474281599 ], [ -46.158328056335399, -22.884863814516201 ], [ -46.158580183982799, -22.884913236255901 ], [ -46.158859133720398, -22.885021964020002 ], [ -46.159154176712001, -22.8851998819916 ], [ -46.159449219703703, -22.885224592802501 ], [ -46.1598140001297, -22.8853036673672 ], [ -46.1600339412689, -22.882956121609801 ], [ -46.160146594047497, -22.8820615724389 ], [ -46.160264611244202, -22.8811670173734 ], [ -46.160371899604797, -22.8800945319839 ], [ -46.1605435609818, -22.880178551882501 ], [ -46.160736680030801, -22.880316937484501 ], [ -46.160860061645501, -22.880465207615799 ], [ -46.160999536514304, -22.880657958544401 ], [ -46.161117553710902, -22.8807963436577 ], [ -46.161401867866502, -22.880657958544401 ], [ -46.161600351333597, -22.880578881273401 ], [ -46.161782741546602, -22.8805591119485 ], [ -46.162002682685802, -22.880544284952901 ], [ -46.162163615226703, -22.880450380609901 ], [ -46.162313818931601, -22.880326822164999 ], [ -46.162458658218398, -22.880198321262899 ], [ -46.162533760070801, -22.8800698202392 ], [ -46.162555217742899, -22.879956146155301 ], [ -46.162506937980602, -22.879773278951099 ], [ -46.162453293800397, -22.8796200656985 ], [ -46.162458658218398, -22.879466852273001 ], [ -46.162496209144599, -22.879333408180901 ], [ -46.162598133087201, -22.879259272517501 ], [ -46.162662506103501, -22.879160424903301 ], [ -46.162673234939597, -22.879051692444602 ], [ -46.1626893281937, -22.878942959898801 ], [ -46.162694692611701, -22.878863881629002 ], [ -46.162775158882098, -22.878858939235599 ], [ -46.162893176078803, -22.878740321740299 ], [ -46.162984371185303, -22.878641473748299 ], [ -46.163070201873801, -22.878468489589199 ], [ -46.1631292104721, -22.8781422902895 ], [ -46.163166761398301, -22.877959420642402 ], [ -46.163252592086799, -22.877806205342999 ], [ -46.163365244865403, -22.877692529364001 ], [ -46.163515448570202, -22.877727126411099 ], [ -46.1637300252914, -22.8777122991063 ], [ -46.163939237594597, -22.877633220119701 ], [ -46.164116263389602, -22.877395982883801 ], [ -46.164357662200899, -22.877143917866501 ], [ -46.164561510086102, -22.876901737311101 ], [ -46.164829730987599, -22.876659556323698 ], [ -46.164996027946501, -22.876466799719001 ], [ -46.165296435356098, -22.876249330400501 ], [ -46.165564656257601, -22.876076343193901 ], [ -46.167249083519003, -22.876387720007099 ], [ -46.167565584182697, -22.8767040385783 ], [ -46.169486045837402, -22.878611819336701 ], [ -46.168965697288499, -22.879101116300301 ], [ -46.168708205223098, -22.879308696297599 ], [ -46.168203949928298, -22.879644777525101 ], [ -46.167533397674603, -22.8800994743324 ], [ -46.167377829551697, -22.880203263607498 ], [ -46.167190074920697, -22.8803515338629 ], [ -46.166975498199498, -22.8804899192886 ], [ -46.166594624519398, -22.880712324141399 ], [ -46.166272759437597, -22.880840824557001 ], [ -46.165956258773797, -22.881043459580599 ], [ -46.165693402290302, -22.881280690443401 ], [ -46.165366172790499, -22.881695843455901 ], [ -46.165097951889003, -22.881947900022698 ], [ -46.164942383766203, -22.882041803329901 ], [ -46.164561510086102, -22.8824866075866 ], [ -46.164255738258397, -22.882862218935099 ], [ -46.164057254791302, -22.8831834646586 ], [ -46.163971424102797, -22.8833860961855 ], [ -46.1638534069061, -22.8836332073944 ], [ -46.1631292104721, -22.8844733821396 ], [ -46.161943674087503, -22.8850170218508 ], [ -46.161192655563397, -22.8854717006644 ], [ -46.161342859268203, -22.885595254426701 ], [ -46.161503791809103, -22.885708923788702 ], [ -46.161745190620401, -22.8859115515457 ], [ -46.161890029907198, -22.886054873435 ], [ -46.161949038505597, -22.886173484539398 ], [ -46.162034869194002, -22.886257500675601 ], [ -46.162201166152997, -22.886351401001502 ], [ -46.162383556366002, -22.886395880080599 ], [ -46.162576675415004, -22.8864551854967 ], [ -46.162785887718201, -22.886529317230401 ], [ -46.163150668144198, -22.886682522685199 ], [ -46.163311600685098, -22.886835727966901 ], [ -46.163499355316198, -22.886964222585998 ], [ -46.163687109947197, -22.887028469850001 ], [ -46.163890957832301, -22.887068006612601 ], [ -46.164051890373202, -22.887122369642501 ], [ -46.164239645004301, -22.887231095636999 ], [ -46.164416670799298, -22.8873595898818 ], [ -46.164609789848299, -22.887557273097801 ], [ -46.164749264717102, -22.887690709105801 ], [ -46.164813637733502, -22.887843913249501 ], [ -46.165017485618598, -22.8880712481118 ], [ -46.165103316307103, -22.888268930291201 ], [ -46.165130138397203, -22.888491322398899 ], [ -46.165146231651299, -22.8886840619307 ], [ -46.165189146995502, -22.888926221467301 ], [ -46.1652159690857, -22.8891337864405 ], [ -46.165226697921803, -22.8893265250599 ], [ -46.1652481555939, -22.889474785350199 ], [ -46.1654680967331, -22.889766363448398 ], [ -46.165511012077303, -22.889919565248899 ], [ -46.1656558513641, -22.890171606544499 ], [ -46.166213750839198, -22.890502718907602 ], [ -46.166712641716003, -22.890670745767899 ], [ -46.167082786560101, -22.890819004589499 ], [ -46.167469024658203, -22.8910067988643 ], [ -46.168134212493896, -22.891313199491702 ], [ -46.1683058738708, -22.891441689871399 ], [ -46.168536543846102, -22.8915257027463 ], [ -46.169330477714503, -22.891639367141199 ], [ -46.169754266738899, -22.8916986702659 ], [ -46.170338988304103, -22.891713496043099 ], [ -46.170355081558199, -22.891476283414399 ], [ -46.170366816229595, -22.89147834255467 ], [ -46.170537471771198, -22.891268722024201 ], [ -46.1710202693939, -22.8908783080728 ], [ -46.1712777614594, -22.890532370721601 ], [ -46.1713689565659, -22.890225968331201 ], [ -46.171492338180499, -22.889964043158599 ], [ -46.171578168868997, -22.889929449230099 ], [ -46.172956824302702, -22.8900134630412 ], [ -46.173418164253199, -22.890062882905799 ], [ -46.1744320392609, -22.890043114962101 ], [ -46.175295710563702, -22.890171606544499 ], [ -46.175773143768303, -22.890324807887499 ], [ -46.176556348800702, -22.890660861840701 ], [ -46.176572031676898, -22.890673195390701 ], [ -46.1765132783189, -22.8906698973902 ], [ -46.176455336793701, -22.890675157444701 ], [ -46.175751686096199, -22.890384111586801 ], [ -46.175290346145601, -22.890230910310699 ], [ -46.1744320392609, -22.8901073607685 ], [ -46.173418164253199, -22.890137012668902 ], [ -46.171959042549098, -22.8900233470156 ], [ -46.171588897705099, -22.8900134630412 ], [ -46.1714977025986, -22.890137012668902 ], [ -46.171422600746197, -22.8903791696128 ], [ -46.1712777614594, -22.890665803804399 ], [ -46.170971989631603, -22.891016682766299 ], [ -46.170617938041701, -22.8912884897893 ], [ -46.170468818872841, -22.891496515026649 ] ], [ [ -46.183390604079399, -22.8953452527576 ], [ -46.183267235755899, -22.895316111864201 ], [ -46.182972192764304, -22.895222217741399 ], [ -46.182903179460503, -22.8951535553641 ], [ -46.1829417435167, -22.8951611388506 ], [ -46.182981465637297, -22.895163742772201 ], [ -46.183031201362603, -22.895202450549402 ], [ -46.183299422264099, -22.8952568103206 ], [ -46.183423665426602, -22.8952964294777 ], [ -46.183430156570203, -22.895312342508198 ], [ -46.183390604079399, -22.8953452527576 ] ], [ [ -46.1825753689888, -22.8949555132927 ], [ -46.182382106780999, -22.894891116895 ], [ -46.182054877281203, -22.894866407844201 ], [ -46.181759834289601, -22.894762629781798 ], [ -46.181593537330599, -22.8946143752692 ], [ -46.181341409683199, -22.894219029110101 ], [ -46.181067824363701, -22.893991704546998 ], [ -46.180771888510897, -22.8938029488273 ], [ -46.180824840148802, -22.893767860994299 ], [ -46.180901527404799, -22.893838507344 ], [ -46.181212663650498, -22.8940164137571 ], [ -46.181286889122397, -22.8941068497837 ], [ -46.181305603034097, -22.8941472234239 ], [ -46.181333781989203, -22.894188066985802 ], [ -46.1813694069942, -22.8942237155279 ], [ -46.181397027988098, -22.8942441723886 ], [ -46.1816310882568, -22.894569898883798 ], [ -46.181856393814101, -22.894737920707598 ], [ -46.1821031570435, -22.8948219315415 ], [ -46.182376742362997, -22.894831815165599 ], [ -46.1825431282385, -22.894894084478501 ], [ -46.182555008236598, -22.894921921788701 ], [ -46.1825753689888, -22.8949555132927 ] ], [ [ -46.180551142984598, -22.893278685273302 ], [ -46.180536746978802, -22.893201007448202 ], [ -46.180402636528001, -22.8928649597859 ], [ -46.180204153060899, -22.8927216450885 ], [ -46.1795765161514, -22.892583272133599 ], [ -46.179158091545098, -22.892533853186901 ], [ -46.178924569140001, -22.892360011599902 ], [ -46.1789647051489, -22.892376258247499 ], [ -46.179004303529197, -22.8923862324101 ], [ -46.179045014721403, -22.892391007113201 ], [ -46.179080191883898, -22.8923907539872 ], [ -46.179195642471299, -22.892474550427199 ], [ -46.1795765161514, -22.892528911291301 ], [ -46.180220246315002, -22.8926722261922 ], [ -46.1804294586182, -22.892845192250402 ], [ -46.180585026740999, -22.893186181833599 ], [ -46.180600269548201, -22.893246818502899 ], [ -46.180551142984598, -22.893278685273302 ] ], [ [ -46.178591090036903, -22.892105406314599 ], [ -46.178374886512799, -22.891906230998501 ], [ -46.178246140479999, -22.891683844487201 ], [ -46.177849173545802, -22.891387328571799 ], [ -46.1777194001737, -22.8913333370974 ], [ -46.177780108719297, -22.891330857230699 ], [ -46.177832721050997, -22.891318781998901 ], [ -46.177865266799898, -22.8913329672503 ], [ -46.178278326988199, -22.8916443090692 ], [ -46.178428530693097, -22.891876579484698 ], [ -46.178583818424599, -22.892016385543499 ], [ -46.178591090036903, -22.892105406314599 ] ], [ [ -46.1775250496677, -22.891252478396002 ], [ -46.177361004964801, -22.891184228036099 ], [ -46.177431481479601, -22.891172008703599 ], [ -46.177469167234698, -22.891208347710801 ], [ -46.1775250496677, -22.891252478396002 ] ] ] ] } }
]
}
