{
"type": "FeatureCollection",
"name": "Fazenda Carmellina",
"crs": { "type": "name", "properties": { "name": "urn:ogc:def:crs:OGC:1.3:CRS84" } },
"features": [
{"type":"Feature","properties":{"recibo":"SP-3545001-1505286789694E6DA1258142A9F5C68C","modfiscais":40.8901,"tema":"Área do Imovel","area":286.2307,"municipio":"Salesópolis","estado":"São Paulo"},"geometry":{"type":"MultiPolygon","coordinates":[[[[-45.764966011047399,-23.6047927300379],[-45.769826173782398,-23.599601782114799],[-45.772948265075698,-23.596426157751601],[-45.776242017746,-23.597419163105801],[-45.776424407958999,-23.5973798363041],[-45.776606798171997,-23.597232360692502],[-45.776799917221098,-23.5970062310994],[-45.777014493942303,-23.596878418548201],[-45.777304172515898,-23.596868586808299],[-45.777518749237103,-23.596239353924101],[-45.777046680450397,-23.596150867807602],[-45.776413679122903,-23.595934568160601],[-45.775952339172399,-23.595728099982999],[-45.775587558746302,-23.5955117996388],[-45.775244235992403,-23.595187348453798],[-45.775051116943402,-23.594833400791199],[-45.774911642074599,-23.594449956412401],[-45.774793624877901,-23.594046847010699],[-45.774707794189403,-23.5939485274566],[-45.774450302124002,-23.593840375861902],[-45.774364471435597,-23.5936142404212],[-45.774385929107702,-23.593368440587099],[-45.774439573287999,-23.5931226402924],[-45.7745039463043,-23.592886671576199],[-45.774664878845201,-23.592591710084001],[-45.774900913238497,-23.592336076254501],[-45.7752335071564,-23.591775646500398],[-45.775812864303603,-23.591274207322801],[-45.775995254516602,-23.591205382188001],[-45.775920152664199,-23.5907137730328],[-45.776338577270501,-23.5903204843823],[-45.776993036270099,-23.589799375104501],[-45.777465105056798,-23.589494574379],[-45.7778513431549,-23.589396251413302],[-45.778194665908799,-23.589317592987602],[-45.778623819351203,-23.589297928373899],[-45.778967142105103,-23.5891602759949],[-45.779181718826301,-23.588963629488799],[-45.779321193695097,-23.588727653292398],[-45.779567956924403,-23.5885113414062],[-45.779782533645601,-23.588344191068099],[-45.780136585235603,-23.588177040517099],[-45.7804691791534,-23.588059051764699],[-45.780683755874598,-23.5879803925374],[-45.776435136795001,-23.585109298474698],[-45.7767462730408,-23.5849421438032],[-45.777035951614401,-23.584696327723101],[-45.7772827148438,-23.584440678511399],[-45.777508020401001,-23.584322686399599],[-45.777604579925502,-23.5843030210373],[-45.775662660598798,-23.581363016227201],[-45.774257183075001,-23.581117193443799],[-45.773731470107997,-23.581028697129099],[-45.7733988761902,-23.580881203138599],[-45.773098468780503,-23.5807238760327],[-45.772830247879,-23.580605880579601],[-45.772572755813599,-23.5805173839201],[-45.772283077239997,-23.580458386114],[-45.772004127502399,-23.580458386114],[-45.771682262420697,-23.580556715776101],[-45.771467685699498,-23.580733708982301],[-45.771328210830703,-23.580950033688101],[-45.771242380142198,-23.581166358037301],[-45.771199464798002,-23.581441679420699],[-45.771199464798002,-23.581756331723199],[-45.7712209224701,-23.581972654743598],[-45.771381855011001,-23.582936271139602],[-45.771489143371603,-23.583132926677798],[-45.772122144699097,-23.583408243936098],[-45.772433280944803,-23.583978542134101],[-45.772551298141501,-23.584263690303899],[-45.772744417190601,-23.5849618090697],[-45.772980451583898,-23.585738584740199],[-45.771800279617302,-23.5868496609353],[-45.771682262420697,-23.588236034853502],[-45.771199464798002,-23.588255699626401],[-45.770866870880099,-23.588245867240399],[-45.770426988601699,-23.588236034853502],[-45.769976377487197,-23.588216370077699],[-45.769579410553,-23.588177040517099],[-45.769214630127003,-23.588098381360599],[-45.768924951553302,-23.588029554559999],[-45.768613815307603,-23.5879508953151],[-45.768463611602797,-23.587891900850401],[-45.768302679061897,-23.587911565674901],[-45.768109560012803,-23.587941062906101],[-45.7679057121277,-23.587901733262999],[-45.767658948898301,-23.587852571192599],[-45.767358541488598,-23.5877247497233],[-45.767111778259299,-23.587587095694001],[-45.7668328285217,-23.5874297766265],[-45.766586065292401,-23.587321619658301],[-45.766382217407198,-23.5872626249107],[-45.7662320137024,-23.587164300272601],[-45.766006708145099,-23.587154467804702],[-45.765781402587898,-23.587105305454301],[-45.765395164489703,-23.587006980698199],[-45.765084028243997,-23.587567430820901],[-45.7647836208344,-23.588039386962301],[-45.764611959457397,-23.588157375732401],[-45.764386653900097,-23.588226202466],[-45.764129161834703,-23.588236034853502],[-45.763871669769301,-23.588147543338899],[-45.763646364212001,-23.588029554559999],[-45.763410329818697,-23.5879607277232],[-45.763217210769703,-23.5879902249434],[-45.7630455493927,-23.588147543338899],[-45.762927532196002,-23.588413017703701],[-45.762841701507597,-23.588531006137899],[-45.762627124786398,-23.5885900003152],[-45.7624125480652,-23.5885900003152],[-45.762187242507899,-23.588688323884998],[-45.761961936950698,-23.588766982687901],[-45.761661529541001,-23.588914467816199],[-45.761479139328003,-23.5889537971557],[-45.761200189590497,-23.588894803142001],[-45.760996341705301,-23.5888554737848],[-45.760792493820198,-23.588845641443601],[-45.760567188262897,-23.5888554737848],[-45.760352611541798,-23.5889243001522],[-45.760180950164802,-23.589042288126599],[-45.759934186935403,-23.589199605260799],[-45.759687423706097,-23.589425748310699],[-45.759580135345502,-23.589602729556201],[-45.760717391967802,-23.590123839615],[-45.7607066631317,-23.590330316612899],[-45.7607710361481,-23.590566289927001],[-45.760824680328398,-23.590723605233901],[-45.760620832443202,-23.590930081288001],[-45.760459899902301,-23.591136557017201],[-45.760320425033598,-23.591352864575398],[-45.760245323181202,-23.591579003914099],[-45.760223865508998,-23.591864135568098],[-45.760256052017198,-23.592168930788901],[-45.760320425033598,-23.592483557370802],[-45.760277509689303,-23.5926801986013],[-45.760138034820599,-23.592876839537102],[-45.759987831115701,-23.593024320045501],[-45.759805440902703,-23.593171800388099],[-45.759623050689697,-23.593338944576001],[-45.759537220001199,-23.593574912478701],[-45.7596659660339,-23.593742056153001],[-45.759902000427203,-23.593850207828702],[-45.760148763656602,-23.594056678962101],[-45.760427713394201,-23.594164830378499],[-45.760717391967802,-23.5942336539606],[-45.759955644607501,-23.5954134811826],[-45.759891271591201,-23.595580622514301],[-45.759805440902703,-23.595983727202601],[-45.759719610214198,-23.596416325977899],[-45.759655237197897,-23.596681783610801],[-45.759505033492999,-23.5969374089719],[-45.759537220001199,-23.597104548361699],[-45.759633779525799,-23.597478153286399],[-45.7596981525421,-23.5977632721182],[-45.759655237197897,-23.597910747132801],[-45.759590864181497,-23.5981762017413],[-45.759440660476699,-23.598510477150601],[-45.759387016296401,-23.5987660989476],[-45.759376287460299,-23.599090541280201],[-45.759354829788201,-23.5993068357227],[-45.759322643280001,-23.599532961349301],[-45.759150981903097,-23.599818075714101],[-45.759118795394897,-23.600014705949398],[-45.759172439575202,-23.600142515444301],[-45.758936405181899,-23.600427628483899],[-45.758764743804903,-23.6006242578053],[-45.7586574554443,-23.600899538359901],[-45.7586574554443,-23.601184649753701],[-45.7586574554443,-23.601499254710198],[-45.758678913116498,-23.6018826784805],[-45.758668184280403,-23.602187450421301],[-45.758700370788603,-23.602413571080898],[-45.758743286132798,-23.6026396913506],[-45.758775472640998,-23.602895305099],[-45.758796930313103,-23.6030329430648],[-45.758668184280403,-23.6032885560466],[-45.758635997772203,-23.603436024847898],[-45.7584965229034,-23.603799780515299],[-45.7587540149689,-23.603976742366999],[-45.758968591690099,-23.6040062359858],[-45.7592582702637,-23.603947248741601],[-45.759580135345502,-23.6040258983945],[-45.759869813919103,-23.6040062359858],[-45.760138034820599,-23.6040652232033],[-45.7603311538696,-23.604193028750299],[-45.760535001754803,-23.6041438727854],[-45.760717391967802,-23.604173366366599],[-45.760921239852898,-23.604173366366599],[-45.761135816574097,-23.604212691131099],[-45.761446952819803,-23.6041242103943],[-45.761779546737699,-23.604094716802098],[-45.762112140655503,-23.6040652232033],[-45.762423276901202,-23.603957079950799],[-45.762637853622401,-23.603927586320999],[-45.762938261032097,-23.603996404780201],[-45.763195753097499,-23.6041438727854],[-45.763410329818697,-23.604330665353899],[-45.763646364212001,-23.604379821248799],[-45.763839483261101,-23.6044584706422],[-45.764129161834703,-23.604448639470601],[-45.764418840408297,-23.6045174576563],[-45.764729976654003,-23.604655093919401],[-45.764966011047399,-23.6047927300379]]]]}},
{"type":"Feature","properties":{"recibo":"SP-3545001-1505286789694E6DA1258142A9F5C68C","modfiscais":40.8901,"tema":"Área Líquida do Imóvel","area":285.5261,"municipio":"Salesópolis","estado":"São Paulo"},"geometry":{"type":"MultiPolygon","coordinates":[[[[-45.760287259352353,-23.594899861938764],[-45.759955644607501,-23.5954134811826],[-45.759891271591201,-23.595580622514301],[-45.759805440902703,-23.595983727202601],[-45.759719610214198,-23.596416325977899],[-45.759655237197897,-23.596681783610801],[-45.759505033492999,-23.5969374089719],[-45.759537220001199,-23.597104548361699],[-45.759633779525799,-23.597478153286399],[-45.7596981525421,-23.5977632721182],[-45.759655237197897,-23.597910747132801],[-45.759590864181497,-23.5981762017413],[-45.759440660476699,-23.598510477150601],[-45.759387016296401,-23.5987660989476],[-45.759376287460299,-23.599090541280201],[-45.759354829788201,-23.5993068357227],[-45.759322643280001,-23.599532961349301],[-45.759150981903097,-23.599818075714101],[-45.759118795394897,-23.600014705949398],[-45.759172439575202,-23.600142515444301],[-45.758936405181899,-23.600427628483899],[-45.758764743804903,-23.6006242578053],[-45.7586574554443,-23.600899538359901],[-45.7586574554443,-23.601184649753701],[-45.7586574554443,-23.601499254710198],[-45.758678913116498,-23.6018826784805],[-45.758668184280403,-23.602187450421301],[-45.758700370788603,-23.602413571080898],[-45.758743286132798,-23.6026396913506],[-45.758775472640998,-23.602895305099],[-45.758796930313103,-23.6030329430648],[-45.758668184280403,-23.6032885560466],[-45.758635997772203,-23.603436024847898],[-45.7584965229034,-23.603799780515299],[-45.7587540149689,-23.603976742366999],[-45.758968591690099,-23.6040062359858],[-45.7592582702637,-23.603947248741601],[-45.759580135345502,-23.6040258983945],[-45.759869813919103,-23.6040062359858],[-45.760138034820599,-23.6040652232033],[-45.7603311538696,-23.604193028750299],[-45.760535001754803,-23.6041438727854],[-45.760717391967802,-23.604173366366599],[-45.760921239852898,-23.604173366366599],[-45.761135816574097,-23.604212691131099],[-45.761446952819803,-23.6041242103943],[-45.761779546737699,-23.604094716802098],[-45.762112140655503,-23.6040652232033],[-45.762423276901202,-23.603957079950799],[-45.762637853622401,-23.603927586320999],[-45.762938261032097,-23.603996404780201],[-45.763195753097499,-23.6041438727854],[-45.763410329818697,-23.604330665353899],[-45.763646364212001,-23.604379821248799],[-45.763839483261101,-23.6044584706422],[-45.764129161834703,-23.604448639470601],[-45.764418840408297,-23.6045174576563],[-45.764729976654003,-23.604655093919401],[-45.764966011047399,-23.6047927300379],[-45.769826173782398,-23.599601782114799],[-45.772910739914273,-23.596464326339788],[-45.772550383336515,-23.596319489800464],[-45.77214373618569,-23.596265858555611],[-45.770562264907134,-23.596198168273855],[-45.770562180175794,-23.596198164446783],[-45.769419226805908,-23.596143836818623],[-45.769418826522838,-23.596143813312587],[-45.768445323171164,-23.596075737116895],[-45.768444896370198,-23.596075702155147],[-45.767281103122812,-23.595966391759408],[-45.767280857347266,-23.595966366969048],[-45.765879477655275,-23.595815276660527],[-45.764456446645383,-23.595677114321393],[-45.763263189786237,-23.595593811180841],[-45.762245656455939,-23.595538214311727],[-45.761391775602043,-23.595731740705123],[-45.761388468340428,-23.595732172822611],[-45.761385138195728,-23.59573198616464],[-45.761381899939508,-23.595731187164269],[-45.760863678821423,-23.595550863122611],[-45.760860769100105,-23.595549550376411],[-45.760858137624496,-23.595547743412972],[-45.760855867465104,-23.595545499274586],[-45.760392286497805,-23.594997576471854],[-45.760287259352353,-23.594899861938764]]],[[[-45.772373945939897,-23.58630958117319],[-45.771800279617302,-23.5868496609353],[-45.771682262420697,-23.588236034853502],[-45.771199464798002,-23.588255699626401],[-45.770866870880099,-23.588245867240399],[-45.770426988601699,-23.588236034853502],[-45.769976377487197,-23.588216370077699],[-45.769579410553,-23.588177040517099],[-45.769214630127003,-23.588098381360599],[-45.768924951553302,-23.588029554559999],[-45.768613815307603,-23.5879508953151],[-45.768463611602797,-23.587891900850401],[-45.768302679061897,-23.587911565674901],[-45.768109560012803,-23.587941062906101],[-45.7679057121277,-23.587901733262999],[-45.767658948898301,-23.587852571192599],[-45.767358541488598,-23.5877247497233],[-45.767111778259299,-23.587587095694001],[-45.7668328285217,-23.5874297766265],[-45.766586065292401,-23.587321619658301],[-45.766382217407198,-23.5872626249107],[-45.7662320137024,-23.587164300272601],[-45.766006708145099,-23.587154467804702],[-45.765781402587898,-23.587105305454301],[-45.765395164489703,-23.587006980698199],[-45.765084028243997,-23.587567430820901],[-45.7647836208344,-23.588039386962301],[-45.764611959457397,-23.588157375732401],[-45.764386653900097,-23.588226202466],[-45.764129161834703,-23.588236034853502],[-45.763871669769301,-23.588147543338899],[-45.763646364212001,-23.588029554559999],[-45.763410329818697,-23.5879607277232],[-45.763217210769703,-23.5879902249434],[-45.7630455493927,-23.588147543338899],[-45.762927532196002,-23.588413017703701],[-45.762841701507597,-23.588531006137899],[-45.762627124786398,-23.5885900003152],[-45.7624125480652,-23.5885900003152],[-45.762187242507899,-23.588688323884998],[-45.761961936950698,-23.588766982687901],[-45.761661529541001,-23.588914467816199],[-45.761479139328003,-23.5889537971557],[-45.761200189590497,-23.588894803142001],[-45.760996341705301,-23.5888554737848],[-45.760792493820198,-23.588845641443601],[-45.760567188262897,-23.5888554737848],[-45.760352611541798,-23.5889243001522],[-45.760180950164802,-23.589042288126599],[-45.759934186935403,-23.589199605260799],[-45.759687423706097,-23.589425748310699],[-45.759580135345502,-23.589602729556201],[-45.760717391967802,-23.590123839615],[-45.7607066631317,-23.590330316612899],[-45.7607710361481,-23.590566289927001],[-45.760824680328398,-23.590723605233901],[-45.760620832443202,-23.590930081288001],[-45.760459899902301,-23.591136557017201],[-45.760320425033598,-23.591352864575398],[-45.760245323181202,-23.591579003914099],[-45.760223865508998,-23.591864135568098],[-45.760256052017198,-23.592168930788901],[-45.760320425033598,-23.592483557370802],[-45.760277509689303,-23.5926801986013],[-45.760138034820599,-23.592876839537102],[-45.759987831115701,-23.593024320045501],[-45.759805440902703,-23.593171800388099],[-45.759623050689697,-23.593338944576001],[-45.759537220001199,-23.593574912478701],[-45.7596659660339,-23.593742056153001],[-45.759902000427203,-23.593850207828702],[-45.760148763656602,-23.594056678962101],[-45.760427713394201,-23.594164830378499],[-45.760717391967802,-23.5942336539606],[-45.760307055598467,-23.594869200657513],[-45.7604175475076,-23.594971999465049],[-45.760419025387002,-23.594973548702555],[-45.760880126570797,-23.59551854056113],[-45.761388850233864,-23.595695559798305],[-45.762240160561745,-23.595502615997468],[-45.762245111981791,-23.595502198365551],[-45.763265285749434,-23.59555793950517],[-45.763265556763614,-23.595557956368122],[-45.764459191828763,-23.595641285911832],[-45.764459676805778,-23.595641326376114],[-45.765883044929609,-23.595779521445703],[-45.765883234624908,-23.59577954087996],[-45.767284586310346,-23.59593062816894],[-45.768448043392347,-23.596039906990026],[-45.769421133125007,-23.596107954261718],[-45.770563843860849,-23.596162270356835],[-45.772146066253704,-23.596229992787855],[-45.772147647130552,-23.596230130597036],[-45.772557329219907,-23.596284162109125],[-45.772561680231128,-23.5962853039665],[-45.772938029819912,-23.596436568506629],[-45.772948265075698,-23.596426157751601],[-45.776242017746,-23.597419163105801],[-45.776424407958999,-23.5973798363041],[-45.776606798171997,-23.597232360692502],[-45.776799917221098,-23.5970062310994],[-45.777014493942303,-23.596878418548201],[-45.777304172515898,-23.596868586808299],[-45.777518749237103,-23.596239353924101],[-45.777046680450397,-23.596150867807602],[-45.776413679122903,-23.595934568160601],[-45.775952339172399,-23.595728099982999],[-45.775587558746302,-23.5955117996388],[-45.775244235992403,-23.595187348453798],[-45.775051116943402,-23.594833400791199],[-45.774911642074599,-23.594449956412401],[-45.774793624877901,-23.594046847010699],[-45.774707794189403,-23.5939485274566],[-45.774450302124002,-23.593840375861902],[-45.774364471435597,-23.5936142404212],[-45.774385929107702,-23.593368440587099],[-45.774439573287999,-23.5931226402924],[-45.7745039463043,-23.592886671576199],[-45.774664878845201,-23.592591710084001],[-45.774900913238497,-23.592336076254501],[-45.7752335071564,-23.591775646500398],[-45.775812864303603,-23.591274207322801],[-45.775995254516602,-23.591205382188001],[-45.775920152664199,-23.5907137730328],[-45.776338577270501,-23.5903204843823],[-45.776993036270099,-23.589799375104501],[-45.777465105056798,-23.589494574379],[-45.7778513431549,-23.589396251413302],[-45.778194665908799,-23.589317592987602],[-45.778623819351203,-23.589297928373899],[-45.778967142105103,-23.5891602759949],[-45.779181718826301,-23.588963629488799],[-45.779321193695097,-23.588727653292398],[-45.779567956924403,-23.5885113414062],[-45.779782533645601,-23.588344191068099],[-45.780136585235603,-23.588177040517099],[-45.7804691791534,-23.588059051764699],[-45.780683755874598,-23.5879803925374],[-45.776505075088572,-23.585156560753489],[-45.776238572997805,-23.585337985316279],[-45.776236118600018,-23.585339387203685],[-45.776233474708484,-23.58534038680078],[-45.77582020236153,-23.585460444244287],[-45.775403430295945,-23.585625032914045],[-45.775403351525163,-23.585625063807431],[-45.774711163608849,-23.585894656462902],[-45.77470712980265,-23.585895708518613],[-45.774040600010629,-23.585988854787033],[-45.774038487524891,-23.585989023799819],[-45.773543532126567,-23.585999332342379],[-45.772927510805026,-23.58615324518372],[-45.772885030812226,-23.586182439018732],[-45.772880965005122,-23.586184527664788],[-45.772452012871241,-23.586339651601687],[-45.772448640044736,-23.586340512729922],[-45.772445164465218,-23.586340707274076],[-45.772441716606373,-23.586340227930936],[-45.772438425901271,-23.586339092695109],[-45.772373945939897,-23.58630958117319]]],[[[-45.776473031199963,-23.585134906419079],[-45.776435136795001,-23.585109298474698],[-45.7767462730408,-23.5849421438032],[-45.777035951614401,-23.584696327723101],[-45.7772827148438,-23.584440678511399],[-45.777508020401001,-23.584322686399599],[-45.777604579925502,-23.5843030210373],[-45.775662660598798,-23.581363016227201],[-45.774257183075001,-23.581117193443799],[-45.773731470107997,-23.581028697129099],[-45.7733988761902,-23.580881203138599],[-45.773098468780503,-23.5807238760327],[-45.772830247879,-23.580605880579601],[-45.772572755813599,-23.5805173839201],[-45.772283077239997,-23.580458386114],[-45.772004127502399,-23.580458386114],[-45.771682262420697,-23.580556715776101],[-45.771467685699498,-23.580733708982301],[-45.771328210830703,-23.580950033688101],[-45.771242380142198,-23.581166358037301],[-45.771199464798002,-23.581441679420699],[-45.771199464798002,-23.581756331723199],[-45.7712209224701,-23.581972654743598],[-45.771381855011001,-23.582936271139602],[-45.771489143371603,-23.583132926677798],[-45.772122144699097,-23.583408243936098],[-45.772433280944803,-23.583978542134101],[-45.772551298141501,-23.584263690303899],[-45.772744417190601,-23.5849618090697],[-45.772980451583898,-23.585738584740199],[-45.772402189970855,-23.586282990751339],[-45.772446700655152,-23.586303362631337],[-45.772866578211172,-23.58615152037585],[-45.772909832757826,-23.586121794238551],[-45.772912625664404,-23.586120221751838],[-45.772915653538313,-23.586119170551939],[-45.773536782651732,-23.585963981529506],[-45.773540763549562,-23.585963449611679],[-45.774036678075554,-23.585953121093162],[-45.774700078272005,-23.585860412179759],[-45.77539027130603,-23.585591596489042],[-45.775807784889381,-23.585426714984344],[-45.775809371978028,-23.585426172398929],[-45.776220710720963,-23.585306676675938],[-45.776473031199963,-23.585134906419079]]]]}}
]
}
