{
"type": "FeatureCollection",
"name": "Fazenda Vale das Flores",
"crs": { "type": "name", "properties": { "name": "urn:ogc:def:crs:OGC:1.3:CRS84" } },
"features": [
{"type":"Feature","properties":{"id":14789231},"geometry":{"type":"MultiPolygon","coordinates":[[[[-46.598037718766498,-23.185019906986],[-46.598176062994497,-23.184969995785],[-46.598404129275202,-23.184738733212001],[-46.598586393716097,-23.1844807905265],[-46.599450359032197,-23.183799904726499],[-46.599753799523903,-23.183765043592299],[-46.599875078587601,-23.183700166716001],[-46.599932985279402,-23.183586133169801],[-46.600068670749501,-23.183456477247599],[-46.600441422252203,-23.1835071028577],[-46.600651013298702,-23.183625343838401],[-46.600885374099803,-23.183805002387999],[-46.601321051954798,-23.184024932586599],[-46.601836384095201,-23.184325827626999],[-46.602287285611098,-23.184527030352498],[-46.6025459344525,-23.184608077942801],[-46.602686062762103,-23.184615985833801],[-46.602988475430799,-23.184536891427999],[-46.603282237271003,-23.184411710058999],[-46.603402329997202,-23.184332719282999],[-46.603703173991903,-23.184055206336001],[-46.603890899428201,-23.183886229575599],[-46.604156380008803,-23.1836576512477],[-46.604598030841203,-23.183330388582899],[-46.604910939385199,-23.182775256060602],[-46.605068784826003,-23.182570449942499],[-46.605266322103397,-23.182399914924702],[-46.605436545990997,-23.182238743132402],[-46.605619049623201,-23.1820890640671],[-46.605756596022701,-23.182080422414099],[-46.605920381906103,-23.182098368424899],[-46.606104942043203,-23.182139167758098],[-46.606288816546702,-23.182152533432198],[-46.606431336387402,-23.182168140962599],[-46.606888076578301,-23.182049642556201],[-46.607101849916702,-23.181971188335599],[-46.607260236412003,-23.181918668501499],[-46.607537319955298,-23.181838801124702],[-46.607814749049098,-23.181825257790699],[-46.607828426222902,-23.181634702943899],[-46.608386393947903,-23.1815398210883],[-46.608427421273802,-23.1815171506369],[-46.6094448624089,-23.1806495400179],[-46.609776217313701,-23.180344591601699],[-46.610171119146003,-23.1800324138928],[-46.610361117476998,-23.1798033243813],[-46.610547034047997,-23.179556951605999],[-46.610639867405197,-23.179526721701301],[-46.610699079597701,-23.179310978577998],[-46.610805015235897,-23.179115153144298],[-46.610919306616999,-23.178857334192799],[-46.611093437961799,-23.178493355678899],[-46.6113264847273,-23.1779727170901],[-46.611530136845801,-23.177454813331298],[-46.611589083625603,-23.177232767456601],[-46.611566279980302,-23.177029491225198],[-46.611452183212499,-23.1765236011944],[-46.612249777370003,-23.1757903394486],[-46.612946601151698,-23.175237049395498],[-46.613421069992697,-23.174820014330201],[-46.613918305126099,-23.174215012162499],[-46.6142377110612,-23.173999080135498],[-46.614763202841303,-23.1735824456239],[-46.617152783854699,-23.175170170987101],[-46.6182362059292,-23.173739673138801],[-46.619795518975501,-23.176553363599702],[-46.620130136832501,-23.176612650383301],[-46.620371652358997,-23.1765653672295],[-46.620595887465299,-23.1764363900161],[-46.620684351937498,-23.176438835619201],[-46.620802251532801,-23.176414491987899],[-46.620911104574098,-23.176362594767099],[-46.620911886387802,-23.176280366152699],[-46.620873049322903,-23.176178219196199],[-46.620924673326698,-23.176079196413099],[-46.621035090822303,-23.1760546187991],[-46.621191593808398,-23.175640474646599],[-46.621195231222998,-23.175397202627501],[-46.6211683044192,-23.1751502668114],[-46.621006280354997,-23.1747521901368],[-46.6210695101704,-23.174701664266401],[-46.621000562729499,-23.174363466696299],[-46.620982421476903,-23.174135557848601],[-46.621138736779898,-23.173873890323499],[-46.618868781767702,-23.173047546511],[-46.618206585481602,-23.172712983242601],[-46.6178312955225,-23.1725283609371],[-46.6179231080432,-23.171226505133099],[-46.618126908896002,-23.169332143650401],[-46.619494291898697,-23.169868302838399],[-46.621877132196197,-23.170592061007],[-46.6219774243038,-23.170558534152399],[-46.622007200275398,-23.170470695186101],[-46.621978898384697,-23.170395495452599],[-46.621869149559103,-23.170294757845799],[-46.621843485525197,-23.170151503656498],[-46.621937269851799,-23.1699436757991],[-46.622379376161298,-23.1694222526103],[-46.622476108269602,-23.169135713674699],[-46.620872655461298,-23.16860562418],[-46.619688175179903,-23.168223682115801],[-46.619568843343899,-23.16818733002],[-46.618174908247198,-23.167994262047898],[-46.6183211682768,-23.165895200862799],[-46.617657158046597,-23.165651784510001],[-46.617114254697299,-23.1654621252558],[-46.616970698695901,-23.165517389143101],[-46.616896632172697,-23.165513782574799],[-46.6167732518403,-23.165485062150101],[-46.616643413492298,-23.165409303084999],[-46.616486377499399,-23.165348288472501],[-46.616190679864403,-23.165163179630898],[-46.615970372796802,-23.165015723719801],[-46.615834655125298,-23.1647855608044],[-46.615783518117397,-23.164548536175602],[-46.6157241185781,-23.1642929978638],[-46.615585112412802,-23.164071336331801],[-46.615230132115897,-23.163737413990599],[-46.614755538964403,-23.1632570414729],[-46.614232623892498,-23.162702324494798],[-46.613945428167099,-23.162534899285198],[-46.613868683220403,-23.162611351627501],[-46.614227625666203,-23.1642077871001],[-46.613988131794699,-23.165008074442401],[-46.613751926209297,-23.165710131441699],[-46.613618973248101,-23.1661888601983],[-46.613343429584198,-23.166984934686301],[-46.610659146411798,-23.1657671089296],[-46.608024245857401,-23.168893741803501],[-46.608310391903402,-23.170517622242201],[-46.608454102932697,-23.171889654463602],[-46.606044320264402,-23.1704742276929],[-46.605005655757701,-23.1698848717262],[-46.601281805890302,-23.1675764763236],[-46.6009181854633,-23.167877238842198],[-46.600647794322803,-23.168119398981901],[-46.600422559870097,-23.168013675721902],[-46.600194884186301,-23.168151741569499],[-46.5998036473299,-23.1680950125848],[-46.599205453916802,-23.1683017195129],[-46.599006497735701,-23.1685028310362],[-46.598607723005202,-23.1688407381627],[-46.598307963773699,-23.169099945778498],[-46.597978032539501,-23.169362435992099],[-46.597747931080598,-23.1695569117338],[-46.597748596084699,-23.169801961907002],[-46.597970797801302,-23.170494031308198],[-46.598089369337004,-23.170633229977899],[-46.598547127537401,-23.171190363924001],[-46.598934656207099,-23.171697672582599],[-46.599076210023803,-23.172207912415299],[-46.599426246102702,-23.172742150634701],[-46.599141375728102,-23.172836987691898],[-46.598756700612697,-23.173167391597602],[-46.598191509786901,-23.173556824043501],[-46.5977189192431,-23.173482783394199],[-46.597148066919303,-23.173377731219102],[-46.596745821720397,-23.173182102793302],[-46.596272459932102,-23.1731062368493],[-46.595857182978399,-23.1729124286691],[-46.595676202804803,-23.1727828878638],[-46.595519585486102,-23.172398168493402],[-46.595344938107203,-23.171869255135402],[-46.595031562304101,-23.1713691916116],[-46.594697023298799,-23.170983510662001],[-46.594559927624303,-23.1706634768207],[-46.594678807556498,-23.170165486111099],[-46.593756338551401,-23.1696770096625],[-46.592982301190503,-23.1693301222193],[-46.591936028093201,-23.168978505024601],[-46.591025801305001,-23.170164683453802],[-46.5905661793959,-23.1708321914424],[-46.589804429597997,-23.171888226432898],[-46.589675736121698,-23.1720984671901],[-46.589042771449101,-23.173080248285],[-46.588705143694398,-23.173628246440799],[-46.5886746658595,-23.173702396197299],[-46.588576444973199,-23.173718272055599],[-46.588227477732403,-23.173763472808201],[-46.587702766102403,-23.173871763656699],[-46.587060192094903,-23.1740116374636],[-46.586861194869897,-23.17410513934],[-46.586710519952099,-23.174214495929998],[-46.586575538749898,-23.1742002688204],[-46.585588057015698,-23.174228593989699],[-46.5847623571631,-23.174277057633699],[-46.5840447647129,-23.1742544510629],[-46.583861568000799,-23.1737533491204],[-46.583331087782703,-23.1738342615104],[-46.583176337726897,-23.173851590719298],[-46.5829948272115,-23.1738477431566],[-46.582678599561604,-23.173887561651402],[-46.582505299368599,-23.1738993031597],[-46.582393953786898,-23.1738852485379],[-46.581938304337598,-23.1737210918212],[-46.581594809185098,-23.173543408568101],[-46.581270906168001,-23.1732669539916],[-46.580570639778301,-23.1731178401314],[-46.580572403850198,-23.173175049639202],[-46.5804955668712,-23.173226939005101],[-46.580482684886,-23.1732598783626],[-46.580531039652399,-23.173335967641599],[-46.5805793311211,-23.1733855232353],[-46.580642889874802,-23.173463246824902],[-46.5806501571411,-23.173528115972601],[-46.5806349499871,-23.173654032824],[-46.580608423461904,-23.173766015967399],[-46.580663978636402,-23.173986695902101],[-46.580860956455503,-23.174189743354098],[-46.580831208673402,-23.1743592285431],[-46.580796847592502,-23.1746456639179],[-46.580734366986597,-23.1748465356197],[-46.580684087526201,-23.175088589834701],[-46.580636933710799,-23.175290724345],[-46.580632057592403,-23.1756130204326],[-46.580675315643198,-23.1758357946748],[-46.580649018393899,-23.176097331531999],[-46.580530809676297,-23.176362425207],[-46.579477759351498,-23.176394679765099],[-46.579532852336001,-23.176702024811],[-46.579473840357899,-23.176720052007301],[-46.579515493123999,-23.176945148081799],[-46.579668594333597,-23.177394417561199],[-46.579735430540197,-23.1774004334399],[-46.579763710644599,-23.177452290526201],[-46.579716520402201,-23.1775889897343],[-46.579718742464102,-23.177623789904001],[-46.579790786052499,-23.177850881602801],[-46.579945491478398,-23.178223347991398],[-46.580250104254297,-23.1787888169609],[-46.580757775873899,-23.1798200737569],[-46.581327980389901,-23.181048530691299],[-46.582118092383503,-23.1806726588228],[-46.5821940290691,-23.180422315466],[-46.582105742392898,-23.180277919350999],[-46.582839224224998,-23.180258487724501],[-46.584416428766403,-23.1801875305765],[-46.586882301889297,-23.180234347616],[-46.587431177726501,-23.1802308636587],[-46.587744991474402,-23.180192729108001],[-46.587500992464904,-23.179724318370798],[-46.587213304612398,-23.179240900948901],[-46.587018286906897,-23.1789563706119],[-46.5868427054086,-23.1786828922524],[-46.586775876506998,-23.178484532511401],[-46.586770899480598,-23.1782384782185],[-46.586673423495299,-23.177307008152699],[-46.586679781755599,-23.176814700192399],[-46.586219172871203,-23.176420829261801],[-46.586331914637903,-23.176287584674199],[-46.586623796979801,-23.1763855203614],[-46.586914890665902,-23.176428541641599],[-46.587072795143797,-23.176324868980402],[-46.587166542662402,-23.1761636022459],[-46.587251582520402,-23.176146750449],[-46.588389829740599,-23.175876686112598],[-46.589056586744398,-23.175633806714401],[-46.589378953053497,-23.175780912141601],[-46.589810541102104,-23.176042723246901],[-46.590313132757501,-23.1762954694059],[-46.590876388300998,-23.1766336584644],[-46.591583639306599,-23.177081071403698],[-46.592420670911103,-23.176478699707101],[-46.592761535806098,-23.1768934132458],[-46.592611149515399,-23.177610081561902],[-46.5930091238451,-23.178220383800301],[-46.593512475460102,-23.1785390827378],[-46.5942890046163,-23.179052106398],[-46.594563708837903,-23.1791095521213],[-46.595847916478597,-23.179353764047601],[-46.596626336409301,-23.179480212939101],[-46.597580461424101,-23.179625691229401],[-46.597977227443401,-23.179735973371098],[-46.597940109032898,-23.1800659116454],[-46.597781898961003,-23.180059407040101],[-46.597745491738898,-23.1808387952563],[-46.597401835326899,-23.1813397943612],[-46.596825098157503,-23.1821613430848],[-46.597082005556601,-23.1826189156777],[-46.5983266213223,-23.1825898518427],[-46.598479146400102,-23.183451396769701],[-46.597358194304,-23.1832393008347],[-46.597375682833999,-23.183681226482701],[-46.597546171780401,-23.184116701601599],[-46.597708929082401,-23.1845937353519],[-46.597796503018998,-23.185018147659498],[-46.598037718766498,-23.185019906986]]]]}}
]
}
