{
"type": "FeatureCollection",
"name": "Instituto Olhos Dagua",
"crs": { "type": "name", "properties": { "name": "urn:ogc:def:crs:OGC:1.3:CRS84" } },
"features": [
{"type":"Feature","properties":{"Nome do Projeto":null,"Município":null,"Região Hidrográfica":null,"UGRHI":null,"Propriedade":"Instituto Olhos D'água","Área (ha)":15.225170895434916,"Fotos do Projeto":null},"geometry":{"type":"MultiPolygon","coordinates":[[[[-46.133029040708898,-23.629890495609299],[-46.1333506995744,-23.629878831572899],[-46.133645536380499,-23.6298376793305],[-46.134305154476202,-23.629749833225802],[-46.1349433137581,-23.6296472404029],[-46.135946045033201,-23.629564913953399],[-46.136673935563401,-23.628739235133999],[-46.135780090542397,-23.6276727364354],[-46.135722084370101,-23.627313957723899],[-46.135652848266197,-23.627137025792599],[-46.135562154555501,-23.6269944970058],[-46.135354948798202,-23.6268126457698],[-46.133694648742697,-23.626296598179501],[-46.133268178568201,-23.626665205428601],[-46.132841706275897,-23.626906027813298],[-46.132637858390801,-23.6271075321491],[-46.1324769258499,-23.627358183451101],[-46.132203340530403,-23.627687469726801],[-46.131854653358502,-23.627952864033102],[-46.1313396692276,-23.628056072784702],[-46.131116937945201,-23.6297187740841],[-46.1314132688914,-23.629763777734901],[-46.1317465072934,-23.629801023214899],[-46.132128025421601,-23.629872670380902],[-46.133029040708898,-23.629890495609299]]]]}}
]
}
