{
"type": "FeatureCollection",
"name": "Manancial",
"crs": { "type": "name", "properties": { "name": "urn:ogc:def:crs:OGC:1.3:CRS84" } },
"features": [
{ "type": "Feature", "properties": { "CAR": "-", "Município": "Piracaia", "Área (ha)": 3277.4852515123257, "Estado": "São Paulo" }, "geometry": { "type": "MultiPolygon", "coordinates": [ [ [ [ -46.324378513633299, -23.078785309874601 ], [ -46.3241570968381, -23.078733711463599 ], [ -46.324027403441399, -23.0786781968132 ], [ -46.323996233984801, -23.078618713560601 ], [ -46.323984438389303, -23.078455298868199 ], [ -46.323953984107597, -23.077915786196399 ], [ -46.3239008266927, -23.076825492674399 ], [ -46.3238438516481, -23.0758875415099 ], [ -46.323804903564302, -23.075706078115601 ], [ -46.3236744860857, -23.075402550390098 ], [ -46.323289317506003, -23.074570525979102 ], [ -46.322951124026503, -23.073654582555001 ], [ -46.3228640539606, -23.073439128681699 ], [ -46.322751780609003, -23.073361457068501 ], [ -46.322613247278703, -23.0733134844685 ], [ -46.322464959146899, -23.073354031707002 ], [ -46.322322892757697, -23.073487878342299 ], [ -46.322139357401802, -23.073725250130501 ], [ -46.321912479089001, -23.073874546094199 ], [ -46.321679329618597, -23.0739256292925 ], [ -46.321360359995701, -23.073888991662699 ], [ -46.321020247809997, -23.073862356781099 ], [ -46.320739310753503, -23.073913838195601 ], [ -46.320533333401499, -23.074028564386499 ], [ -46.320043888563603, -23.074479760507899 ], [ -46.319912918321798, -23.074662644853401 ], [ -46.319501881231801, -23.075530810112799 ], [ -46.319371292743298, -23.075752996739102 ], [ -46.319212860303097, -23.075842758258901 ], [ -46.319085615575098, -23.075863474054199 ], [ -46.318947080759997, -23.075815498311702 ], [ -46.318866475186297, -23.075717906321199 ], [ -46.318827772737201, -23.0755610053588 ], [ -46.318829680933, -23.075212149233099 ], [ -46.318862824895298, -23.074799159361898 ], [ -46.318939980695298, -23.074543026671801 ], [ -46.3191534651315, -23.0741088783141 ], [ -46.319199384088499, -23.073916878199402 ], [ -46.319155420583002, -23.0737649345153 ], [ -46.319058646551397, -23.073642911592199 ], [ -46.318764071386703, -23.073384968437399 ], [ -46.3185018344642, -23.073175887857001 ], [ -46.318218264011698, -23.072957157648698 ], [ -46.318110489407204, -23.072795919963401 ], [ -46.318061169887002, -23.072639107273201 ], [ -46.318058919688099, -23.072408203371602 ], [ -46.3180623622832, -23.0722165578762 ], [ -46.318018878839602, -23.072113742292501 ], [ -46.317895942445197, -23.072031242714299 ], [ -46.317645477654999, -23.071939980065999 ], [ -46.317240649534199, -23.071810698166601 ], [ -46.317113073291601, -23.071797021852401 ], [ -46.316996690597598, -23.071842211281901 ], [ -46.316944359666202, -23.071921259892701 ], [ -46.316893080403901, -23.072108390864202 ], [ -46.316932352850202, -23.072324246339299 ], [ -46.316924555592102, -23.0726141932365 ], [ -46.316862895685603, -23.072825976715201 ], [ -46.3167423507522, -23.0729891189863 ], [ -46.3158198867972, -23.073689573095798 ], [ -46.315461835343598, -23.073797575591001 ], [ -46.314732458903599, -23.0738773463647 ], [ -46.314607187717399, -23.073964370957999 ], [ -46.314489568212103, -23.074155737857499 ], [ -46.314414158816298, -23.074592416823499 ], [ -46.314455653748396, -23.074764035236001 ], [ -46.314636113190097, -23.074891506748301 ], [ -46.314802104471198, -23.074896266807901 ], [ -46.315060957908301, -23.074894112186399 ], [ -46.315460208981499, -23.074995194683598 ], [ -46.315881762977199, -23.075341753036501 ], [ -46.316124709285504, -23.075751213857501 ], [ -46.316107965236, -23.0760768560001 ], [ -46.315849882217201, -23.076840559888701 ], [ -46.315659848314603, -23.077093946896699 ], [ -46.315435133653999, -23.077194083427202 ], [ -46.315209881077301, -23.0772389501 ], [ -46.314997484907401, -23.077240718394901 ], [ -46.314631354793903, -23.077133217298599 ], [ -46.314139174462397, -23.077032906078699 ], [ -46.313820461216601, -23.077023274225201 ], [ -46.3132903659383, -23.077119805895499 ], [ -46.312569574301797, -23.077402167211002 ], [ -46.312264910123602, -23.0774722561376 ], [ -46.312025964033701, -23.0774742410116 ], [ -46.311105060661099, -23.0769721369956 ], [ -46.310898646993301, -23.076906292448498 ], [ -46.310660356523499, -23.076975827439899 ], [ -46.310529513775798, -23.077173443402501 ], [ -46.310192461612303, -23.078011492987301 ], [ -46.310048402002501, -23.078215359723799 ], [ -46.309903865432801, -23.078370097699199 ], [ -46.309725249349803, -23.0784329944433 ], [ -46.309472193343701, -23.0783491103195 ], [ -46.3089456951271, -23.078132377693201 ], [ -46.3086398377853, -23.078079637823201 ], [ -46.307767081498802, -23.078436935877001 ], [ -46.306827589629997, -23.078757931797298 ], [ -46.306495537896602, -23.078742254132699 ], [ -46.306168937131098, -23.078603698800901 ], [ -46.305975766758401, -23.078432372879099 ], [ -46.305851644496599, -23.0782270418214 ], [ -46.305789676570903, -23.077859059472001 ], [ -46.305743828775498, -23.0775105965498 ], [ -46.305815558732299, -23.077239774250501 ], [ -46.306008988966397, -23.076923725887202 ], [ -46.306165533939897, -23.076637462230899 ], [ -46.306258549327097, -23.076371377069599 ], [ -46.306229911541401, -23.076155430508901 ], [ -46.305742250891797, -23.075147329432198 ], [ -46.305676730225002, -23.074961166935299 ], [ -46.305691047195403, -23.074793997839802 ], [ -46.3057589835391, -23.0746804310028 ], [ -46.305933448837003, -23.074600376795399 ], [ -46.306140531753798, -23.074598664777401 ], [ -46.306316229927397, -23.074646344681501 ], [ -46.306594524130503, -23.0748700532268 ], [ -46.306876704262997, -23.0749463311206 ], [ -46.307020070132197, -23.074945145029801 ], [ -46.3071944868584, -23.074860176527899 ], [ -46.307686115727698, -23.074630097715598 ], [ -46.307822840477201, -23.074491394579201 ], [ -46.307858678688, -23.074353526581799 ], [ -46.307793820700702, -23.074236144933899 ], [ -46.307718581237999, -23.074143415791202 ], [ -46.307199494642397, -23.0737300845169 ], [ -46.307054421406697, -23.0735544074806 ], [ -46.306989422088797, -23.073422286654601 ], [ -46.306668931034501, -23.072678121580299 ], [ -46.306687417353899, -23.072392999278499 ], [ -46.306792235448597, -23.072249647610899 ], [ -46.307182305946299, -23.0719516246604 ], [ -46.3073136239421, -23.071803140643901 ], [ -46.307328176176803, -23.071660535538498 ], [ -46.307289868839703, -23.071542933880501 ], [ -46.307156176540801, -23.071445774697398 ], [ -46.306048914417197, -23.071160135628599 ], [ -46.305798315978997, -23.071054115495599 ], [ -46.305674960118601, -23.070927389615601 ], [ -46.305534774961799, -23.0707074511655 ], [ -46.305521926915098, -23.0704766337936 ], [ -46.305705391966498, -23.069679168387701 ], [ -46.305755548018602, -23.069374131014001 ], [ -46.305715677905297, -23.069094404230501 ], [ -46.305612424654697, -23.068849593902701 ], [ -46.305360456109803, -23.068601099372099 ], [ -46.305120197898297, -23.068465512544599 ], [ -46.304838268644602, -23.0684137949223 ], [ -46.304498550627102, -23.068426426607001 ], [ -46.304212211915797, -23.068468096395801 ], [ -46.304016467867797, -23.0685434107845 ], [ -46.303911270564498, -23.068647457726801 ], [ -46.303824416970699, -23.069001929693499 ], [ -46.303819006347297, -23.069542434406699 ], [ -46.303938328169401, -23.069801853364702 ], [ -46.303998770697, -23.070012624880199 ], [ -46.303926092956203, -23.070185188951299 ], [ -46.3038263461508, -23.0703039308688 ], [ -46.303593810597697, -23.070418855053699 ], [ -46.303424753445597, -23.0705086886068 ], [ -46.303135703959903, -23.070820608736199 ], [ -46.303015284941701, -23.070998479517399 ], [ -46.303016515444298, -23.0711262148074 ], [ -46.303070984889203, -23.071268250444501 ], [ -46.303323522724803, -23.071575703206399 ], [ -46.303404446866502, -23.071707693811 ], [ -46.303405867146999, -23.0718550802663 ], [ -46.303348643716902, -23.071978384428601 ], [ -46.303190014721601, -23.072048478453699 ], [ -46.302919549907202, -23.0720851019165 ], [ -46.302632635685399, -23.072067815038601 ], [ -46.3025046348451, -23.072009910968202 ], [ -46.302343498193302, -23.071819621710699 ], [ -46.302272106602203, -23.0715745464862 ], [ -46.302230871091403, -23.0711523450044 ], [ -46.302292694899897, -23.0709553044505 ], [ -46.302490584204897, -23.070550785157199 ], [ -46.302546813833899, -23.070324311204399 ], [ -46.302523304813803, -23.070088667943999 ], [ -46.302371229052099, -23.069736165650401 ], [ -46.302142927517501, -23.069187760903901 ], [ -46.302060493607598, -23.068898557012801 ], [ -46.301941790874402, -23.068703004098101 ], [ -46.301700542885797, -23.068464241237798 ], [ -46.301108390612498, -23.0681792350493 ], [ -46.300874391570403, -23.068141855587399 ], [ -46.300725912468003, -23.0681627312552 ], [ -46.300573068302, -23.068281907729499 ], [ -46.300311036366303, -23.068642733790199 ], [ -46.3001684328745, -23.068722519505901 ], [ -46.300030571724001, -23.068743307175801 ], [ -46.299838859778802, -23.0686859249412 ], [ -46.299640658362797, -23.0685057641344 ], [ -46.299447672738403, -23.068315733491499 ], [ -46.299202110259699, -23.068180181034698 ], [ -46.298978447829697, -23.0681132337387 ], [ -46.298596252217699, -23.068126201912602 ], [ -46.298368317825101, -23.068167381147401 ], [ -46.298050355602697, -23.068233866345 ], [ -46.297890832313698, -23.06821061006 ], [ -46.2977518878482, -23.068118398977099 ], [ -46.297703300499101, -23.068035272386101 ], [ -46.297697142578997, -23.067946883986401 ], [ -46.297764517740703, -23.0677743660342 ], [ -46.297984973803302, -23.067507237804001 ], [ -46.298020396459499, -23.067325155545401 ], [ -46.298023726320103, -23.0671187702205 ], [ -46.297855407734097, -23.0667320040493 ], [ -46.297667076436603, -23.066473146587199 ], [ -46.297463665826399, -23.066302852226499 ], [ -46.297323828589803, -23.066117295651502 ], [ -46.297209643957601, -23.0658381760067 ], [ -46.297103488441103, -23.065288759412201 ], [ -46.297150554363498, -23.064659473271099 ], [ -46.297127714985699, -23.064492608825098 ], [ -46.297041115833402, -23.064321354903502 ], [ -46.296927168933202, -23.064066799117999 ], [ -46.296866975865299, -23.063880588340801 ], [ -46.296905002183898, -23.062308025195499 ], [ -46.296928064940403, -23.061944253038199 ], [ -46.297057831570498, -23.061633651409799 ], [ -46.297419936099097, -23.061188483444599 ], [ -46.297740930294097, -23.060886137530801 ], [ -46.297903586204399, -23.060683357633401 ], [ -46.298028370597599, -23.060407188491201 ], [ -46.298031559477501, -23.060186064685499 ], [ -46.297730396800297, -23.058680159225698 ], [ -46.297627448698499, -23.058464820086598 ], [ -46.297530752757297, -23.058347694754701 ], [ -46.297344177571603, -23.058270613838999 ], [ -46.297083556110998, -23.058223619856602 ], [ -46.296918500198302, -23.058175841345399 ], [ -46.296710264938298, -23.058054717275201 ], [ -46.2966556198541, -23.0578930273828 ], [ -46.296653784293198, -23.057701424192199 ], [ -46.297006475466503, -23.056828878479202 ], [ -46.297367061335699, -23.056226498481699 ], [ -46.297800982485199, -23.0555203365399 ], [ -46.297972272038002, -23.055111127531902 ], [ -46.298076177843299, -23.054319234639198 ], [ -46.2980310676191, -23.054044461022301 ], [ -46.297944662555402, -23.053892858411501 ], [ -46.297768334825101, -23.0537763873842 ], [ -46.297518010537701, -23.053694916371398 ], [ -46.296431818786999, -23.053374637244101 ], [ -46.296293690739297, -23.053365943228201 ], [ -46.295896173235903, -23.053437988061699 ], [ -46.295674370743697, -23.0535626387021 ], [ -46.295316413215801, -23.053884935923399 ], [ -46.295194869393903, -23.0539448914143 ], [ -46.295083426649697, -23.053950717773201 ], [ -46.294976635634697, -23.053887719606699 ], [ -46.294906866165398, -23.053809678622201 ], [ -46.294888542296903, -23.053559250631999 ], [ -46.294895683058201, -23.053195608656399 ], [ -46.2948361092268, -23.053073263955898 ], [ -46.294707753919297, -23.0529760492892 ], [ -46.294099710409903, -23.0526862305538 ], [ -46.293316333428798, -23.0523831032049 ], [ -46.293193335191901, -23.052290756763199 ], [ -46.293181027761399, -23.052113978934401 ], [ -46.293280208550598, -23.051936289129799 ], [ -46.293550261342098, -23.0518603800428 ], [ -46.293926774540701, -23.051813079342601 ], [ -46.2952901398398, -23.051693822563699 ], [ -46.295863317510999, -23.051669472649898 ], [ -46.296952920118102, -23.051793196614899 ], [ -46.297214900561499, -23.0518170874833 ], [ -46.297337766622, -23.051784634534101 ], [ -46.297476868351502, -23.051673435241401 ], [ -46.2975009200036, -23.051523873853501 ], [ -46.297474382463697, -23.051414033869499 ], [ -46.297208423529199, -23.051141072111299 ], [ -46.297019591798097, -23.0509382281539 ], [ -46.296983694982799, -23.0507380604387 ], [ -46.296990758173102, -23.050588638459502 ], [ -46.297132562180003, -23.050316261359001 ], [ -46.297144211594201, -23.050202177526401 ], [ -46.297129888857199, -23.0500372086073 ], [ -46.2970307750968, -23.0498886576733 ], [ -46.296449665122097, -23.049083712672001 ], [ -46.296346756898103, -23.048982360075399 ], [ -46.296213743875597, -23.048841947952699 ], [ -46.296139850499401, -23.0486656752851 ], [ -46.296108277853698, -23.048473332718999 ], [ -46.296160855975899, -23.0481977573534 ], [ -46.296263382606298, -23.047815645098002 ], [ -46.296363806528703, -23.047657596196998 ], [ -46.296553981717999, -23.047557771533601 ], [ -46.2968123723264, -23.047484900973199 ], [ -46.296943352451898, -23.047413075104501 ], [ -46.297018744885797, -23.047302398857401 ], [ -46.297017314421097, -23.047153046493801 ], [ -46.296965296227903, -23.047043415326101 ], [ -46.296713781890404, -23.046947212197399 ], [ -46.2963863866933, -23.046910590457099 ], [ -46.296046024915498, -23.046850490441599 ], [ -46.295922259643397, -23.046788614686299 ], [ -46.295763203198, -23.046589455807499 ], [ -46.295568440856599, -23.046209779774799 ], [ -46.2954691438024, -23.046041576263502 ], [ -46.295375071215503, -23.045975525761399 ], [ -46.295141375132602, -23.0459656480731 ], [ -46.295031329191097, -23.046005855643099 ], [ -46.293671082356603, -23.047223696364799 ], [ -46.293544798468197, -23.0473426483812 ], [ -46.293362776992197, -23.0474070275251 ], [ -46.293133813163401, -23.047448206487299 ], [ -46.292959347440998, -23.047414257918401 ], [ -46.2924946209871, -23.047229386190999 ], [ -46.291949090617997, -23.047033381882301 ], [ -46.291713442646802, -23.0468191220831 ], [ -46.291339943243699, -23.0464015941029 ], [ -46.290962798231199, -23.046046985127401 ], [ -46.2904572725881, -23.0455912263219 ], [ -46.290278262857903, -23.045525866354598 ], [ -46.2900827528862, -23.045511738535399 ], [ -46.289883631948904, -23.0455644617522 ], [ -46.289702097426598, -23.045679930995 ], [ -46.2894037058403, -23.0460125381097 ], [ -46.289205743731003, -23.046187100558001 ], [ -46.2889570788887, -23.046389590468898 ], [ -46.288728713521202, -23.046493648978199 ], [ -46.288228950879301, -23.046643154719501 ], [ -46.287683179693197, -23.0468677163908 ], [ -46.287348300687299, -23.046937264439201 ], [ -46.287169850815403, -23.0469308556812 ], [ -46.286612446185302, -23.046825333972301 ], [ -46.286114238960202, -23.046691814382399 ], [ -46.285732821322902, -23.0466128641417 ], [ -46.285440419826799, -23.046571021120702 ], [ -46.285041889848998, -23.046534953982199 ], [ -46.284702315162598, -23.046557366717199 ], [ -46.284404931355503, -23.046549955819401 ], [ -46.284282317665202, -23.046496905225499 ], [ -46.284217634020699, -23.046394250932298 ], [ -46.283974315095001, -23.045929462317002 ], [ -46.283818824734503, -23.045768585809199 ], [ -46.283594227943397, -23.0455984428142 ], [ -46.283321899819398, -23.045433600769901 ], [ -46.283070435094302, -23.045229281980902 ], [ -46.2829738544268, -23.045121973091799 ], [ -46.282919883071699, -23.0450290580198 ], [ -46.282907357484802, -23.044827713628599 ], [ -46.282969246969003, -23.044635592254 ], [ -46.283152490911299, -23.044363873375001 ], [ -46.283309191072597, -23.044092369158101 ], [ -46.283339460712497, -23.0439250711037 ], [ -46.283311660242198, -23.043792637340999 ], [ -46.283236454972801, -23.043699894663099 ], [ -46.282980150391197, -23.043544748003701 ], [ -46.282692552477499, -23.043448814643401 ], [ -46.282490544878797, -23.043420973318 ], [ -46.282305021612203, -23.043451957438901 ], [ -46.281277886047498, -23.043750168463799 ], [ -46.281007934135403, -23.0438358816854 ], [ -46.280859198680901, -23.043827259693401 ], [ -46.280656772685802, -23.0437551995992 ], [ -46.2805225700398, -23.043599059998801 ], [ -46.280398334330101, -23.043374053420699 ], [ -46.280223860222399, -23.042889047266399 ], [ -46.280153780482401, -23.0427766085696 ], [ -46.280041509975099, -23.0426939904901 ], [ -46.279887327843703, -23.042670672041101 ], [ -46.279552467314303, -23.042629161893 ], [ -46.279318562895597, -23.0425966611358 ], [ -46.279089735874201, -23.042539552074199 ], [ -46.278950551698998, -23.042417844940299 ], [ -46.278842245714898, -23.0421927075949 ], [ -46.278749726940198, -23.041952702922501 ], [ -46.2787165306082, -23.041810485011201 ], [ -46.278751788999102, -23.041608754164098 ], [ -46.2788723095398, -23.041440726423101 ], [ -46.279284429623402, -23.041231034233501 ], [ -46.279786932946799, -23.0410353492388 ], [ -46.279971293101902, -23.040881544247402 ], [ -46.280038818875099, -23.040723771317801 ], [ -46.280044793093303, -23.040232391274699 ], [ -46.280105524311502, -23.039917446875801 ], [ -46.280218365314802, -23.039498901385802 ], [ -46.280211431793603, -23.039326991484401 ], [ -46.280130458421603, -23.039185160566198 ], [ -46.279917561993599, -23.039127923542601 ], [ -46.279716396632303, -23.039188511297699 ], [ -46.279362212869003, -23.039348602543701 ], [ -46.278397527665, -23.040073748026899 ], [ -46.278133445714403, -23.040218368738799 ], [ -46.277915888601697, -23.040229953495601 ], [ -46.277793097678803, -23.040157245982002 ], [ -46.277662078511298, -23.039775065138901 ], [ -46.277579161484503, -23.039426888720101 ], [ -46.277538573121902, -23.039063630740799 ], [ -46.2774891753254, -23.038892063019599 ], [ -46.277327465892903, -23.038632963094599 ], [ -46.277016425691002, -23.038301368510201 ], [ -46.276849178474897, -23.038017745811999 ], [ -46.2766590307914, -23.03755742813 ], [ -46.276488096902, -23.037445800958601 ], [ -46.276243492471401, -23.037403554854901 ], [ -46.276031711365498, -23.037464223553101 ], [ -46.275836779628797, -23.037623022662299 ], [ -46.275679100038403, -23.037791347324799 ], [ -46.275624454035999, -23.0381897678106 ], [ -46.275566303277799, -23.0387798357775 ], [ -46.275505006709103, -23.039035823342299 ], [ -46.275395193452198, -23.039213588516802 ], [ -46.275205151463098, -23.039328127592999 ], [ -46.274379798307699, -23.0396295791681 ], [ -46.274130714142302, -23.039675805865901 ], [ -46.273976767198199, -23.039677045963199 ], [ -46.273763364021399, -23.039565758519501 ], [ -46.273639744366498, -23.039404613934099 ], [ -46.2734851948398, -23.038776952560202 ], [ -46.273456897240401, -23.038590473328899 ], [ -46.273540814056403, -23.037916671844101 ], [ -46.273552583169703, -23.037474377137499 ], [ -46.273524286444697, -23.037287898426701 ], [ -46.273261633250698, -23.0364547467634 ], [ -46.273195716432603, -23.036219437423402 ], [ -46.273067299493597, -23.0349823111174 ], [ -46.272989152256002, -23.034575133579398 ], [ -46.272619189192397, -23.0336200100671 ], [ -46.272522117734901, -23.0334586506712 ], [ -46.272303740271198, -23.033381793976599 ], [ -46.272144999372301, -23.0334371173482 ], [ -46.271992304535999, -23.0335710051266 ], [ -46.271714608403101, -23.0339613913529 ], [ -46.271563341727202, -23.0342475807809 ], [ -46.271555168413499, -23.034508052972399 ], [ -46.2715999861909, -23.034758272962701 ], [ -46.271925126857099, -23.035463179096201 ], [ -46.271986239966402, -23.0357525744604 ], [ -46.271924845390103, -23.035998734934299 ], [ -46.2717990119936, -23.036166799791602 ], [ -46.271356104473803, -23.036489726807702 ], [ -46.271219284833599, -23.036618573507301 ], [ -46.271130608689703, -23.036786339248899 ], [ -46.271087250562204, -23.037823401122999 ], [ -46.271063611847403, -23.038133131409499 ], [ -46.271001338984199, -23.0382859447379 ], [ -46.270297789577, -23.039121950473799 ], [ -46.269887226413701, -23.039498660723201 ], [ -46.269713150826703, -23.039617978023301 ], [ -46.269522274396003, -23.039644077202801 ], [ -46.269363018626301, -23.0396453554186 ], [ -46.269202980355999, -23.039563113183402 ], [ -46.269084719949397, -23.0394068352232 ], [ -46.269088233587802, -23.039215186914799 ], [ -46.269182175693999, -23.039042466568301 ], [ -46.269435432982498, -23.038308346883898 ], [ -46.269569033324601, -23.0378355943724 ], [ -46.269561561040497, -23.037604727626899 ], [ -46.269359118873901, -23.0369627055229 ], [ -46.269083465995401, -23.036439190243399 ], [ -46.2688631989679, -23.0361608971007 ], [ -46.268740093711799, -23.03605379096 ], [ -46.2686233550886, -23.0360596406463 ], [ -46.2685014925787, -23.036085184367501 ], [ -46.268269118921999, -23.036214794852501 ], [ -46.268094724018702, -23.036299719655101 ], [ -46.267914008385603, -23.036276601324602 ], [ -46.267785503939301, -23.0361597114543 ], [ -46.267708795931298, -23.0359048323654 ], [ -46.267636753781503, -23.035581129375601 ], [ -46.267582107409098, -23.035414513988201 ], [ -46.267463485033197, -23.035218930808899 ], [ -46.267335119857201, -23.035116779032499 ], [ -46.2671697797958, -23.0350345769291 ], [ -46.266744330976799, -23.034954457772201 ], [ -46.266547279378003, -23.034887248578599 ], [ -46.266461519551903, -23.034799495120701 ], [ -46.266465633471398, -23.034671715463901 ], [ -46.266558290943301, -23.034361432788501 ], [ -46.266604091129999, -23.0341497926761 ], [ -46.266576309370599, -23.034017354438099 ], [ -46.266043518180602, -23.032675363635001 ], [ -46.265930393056799, -23.0324993886831 ], [ -46.265775536000298, -23.032402360858299 ], [ -46.265610934316697, -23.032398764356799 ], [ -46.265414804498398, -23.032429813133799 ], [ -46.265112876438202, -23.032501014978202 ], [ -46.264943012160899, -23.032502373271601 ], [ -46.264841696821598, -23.0324540498634 ], [ -46.264776897201102, -23.0323366473725 ], [ -46.264733101663801, -23.032194510472699 ], [ -46.264790208539097, -23.0320564803034 ], [ -46.264878935188399, -23.031893630848 ], [ -46.2652507741793, -23.031350189262 ], [ -46.2653432485221, -23.031020255561199 ], [ -46.265262867086797, -23.029802388775199 ], [ -46.265185939276101, -23.029522943252701 ], [ -46.2650344685146, -23.029219526677501 ], [ -46.264889773202803, -23.0290732830452 ], [ -46.263996994985902, -23.0284023761531 ], [ -46.263820682394297, -23.028280950513299 ], [ -46.263512034595401, -23.028199888748901 ], [ -46.263373932914398, -23.028191164700399 ], [ -46.263130310422198, -23.028252070109001 ], [ -46.2628824323534, -23.028426015835599 ], [ -46.262804321042303, -23.028588780071299 ], [ -46.262770231164701, -23.0289182465865 ], [ -46.262878865453096, -23.029182700204 ], [ -46.263143954450101, -23.029716139325 ], [ -46.263307228766898, -23.030147210479399 ], [ -46.263292906867498, -23.030319291837301 ], [ -46.263183312569097, -23.0305216143237 ], [ -46.262252641454701, -23.031482232096899 ], [ -46.262057198247497, -23.0315869717632 ], [ -46.261797369709797, -23.031618524175101 ], [ -46.261632357837101, -23.031570706649799 ], [ -46.261508987976299, -23.0314341166746 ], [ -46.261400171369203, -23.031150009978301 ], [ -46.260919891280899, -23.0291688444416 ], [ -46.260806089674801, -23.0289191701936 ], [ -46.260661399659099, -23.028772922466398 ], [ -46.260475158939499, -23.0287252727206 ], [ -46.260162254174702, -23.028757245647199 ], [ -46.259675459541398, -23.0289281757968 ], [ -46.259268788020897, -23.029152514338001 ], [ -46.259026348210298, -23.029341151193101 ], [ -46.258426283493002, -23.0298913072908 ], [ -46.258126408930401, -23.030183580228002 ], [ -46.257985231559303, -23.0304156304665 ], [ -46.257881438914502, -23.0306719504248 ], [ -46.257734222877701, -23.030825434417 ], [ -46.2575597357649, -23.030900522099301 ], [ -46.257469496413599, -23.030901239358599 ], [ -46.257288835387399, -23.030883021518299 ], [ -46.257187250324598, -23.030805215265602 ], [ -46.257154261431502, -23.030682643714499 ], [ -46.257152575262502, -23.030500862457899 ], [ -46.257281725442702, -23.030116594864701 ], [ -46.257321911899197, -23.0298706075708 ], [ -46.257265594453798, -23.029522206566199 ], [ -46.257076300130898, -23.029145382160401 ], [ -46.256914960769002, -23.028920649613799 ], [ -46.256594742046097, -23.028736485551399 ], [ -46.255486283262002, -23.0282736025313 ], [ -46.255193700606803, -23.028207136574 ], [ -46.254917861452299, -23.028228978243 ], [ -46.254611128135203, -23.028354244541099 ], [ -46.254405384837902, -23.028493449891201 ], [ -46.253828081487498, -23.0292104632701 ], [ -46.253029055465703, -23.030061891526 ], [ -46.252818408416701, -23.030245354548899 ], [ -46.2526121609095, -23.030330514629899 ], [ -46.252426328962997, -23.0303270723807 ], [ -46.252233826373697, -23.0301762817518 ], [ -46.251971411164298, -23.0299277767975 ], [ -46.251704686290999, -23.029787399629299 ], [ -46.251492313884803, -23.029784166775102 ], [ -46.251280667186599, -23.0298595409927 ], [ -46.2510067736564, -23.0300926349883 ], [ -46.250678617843299, -23.030198410161901 ], [ -46.250375778988598, -23.030171323827599 ], [ -46.250077523442798, -23.030065586473501 ], [ -46.249710397637301, -23.029975132818901 ], [ -46.249402296421103, -23.029952999033799 ], [ -46.248856458905699, -23.030055575895201 ], [ -46.248310076868698, -23.030099194641 ], [ -46.248018488346197, -23.030140802413602 ], [ -46.247573866363901, -23.0302818833303 ], [ -46.247151425276797, -23.030525969045101 ], [ -46.246867177617297, -23.030788617786602 ], [ -46.246684327003102, -23.0311094276496 ], [ -46.2464656289864, -23.031573008041001 ], [ -46.246361587466403, -23.031804756044998 ], [ -46.246051516731697, -23.032146220603899 ], [ -46.245362272737403, -23.0328198662665 ], [ -46.2448090971669, -23.033281163826 ], [ -46.2440490733795, -23.0337637395182 ], [ -46.243425844762498, -23.034112575046802 ], [ -46.243029385384403, -23.034297485498801 ], [ -46.242743318896601, -23.0343636071138 ], [ -46.242169969592297, -23.034363196834299 ], [ -46.241681914705502, -23.034401421906502 ], [ -46.241369485651902, -23.034487401718401 ], [ -46.241084228364102, -23.034641954151901 ], [ -46.240667114948501, -23.034890894953499 ], [ -46.240197095751, -23.0351599032265 ], [ -46.239626664168199, -23.035478830308499 ], [ -46.239383330758798, -23.0355740911507 ], [ -46.2391104449012, -23.035340386879898 ], [ -46.239039188996202, -23.035095276050001 ], [ -46.238981927085, -23.034638780618501 ], [ -46.238977704453298, -23.0341769562935 ], [ -46.238906898684498, -23.0339809756181 ], [ -46.238767399275801, -23.033819926328601 ], [ -46.238570541071297, -23.033772333922599 ], [ -46.238325683359399, -23.033700550374402 ], [ -46.238144435878603, -23.033618441721 ], [ -46.238021266921201, -23.033501484289101 ], [ -46.2375460562426, -23.0326207941573 ], [ -46.237017320693298, -23.0316913869625 ], [ -46.237015885671298, -23.0315341697757 ], [ -46.237125117085199, -23.0312876464479 ], [ -46.237357424372597, -23.031148255084702 ], [ -46.237653205984302, -23.030983799662199 ], [ -46.237752357653399, -23.030796315509601 ], [ -46.237786599211901, -23.030476677943799 ], [ -46.237762853402401, -23.030201714431399 ], [ -46.237713374555497, -23.0300153930215 ], [ -46.237414066960902, -23.029211939414299 ], [ -46.2372364750304, -23.028948005753001 ], [ -46.236803733475497, -23.028646759007401 ], [ -46.236489163208603, -23.028496902604601 ], [ -46.236228660322503, -23.028454717749501 ], [ -46.236069729293597, -23.028490353524401 ], [ -46.235774757167903, -23.0287432399018 ], [ -46.2351522885482, -23.029175565013201 ], [ -46.2345861028695, -23.029376519518902 ], [ -46.234294376159603, -23.0294033622752 ], [ -46.233892161083801, -23.029539161430101 ], [ -46.233293719838599, -23.029696141961601 ], [ -46.233038434236299, -23.029644084894699 ], [ -46.232841002870401, -23.029532615262902 ], [ -46.232775562144397, -23.029341502970901 ], [ -46.232790101046099, -23.029189074508899 ], [ -46.2329159783867, -23.029021038703 ], [ -46.233184817820401, -23.0288125810482 ], [ -46.234034737291097, -23.028290048795601 ], [ -46.234197544832099, -23.028097156778902 ], [ -46.2344933530619, -23.0273529277538 ], [ -46.234779481135298, -23.026711954460101 ], [ -46.235103389584097, -23.0261394734882 ], [ -46.235219745143802, -23.025509651973501 ], [ -46.235340263317397, -23.025336742228902 ], [ -46.235471889293798, -23.025217793573098 ], [ -46.235683673088303, -23.025157179130701 ], [ -46.235884258257201, -23.025032778194699 ], [ -46.235983453286501, -23.024850208190902 ], [ -46.235966095735499, -23.024693115183901 ], [ -46.235917159197299, -23.024565749481599 ], [ -46.235794000698903, -23.0244487897433 ], [ -46.235340626812501, -23.024211573572899 ], [ -46.235211847743301, -23.0240602636513 ], [ -46.235199485937201, -23.023868737941999 ], [ -46.235276778156098, -23.023612638719399 ], [ -46.235264147754897, -23.023391634975301 ], [ -46.2351987512317, -23.023205436662199 ], [ -46.235080857275499, -23.023083521745001 ], [ -46.234883344696598, -23.022962228584898 ], [ -46.234627355603898, -23.022831564489 ], [ -46.234397414918398, -23.022646648852099 ], [ -46.234300216803298, -23.022465611594299 ], [ -46.234303377939199, -23.022229744172101 ], [ -46.234344365746999, -23.022067282892799 ], [ -46.234704973607997, -23.0214453825741 ], [ -46.2347670129273, -23.021263103163299 ], [ -46.234755054859498, -23.021115794659 ], [ -46.2346584396373, -23.020998626749599 ], [ -46.234418065223799, -23.020833446736301 ], [ -46.2341565491623, -23.020678257546301 ], [ -46.234081344672099, -23.020580576084999 ], [ -46.234010554569601, -23.020384592267799 ], [ -46.234036065118097, -23.0202713856639 ], [ -46.234156133376501, -23.020049346935799 ], [ -46.234313132217999, -23.019802452864699 ], [ -46.234375394447603, -23.019644738539402 ], [ -46.234357995596802, -23.019482732039201 ], [ -46.233883643242599, -23.017521073469499 ], [ -46.233801613326897, -23.0172563898122 ], [ -46.233734569090899, -23.016888407340701 ], [ -46.233763733440902, -23.016593376733201 ], [ -46.233868680516601, -23.0164598971276 ], [ -46.2340748756748, -23.016369848087901 ], [ -46.234424824966702, -23.0163278122922 ], [ -46.234668486189001, -23.016271864471999 ], [ -46.234799926056503, -23.016133264184099 ], [ -46.234840821730302, -23.015960976559299 ], [ -46.234791531959701, -23.015794305366999 ], [ -46.2346308709363, -23.0156383303109 ], [ -46.234146219974598, -23.015460314170799 ], [ -46.233847650929903, -23.0153152397776 ], [ -46.233809335575799, -23.0151877897475 ], [ -46.233866557624999, -23.015059595594 ], [ -46.234029708077003, -23.014906008401098 ], [ -46.234240984962398, -23.014791353438099 ], [ -46.2344142140538, -23.014578726403901 ], [ -46.234560680689498, -23.014341741202401 ], [ -46.234814327469202, -23.0142169281634 ], [ -46.235026631482, -23.014215271941101 ], [ -46.235435584967, -23.014241560977101 ], [ -46.235551904158001, -23.0141915191629 ], [ -46.235630578543301, -23.014087723696601 ], [ -46.235719240889203, -23.013915063007701 ], [ -46.235879881635803, -23.013486343621999 ], [ -46.235971567828699, -23.0130630759182 ], [ -46.235969105704498, -23.0127928585981 ], [ -46.235897824569001, -23.012542831805298 ], [ -46.235411332596797, -23.011578690384201 ], [ -46.235212584434898, -23.011319830920101 ], [ -46.234955857271402, -23.0111056445398 ], [ -46.234748418480599, -23.011058128555302 ], [ -46.234493883223401, -23.011084680262201 ], [ -46.233974688859703, -23.011191909377601 ], [ -46.233857924091701, -23.011192819447501 ], [ -46.233703560304399, -23.011144888426799 ], [ -46.233570416790002, -23.011037339806698 ], [ -46.233517928150597, -23.0108687276518 ], [ -46.233537514306803, -23.010687762281901 ], [ -46.233745452124602, -23.010206594073502 ], [ -46.233879284996398, -23.0099815001393 ], [ -46.234102532658198, -23.0097832240657 ], [ -46.234427181060902, -23.0095291272984 ], [ -46.2345275100175, -23.009355393359801 ], [ -46.234530003289301, -23.009162768984599 ], [ -46.234486292467103, -23.009025534142999 ], [ -46.2343321518089, -23.008885230247699 ], [ -46.233918654376602, -23.008707640572599 ], [ -46.233747888603197, -23.008606772189399 ], [ -46.233602205454602, -23.008462471082801 ], [ -46.2334524198304, -23.0083339239713 ], [ -46.233324435852801, -23.0082680989252 ], [ -46.233103363225602, -23.008238374802101 ], [ -46.232776572430701, -23.008256642292999 ], [ -46.232458597245603, -23.008248462277201 ], [ -46.232109882703497, -23.008205112832702 ], [ -46.231595243426703, -23.008155376386899 ], [ -46.231403604281503, -23.0080570635592 ], [ -46.231376845038099, -23.007849987357801 ], [ -46.231466114096797, -23.007634331788001 ], [ -46.231787579422999, -23.007416869946699 ], [ -46.232358800267299, -23.007304944142899 ], [ -46.232822982943901, -23.007278299180602 ], [ -46.233328977170402, -23.007289713133201 ], [ -46.2336506479161, -23.007095277489999 ], [ -46.234022841524698, -23.006984896326301 ], [ -46.234321727008599, -23.007020952584 ], [ -46.234555039579099, -23.0071419689463 ], [ -46.234723408233897, -23.007417034582001 ], [ -46.234932752118397, -23.007638040561801 ], [ -46.235057422416197, -23.007667776554001 ], [ -46.235189826771602, -23.007636035290101 ], [ -46.235413101209502, -23.007565198447999 ], [ -46.235834491077497, -23.007393011807999 ], [ -46.236492354763499, -23.007233564678 ], [ -46.237254274244897, -23.007117061472599 ], [ -46.2378631026939, -23.006946475357999 ], [ -46.238683380632999, -23.006682107214299 ], [ -46.239127137499899, -23.006598792745301 ], [ -46.239392445489898, -23.006590574609799 ], [ -46.239771319471203, -23.006667450877298 ], [ -46.2404521529308, -23.006753630695101 ], [ -46.240829240635797, -23.006780156219399 ], [ -46.2413433740603, -23.006702425720601 ], [ -46.241814013853599, -23.006512026485101 ], [ -46.242158357990903, -23.006440537802799 ], [ -46.242445625620199, -23.0065119851226 ], [ -46.242739055816301, -23.006676737377099 ], [ -46.242931918777202, -23.006871759208 ], [ -46.243140703195003, -23.007066655776899 ], [ -46.243412141132701, -23.007148051892599 ], [ -46.243597626983899, -23.0071171150468 ], [ -46.243745285674898, -23.007012773998799 ], [ -46.243988385262703, -23.006897856122102 ], [ -46.244317076663002, -23.0068559663945 ], [ -46.244916395238597, -23.0068070350017 ], [ -46.245229028727501, -23.006750529319799 ], [ -46.245599185794397, -23.006600216205101 ], [ -46.2459780167747, -23.0062385587153 ], [ -46.246430740726602, -23.0058320977469 ], [ -46.246783572574898, -23.005529603859902 ], [ -46.247306911520397, -23.0052994667486 ], [ -46.247653574452499, -23.0049036647805 ], [ -46.247810622267401, -23.004666584870499 ], [ -46.247983590703399, -23.004429379346 ], [ -46.248189848051098, -23.004349139164301 ], [ -46.248359994542199, -23.004382191992299 ], [ -46.248653517035201, -23.004556759382101 ], [ -46.248974073978701, -23.004785160251298 ], [ -46.249277850797803, -23.004920338570098 ], [ -46.249501386376302, -23.0049873624349 ], [ -46.2496606026682, -23.004986105999102 ], [ -46.250196132927996, -23.004927831485901 ], [ -46.2507369240194, -23.004864600185801 ], [ -46.251070553219797, -23.004783350726001 ], [ -46.251382001544897, -23.004599094799001 ], [ -46.251736087620202, -23.004434154440599 ], [ -46.252080192958999, -23.0043380797878 ], [ -46.252440899626698, -23.0043155735301 ], [ -46.252955786348998, -23.004321327186901 ], [ -46.253306059755801, -23.004318555254301 ], [ -46.253603851370301, -23.004380072123499 ], [ -46.253886084677703, -23.0044810185369 ], [ -46.254211684495203, -23.004679887956598 ], [ -46.254713149113897, -23.004955978166802 ], [ -46.254984906746301, -23.005071745290898 ], [ -46.2551815456995, -23.005099666736601 ], [ -46.255595461902203, -23.005091472290299 ], [ -46.256030425131399, -23.005063455544001 ], [ -46.2564072357358, -23.005060466181099 ], [ -46.256667925374998, -23.005127184980601 ], [ -46.256913785637899, -23.005311941696899 ], [ -46.257294239131198, -23.0057019905917 ], [ -46.257466210192497, -23.0059315533566 ], [ -46.257585518666701, -23.0062057550243 ], [ -46.257641915218997, -23.0065639828894 ], [ -46.257704803485602, -23.007049907142299 ], [ -46.257759515740503, -23.0072263537004 ], [ -46.257877323608497, -23.007338425542098 ], [ -46.257999937351698, -23.007396411414 ], [ -46.258350355305602, -23.0074083671614 ], [ -46.258966045216397, -23.0074083862416 ], [ -46.259145991624798, -23.007352908207199 ], [ -46.259335366375502, -23.007169607595799 ], [ -46.259429027503401, -23.006967414420501 ], [ -46.259516925592003, -23.006716133341701 ], [ -46.259577282910101, -23.006356977612299 ], [ -46.2596109678841, -23.005983293761901 ], [ -46.259725765166699, -23.0057711054382 ], [ -46.259898714002198, -23.005533887781201 ], [ -46.259992464514397, -23.0053415209942 ], [ -46.260048106549803, -23.005046276037401 ], [ -46.260001969673603, -23.004078709389098 ], [ -46.260037887886, -23.003945762745801 ], [ -46.260111183950102, -23.003837085238899 ], [ -46.260306499242802, -23.003722523747498 ], [ -46.260655309653401, -23.003562519304399 ], [ -46.261289653343802, -23.003287233019599 ], [ -46.261421235632803, -23.003168263845701 ], [ -46.261403350512602, -23.002957131818 ], [ -46.261341730257797, -23.0026087733503 ], [ -46.2613672614386, -23.002500475748999 ], [ -46.261414477208298, -23.002441139665802 ], [ -46.261583709765098, -23.002375917593501 ], [ -46.261913023106302, -23.002402773769301 ], [ -46.262258440158298, -23.0024491545913 ], [ -46.262684561040999, -23.0026128122303 ], [ -46.263020461851902, -23.0027771877226 ], [ -46.263301829563197, -23.002784770216401 ], [ -46.263470787095102, -23.002690068360099 ], [ -46.263532917113899, -23.0025225185043 ], [ -46.263636817327601, -23.002280934550399 ], [ -46.263778689949497, -23.002127488000099 ], [ -46.263985299518602, -23.002086532237499 ], [ -46.264304821941799, -23.002201902069999 ], [ -46.264577863069597, -23.002455217089601 ], [ -46.264823957374198, -23.0026645260401 ], [ -46.264942316161502, -23.0028355487025 ], [ -46.264991682759998, -23.003007121848999 ], [ -46.265175427513498, -23.003929366288101 ], [ -46.265329249511502, -23.004488260336501 ], [ -46.265353776813399, -23.004841826047802 ], [ -46.2652997040503, -23.005304113920399 ], [ -46.265309500868597, -23.005785545067301 ], [ -46.265439393479902, -23.006054741697799 ], [ -46.265610782628798, -23.006220426415101 ], [ -46.266824957127497, -23.0066529193079 ], [ -46.267319861271503, -23.006791446289899 ], [ -46.267622465775297, -23.006798850253901 ], [ -46.267818466361298, -23.006757974225 ], [ -46.267949907529001, -23.006624261198599 ], [ -46.268043738871597, -23.0064417156849 ], [ -46.268132152569599, -23.005679437297001 ], [ -46.2681577511146, -23.005011015677599 ], [ -46.2681142652673, -23.004333320442498 ], [ -46.268079575659002, -23.004028970376201 ], [ -46.268178758309297, -23.003851295359699 ], [ -46.268305578598103, -23.003791319234299 ], [ -46.268448870781398, -23.003790171493101 ], [ -46.268608911202399, -23.0038773298058 ], [ -46.268978272863201, -23.004213392008602 ], [ -46.269266788042799, -23.0044174408219 ], [ -46.270096771844798, -23.004631886627202 ], [ -46.270836075808802, -23.004797922206901 ], [ -46.271107845442799, -23.0049136616087 ], [ -46.2714662331977, -23.005210498444999 ], [ -46.271652996873499, -23.005317092587202 ], [ -46.271791168026702, -23.005335636525199 ], [ -46.2719509359776, -23.005393313030101 ], [ -46.272079689639, -23.005539679336501 ], [ -46.272235901095499, -23.0057840919802 ], [ -46.272577434086699, -23.007112865519701 ], [ -46.272706604878998, -23.0073034479596 ], [ -46.2729092943692, -23.0074099124359 ], [ -46.273042298751598, -23.007443236397702 ], [ -46.273190994047802, -23.007451867592501 ], [ -46.273307614919901, -23.007436189560199 ], [ -46.273513629493102, -23.0073313522525 ], [ -46.273734458767699, -23.007108475428101 ], [ -46.273854449925402, -23.006886409063299 ], [ -46.273836268, -23.0066458017663 ], [ -46.273738893291501, -23.006450051086201 ], [ -46.273635934918197, -23.006224865357801 ], [ -46.2737346964973, -23.0060029698442 ], [ -46.274192916465303, -23.005625868717601 ], [ -46.274676931012102, -23.005169945310801 ], [ -46.274986683925498, -23.0048087767826 ], [ -46.275136990301597, -23.004424325269198 ], [ -46.275224903016102, -23.004177950353 ], [ -46.275232285637401, -23.003833956372599 ], [ -46.275182028758401, -23.003569039934401 ], [ -46.274998910479397, -23.003285540179501 ], [ -46.274537932330396, -23.002802829839901 ], [ -46.274082541918602, -23.002349552398599 ], [ -46.273792595067299, -23.001993210474101 ], [ -46.273751941636299, -23.001620122808198 ], [ -46.273733069470602, -23.0013058202811 ], [ -46.273842165198602, -23.001054361686901 ], [ -46.274037648003798, -23.000959435518801 ], [ -46.274254958388703, -23.000928207253299 ], [ -46.2745365980632, -23.000965247601801 ], [ -46.274712652123704, -23.001062097688099 ], [ -46.274942283570397, -23.001212562629998 ], [ -46.2751405814126, -23.001417326993302 ], [ -46.275586558887397, -23.0019984241545 ], [ -46.2759951132442, -23.002550340990101 ], [ -46.276384468863903, -23.002753564041299 ], [ -46.276735659431601, -23.002848999451999 ], [ -46.277224418586201, -23.0028991050416 ], [ -46.277777741308597, -23.003042041709701 ], [ -46.278124181566099, -23.003196473127701 ], [ -46.278662696431098, -23.003457446110801 ], [ -46.279125709663901, -23.003591280312701 ], [ -46.279683834448498, -23.003680124490401 ], [ -46.279929026405398, -23.003791149940799 ], [ -46.2800364659713, -23.003927855017999 ], [ -46.280224207353697, -23.004137611245898 ], [ -46.280379226086502, -23.004254277796001 ], [ -46.280565392751399, -23.0042969924239 ], [ -46.280740666362199, -23.004310315095701 ], [ -46.281037447374501, -23.004263694414298 ], [ -46.281466535156902, -23.004176695908001 ], [ -46.281693673319403, -23.0040618505857 ], [ -46.282147439056097, -23.003778116877601 ], [ -46.282533510065797, -23.003632503646799 ], [ -46.283047136214698, -23.003505509082999 ], [ -46.283375896091002, -23.0034733651827 ], [ -46.283525052433497, -23.003531116466199 ], [ -46.283627141655501, -23.003662948955601 ], [ -46.283671550093104, -23.003868949327799 ], [ -46.2837219540598, -23.004708721169902 ], [ -46.283660220332202, -23.004915581964401 ], [ -46.283336475162699, -23.005478326416998 ], [ -46.2833177088757, -23.0057388850725 ], [ -46.283446939356999, -23.0059343711766 ], [ -46.283633573894903, -23.006026211652099 ], [ -46.283872861549199, -23.006073404994599 ], [ -46.284074673802699, -23.006086508687702 ], [ -46.284218432504296, -23.0061344761701 ], [ -46.284325506204503, -23.0062318744503 ], [ -46.284542863290199, -23.006765664337902 ], [ -46.2846341554677, -23.006877930579201 ], [ -46.284836806340103, -23.0069794663818 ], [ -46.285109661365297, -23.007208178620498 ], [ -46.285287778421797, -23.007521185950299 ], [ -46.285417199666902, -23.007736321693901 ], [ -46.285588428106202, -23.0078823315081 ], [ -46.285790243110398, -23.007895432881799 ], [ -46.2860175696146, -23.0078002333345 ], [ -46.286427901208903, -23.007413660072 ], [ -46.286665934770497, -23.007328199417799 ], [ -46.286925895516902, -23.007316259911001 ], [ -46.287266489680697, -23.0074117578631 ], [ -46.287384787102198, -23.0075729361699 ], [ -46.287500434280702, -23.008014195112999 ], [ -46.287491218878799, -23.008161669996099 ], [ -46.287418455468703, -23.008324401778498 ], [ -46.287340711471799, -23.008521567182399 ], [ -46.287331541906497, -23.008673954517601 ], [ -46.287369811489398, -23.008791563520202 ], [ -46.287556685594502, -23.0089079635232 ], [ -46.2877545005461, -23.0090586680037 ], [ -46.2881671267427, -23.009472944079299 ], [ -46.288607085090703, -23.009970523481101 ], [ -46.288836560388901, -23.010101315256801 ], [ -46.289156306697699, -23.010236285029102 ], [ -46.289572146591297, -23.010429431467902 ], [ -46.289876346427697, -23.010603832861801 ], [ -46.290022495010803, -23.010902355027 ], [ -46.290201001626002, -23.011254659408099 ], [ -46.290188817411, -23.0116478247784 ], [ -46.290128867223402, -23.012041379406099 ], [ -46.290184371065799, -23.012296419554598 ], [ -46.290297321601599, -23.012452725497798 ], [ -46.290452264886397, -23.0125595557937 ], [ -46.290675831144704, -23.012626519415502 ], [ -46.2909412490717, -23.012629268598602 ], [ -46.291253591923201, -23.012543194870599 ], [ -46.291534697598102, -23.012521248209602 ], [ -46.291684100476701, -23.0126035555685 ], [ -46.291919358502298, -23.0127834291497 ], [ -46.2923056116867, -23.013212648160401 ], [ -46.292472810819802, -23.013491342307098 ], [ -46.292619997874198, -23.013897946338201 ], [ -46.292606978683601, -23.0142026781166 ], [ -46.292509366942099, -23.014542494253799 ], [ -46.292368170710198, -23.014764746809501 ], [ -46.292209554073999, -23.0148299145233 ], [ -46.291966017366597, -23.0148957757626 ], [ -46.291701484055999, -23.014986374306599 ], [ -46.291479832020499, -23.015120842407999 ], [ -46.291338680867703, -23.0153480065729 ], [ -46.291318807015202, -23.015490654987001 ], [ -46.291389582735498, -23.015676783708098 ], [ -46.291572705583803, -23.015955348766301 ], [ -46.2918887993563, -23.016262308613101 ], [ -46.292097058025703, -23.016393268209601 ], [ -46.292277702230699, -23.016411446991999 ], [ -46.2924574574959, -23.016336279249899 ], [ -46.2926047581117, -23.016197503575 ], [ -46.292847687937503, -23.016067773475001 ], [ -46.293128660550998, -23.016031085242801 ], [ -46.295185730403098, -23.016333631902899 ], [ -46.2954472085638, -23.016478891592701 ], [ -46.295560122364002, -23.016630279721699 ], [ -46.2956961444781, -23.016978011757899 ], [ -46.295805910108797, -23.0173554382636 ], [ -46.295846115108702, -23.017674474287102 ], [ -46.2957797417641, -23.0185053677654 ], [ -46.295704211384901, -23.018933444277799 ], [ -46.295718441482599, -23.019311652786801 ], [ -46.295647466667603, -23.0196610786093 ], [ -46.295574050644198, -23.0197550325138 ], [ -46.2953998828145, -23.019859637802298 ], [ -46.294933603151399, -23.0199469797587 ], [ -46.294727165771299, -23.0200076285814 ], [ -46.294606401751501, -23.020146189176199 ], [ -46.294533923400301, -23.0203384012556 ], [ -46.294577745272498, -23.020480528876099 ], [ -46.294702637690101, -23.020774306084 ], [ -46.294800100272901, -23.020974954669601 ], [ -46.294759374250098, -23.021157080316701 ], [ -46.294691170822901, -23.021241164463699 ], [ -46.2943642943154, -23.021474763856698 ], [ -46.294110694109399, -23.0215996709458 ], [ -46.293842717614702, -23.0218868341838 ], [ -46.293582062802898, -23.0223852093091 ], [ -46.293574259508503, -23.022680071982201 ], [ -46.293698870794501, -23.022944371991699 ], [ -46.293790322520401, -23.023071370295501 ], [ -46.293939082188203, -23.023084894129099 ], [ -46.294166334053998, -23.0229798561816 ], [ -46.294382547072502, -23.022830688443399 ], [ -46.294615059108096, -23.022720694034899 ], [ -46.294885193827803, -23.0226595240355 ], [ -46.295236354269001, -23.022745089811799 ], [ -46.295529363248498, -23.022855697697199 ], [ -46.295711096257399, -23.022986869074298 ], [ -46.295920918718899, -23.023279949638201 ], [ -46.296033557311901, -23.0234018596826 ], [ -46.296283401113698, -23.0234391196643 ], [ -46.296431644537698, -23.0233985988875 ], [ -46.296689801761701, -23.023195037975199 ], [ -46.296890700050703, -23.023109865585202 ], [ -46.297055242551799, -23.0231085170348 ], [ -46.297162057033198, -23.023176428072301 ], [ -46.297248768284099, -23.023362422925501 ], [ -46.297298137056401, -23.0235290703964 ], [ -46.297368220422399, -23.023641502115801 ], [ -46.297496079018103, -23.023689586916198 ], [ -46.297660527537602, -23.023678411753099 ], [ -46.297834510716903, -23.023554152515899 ], [ -46.298103705128099, -23.023394718566099 ], [ -46.298267823888899, -23.023349152501002 ], [ -46.298936186167303, -23.023299448131201 ], [ -46.299106036647899, -23.023298053869901 ], [ -46.299287255604298, -23.023375178771399 ], [ -46.299415915028298, -23.023506781472001 ], [ -46.299507607801601, -23.023658341072998 ], [ -46.2995252738978, -23.023839988156499 ], [ -46.299473608177202, -23.023987811611299 ], [ -46.299341994613599, -23.024101898547201 ], [ -46.299178157856403, -23.024176943045301 ], [ -46.298934184313801, -23.024198599324698 ], [ -46.298711866517699, -23.024264296657101 ], [ -46.298632907141901, -23.0243337311795 ], [ -46.2986125231267, -23.024422337875102 ], [ -46.298608815257403, -23.024589420404499 ], [ -46.298705674700201, -23.024726198522899 ], [ -46.298988734296401, -23.0249056673164 ], [ -46.299234733128898, -23.025095266588199 ], [ -46.299294862237502, -23.025276565018 ], [ -46.299286176891798, -23.0254780819091 ], [ -46.299202850868802, -23.025645818132201 ], [ -46.299155644689002, -23.025705165488802 ], [ -46.299007540964702, -23.025760427807299 ], [ -46.298758257152897, -23.025782126961499 ], [ -46.298646978999798, -23.025802693713398 ], [ -46.298578776484803, -23.02588677948 ], [ -46.298505641783301, -23.026010212032698 ], [ -46.298477370976002, -23.026383855613801 ], [ -46.298502084945198, -23.0267472370993 ], [ -46.298628357153, -23.027183484925299 ], [ -46.298658568110902, -23.027566474103601 ], [ -46.298548936380499, -23.0277589927246 ], [ -46.298375607547399, -23.0279520339855 ], [ -46.298292279614699, -23.028119770345 ], [ -46.298351985499899, -23.028256852847999 ], [ -46.298400651786899, -23.0283498062274 ], [ -46.2986199746952, -23.028524885003002 ], [ -46.299036637609397, -23.028796609418102 ], [ -46.299368232329499, -23.029054291789201 ], [ -46.299514658326899, -23.029377366957299 ], [ -46.299723007410897, -23.030068430651699 ], [ -46.299837068802198, -23.030337725463401 ], [ -46.300096428803798, -23.0308121844391 ], [ -46.300103669281, -23.031013569784498 ], [ -46.300052378908397, -23.031200696592698 ], [ -46.299622435800501, -23.031759432261701 ], [ -46.299602475601802, -23.031892255196901 ], [ -46.299614741031398, -23.0320641196992 ], [ -46.299791182339199, -23.032195329102599 ], [ -46.300014644029702, -23.032247539325201 ], [ -46.300168392418598, -23.032226622952599 ], [ -46.300268681942597, -23.032166838983699 ], [ -46.300368358532097, -23.0320431869274 ], [ -46.300440598125, -23.031826408257299 ], [ -46.300623932019299, -23.0315694094297 ], [ -46.300802993878499, -23.031420538790201 ], [ -46.301034854262603, -23.031241753090999 ], [ -46.301299128018101, -23.0311216607174 ], [ -46.301559556358598, -23.031153911324399 ], [ -46.302017754088403, -23.031327019596201 ], [ -46.302279032707801, -23.031447701798999 ], [ -46.3024293601339, -23.031623342780598 ], [ -46.302516037860102, -23.031804421006601 ], [ -46.302566880513297, -23.032123366432401 ], [ -46.302621567737098, -23.032289968461999 ], [ -46.302723272968002, -23.032377570217001 ], [ -46.3029576823944, -23.032464078981501 ], [ -46.303481143943301, -23.0327987841222 ], [ -46.3036582047758, -23.032993856916701 ], [ -46.303680571525298, -23.0331115913426 ], [ -46.303686825072198, -23.0332098057035 ], [ -46.303566012272199, -23.033343460071499 ], [ -46.303418800236699, -23.0334920719196 ], [ -46.303372585757003, -23.033654591591102 ], [ -46.303416752611703, -23.033831106082001 ], [ -46.303758370096297, -23.034024822741401 ], [ -46.304259849887401, -23.034281093082601 ], [ -46.304584882525397, -23.034406158829199 ], [ -46.304759817716899, -23.0343801493032 ], [ -46.305083005603002, -23.0343136108743 ], [ -46.3053219708424, -23.0343214653434 ], [ -46.305550982777497, -23.034398188449501 ], [ -46.305631600238399, -23.034500701707501 ], [ -46.305638328699402, -23.034648044912199 ], [ -46.3055764283177, -23.034835260767998 ], [ -46.305504574403699, -23.035091345045899 ], [ -46.305464948366598, -23.0353864695441 ], [ -46.305514379614998, -23.035558026495899 ], [ -46.305707987018103, -23.035816833062199 ], [ -46.306012975014603, -23.0360648925401 ], [ -46.306263744183703, -23.03619548052 ], [ -46.3065349419605, -23.0362423735967 ], [ -46.306746848097902, -23.036196403599401 ], [ -46.307026197752201, -23.0359877379213 ], [ -46.307269052252899, -23.035848159096101 ], [ -46.307417494839498, -23.035827278868201 ], [ -46.307555747960798, -23.0358507028186 ], [ -46.307651818743601, -23.035903954319799 ], [ -46.307684664031903, -23.036006861887401 ], [ -46.307712533521901, -23.036144203428801 ], [ -46.3076571292506, -23.036454198740699 ], [ -46.307674666557702, -23.036621105198599 ], [ -46.307733863744403, -23.036704141512502 ], [ -46.307840599427202, -23.0367622185884 ], [ -46.3079680470657, -23.036766078111 ], [ -46.3085835760265, -23.036736420919301 ], [ -46.309209578342198, -23.036691934082199 ], [ -46.309682541693498, -23.036742064898601 ], [ -46.310028580219999, -23.0368423783796 ], [ -46.310167547333002, -23.036939493053701 ], [ -46.310227791976601, -23.037130612039899 ], [ -46.310262159931703, -23.037390730985599 ], [ -46.310339375548701, -23.0376898016595 ], [ -46.3103670574815, -23.037807491343401 ], [ -46.310553610436301, -23.037884558035401 ], [ -46.310846093977098, -23.03793618049 ], [ -46.3111271519792, -23.0379043709288 ], [ -46.311269669436001, -23.0378196638652 ], [ -46.311306115150501, -23.037745662768501 ], [ -46.311305164128697, -23.0376474050186 ], [ -46.3112451079135, -23.0374759383072 ], [ -46.3110071189707, -23.037020975622401 ], [ -46.310919714004598, -23.036766209780101 ], [ -46.310877184684699, -23.036211361099401 ], [ -46.310893997043799, -23.0357542868095 ], [ -46.310945606369998, -23.035601547260001 ], [ -46.311029398345497, -23.0354829343371 ], [ -46.311229924102101, -23.035358439887101 ], [ -46.311472725278897, -23.0352139419028 ], [ -46.311624762603401, -23.035016150560601 ], [ -46.311755423572897, -23.034803795783301 ], [ -46.311838358215098, -23.0345967500439 ], [ -46.3119431435519, -23.034453395888999 ], [ -46.3122129113612, -23.034352892678999 ], [ -46.312345617370802, -23.034351791797199 ], [ -46.312814549429902, -23.034534605401401 ], [ -46.313033615289598, -23.034680185639701 ], [ -46.313125331102597, -23.034831736090101 ], [ -46.313132829509499, -23.035057684542299 ], [ -46.313026641184798, -23.035603940219399 ], [ -46.313050635299099, -23.035888711206201 ], [ -46.313190364671897, -23.0360644291227 ], [ -46.313836336395603, -23.0364373873477 ], [ -46.314364813530602, -23.036737620253099 ], [ -46.314625444772403, -23.036789499882499 ], [ -46.314848298924403, -23.036777821435301 ], [ -46.315165224250499, -23.036613048348599 ], [ -46.3154875042502, -23.0364531434521 ], [ -46.315673104353898, -23.036431947021502 ], [ -46.315918144902902, -23.036518347521 ], [ -46.316458054863404, -23.036902003635799 ], [ -46.316673060702897, -23.037175357207399 ], [ -46.3167026106346, -23.037484647133301 ], [ -46.3165147091268, -23.037815400437999 ], [ -46.316334978651298, -23.038440882006299 ], [ -46.316408465782096, -23.0394474912862 ], [ -46.316500761704098, -23.0396579934378 ], [ -46.316692151348903, -23.0396858801987 ], [ -46.317221704291597, -23.039548812572399 ], [ -46.317661729381697, -23.039486187904199 ], [ -46.318215669460599, -23.039673189513501 ], [ -46.319093806781197, -23.039896791603901 ], [ -46.319535746626599, -23.040030676504301 ], [ -46.319984862184597, -23.0403561176526 ], [ -46.320423842319499, -23.040730774723901 ], [ -46.3208211709671, -23.0411893036935 ], [ -46.320988656383797, -23.041487614133899 ], [ -46.320990620744602, -23.041689041691299 ], [ -46.320678002675301, -23.042295983982601 ], [ -46.3206015358898, -23.042620897880301 ], [ -46.3206836072467, -23.042870789127999 ], [ -46.320909105518801, -23.0431293084707 ], [ -46.321132926853302, -23.043215877464601 ], [ -46.321344693984301, -23.043155149460699 ], [ -46.321534076036798, -23.0429766891254 ], [ -46.321737465753699, -23.042601581480099 ], [ -46.3219212029191, -23.042388775762799 ], [ -46.322428806263098, -23.042178174772101 ], [ -46.3229767165952, -23.041746138457501 ], [ -46.323806671614598, -23.040840066771999 ], [ -46.324411139777297, -23.040220848526101 ], [ -46.324717875681998, -23.0401003616666 ], [ -46.324978084629699, -23.040108008045699 ], [ -46.325399805569099, -23.0403452242128 ], [ -46.325594803120097, -23.040741564097701 ], [ -46.325939430663396, -23.041780285738 ], [ -46.3263247694263, -23.042683139720999 ], [ -46.326704676469603, -23.043481466365201 ], [ -46.326966968897999, -23.044061104875599 ], [ -46.327155733279803, -23.044338566085401 ], [ -46.327382638532498, -23.044580084068301 ], [ -46.327846661982598, -23.044795862284101 ], [ -46.328194229294098, -23.044911685984701 ], [ -46.328708875239201, -23.045055790772999 ], [ -46.328928437436602, -23.045202373996101 ], [ -46.329071079669802, -23.045355540573901 ], [ -46.3291179648445, -23.045557008896399 ], [ -46.329068859554802, -23.045783032576001 ], [ -46.328967793908198, -23.045944184523801 ], [ -46.328643137371202, -23.0462022093451 ], [ -46.328471681271502, -23.046381763801602 ], [ -46.328320634161201, -23.0466798892611 ], [ -46.328272051288501, -23.0469593424944 ], [ -46.328293222674098, -23.0472209920901 ], [ -46.328383913991502, -23.047571708306901 ], [ -46.328401546296199, -23.047799545931699 ], [ -46.3283569888629, -23.047966159897602 ], [ -46.328162605447403, -23.048228581238 ], [ -46.327954402613798, -23.0485865577912 ], [ -46.327674701647297, -23.048850140395899 ], [ -46.327522835440703, -23.049065152233702 ], [ -46.327424617392502, -23.04951719876 ], [ -46.327289362981404, -23.0501179843553 ], [ -46.3271572639498, -23.0503862641221 ], [ -46.326979851089497, -23.050613364214598 ], [ -46.326897094178904, -23.050679367212499 ], [ -46.326386092064403, -23.050909266003401 ], [ -46.326207688659998, -23.0510354423702 ], [ -46.325538919949999, -23.051533832820699 ], [ -46.3252386842154, -23.051666966706701 ], [ -46.324982947595899, -23.051758167179798 ], [ -46.324229088690203, -23.052085088575101 ], [ -46.322924849417099, -23.0525531671856 ], [ -46.322701707702201, -23.052697525554201 ], [ -46.322581093754401, -23.052829151625701 ], [ -46.3224879963973, -23.053150535764601 ], [ -46.322346789616098, -23.0535344766731 ], [ -46.322088795242102, -23.053805660970301 ], [ -46.321589229009902, -23.0539768200669 ], [ -46.321208500395599, -23.053998556080401 ], [ -46.320766722939503, -23.0539280334289 ], [ -46.320284216863001, -23.0537929122573 ], [ -46.319970761646502, -23.053517226415099 ], [ -46.319696137381598, -23.053111340826 ], [ -46.3194722668593, -23.052769968530299 ], [ -46.319220947303698, -23.0526978516668 ], [ -46.319010898271003, -23.052745988220799 ], [ -46.318952110699399, -23.052885630475199 ], [ -46.318873907801198, -23.053090372142499 ], [ -46.319067886438901, -23.053450548280701 ], [ -46.319232155923999, -23.0538480791549 ], [ -46.319408815694899, -23.054179641296201 ], [ -46.319308037920003, -23.054536710749399 ], [ -46.319350375966302, -23.054766421566899 ], [ -46.319441118806502, -23.0550254140649 ], [ -46.319596305264803, -23.055313554187499 ], [ -46.319663642314701, -23.0556395346971 ], [ -46.319794772196801, -23.055927875424899 ], [ -46.319981314014498, -23.056141539071 ], [ -46.320103267816897, -23.056311213349201 ], [ -46.320107537839, -23.056749041556401 ], [ -46.320001286363599, -23.0568901937283 ], [ -46.3199771992021, -23.0570518849831 ], [ -46.319595928882201, -23.0574302954867 ], [ -46.319413199817902, -23.0576408080866 ], [ -46.319368617809701, -23.057872134879901 ], [ -46.319422141047298, -23.058097299332701 ], [ -46.319447125843297, -23.058302568557501 ], [ -46.319654009229801, -23.058409410738101 ], [ -46.320017484937701, -23.058657936380701 ], [ -46.320299802437702, -23.058859967870401 ], [ -46.3211953222768, -23.0596543296401 ], [ -46.321367557599501, -23.059892654709198 ], [ -46.321787805393399, -23.060734220008101 ], [ -46.3223639227202, -23.061877138010999 ], [ -46.322395805384303, -23.062096982776598 ], [ -46.322346487547001, -23.062266411435299 ], [ -46.322170245803498, -23.062488001372301 ], [ -46.322035901930903, -23.0626502798556 ], [ -46.321952680312499, -23.062827851214301 ], [ -46.321933132794697, -23.063000961158799 ], [ -46.322272269989703, -23.063799967598101 ], [ -46.322287201149003, -23.064023887339001 ], [ -46.322243244301198, -23.064307256165598 ], [ -46.322088966759601, -23.064603342004901 ], [ -46.321997595118901, -23.0648163587006 ], [ -46.321944143849699, -23.064997615292199 ], [ -46.3219712035039, -23.065158543490298 ], [ -46.322027727029599, -23.0652917111154 ], [ -46.322092285104702, -23.065377644200399 ], [ -46.322404928977001, -23.065638378150499 ], [ -46.322722090365602, -23.065926586024201 ], [ -46.322868236618298, -23.066102241036202 ], [ -46.323010866107197, -23.066352605573201 ], [ -46.323178423824402, -23.066980097732799 ], [ -46.323328493186899, -23.0675566372825 ], [ -46.323317568070102, -23.067742572122299 ], [ -46.323246204095703, -23.0678296429009 ], [ -46.323161751783303, -23.0678814478017 ], [ -46.3230684964525, -23.0679018818931 ], [ -46.3226735832176, -23.067916979936498 ], [ -46.322589053781897, -23.0679609254444 ], [ -46.322500929408001, -23.0680717181774 ], [ -46.322473155696102, -23.068272412645399 ], [ -46.322925613058899, -23.069797627388201 ], [ -46.322982024368201, -23.069919003062601 ], [ -46.323179916740997, -23.070172833191901 ], [ -46.323393915497803, -23.070336125708 ], [ -46.3235221540805, -23.070417594207999 ], [ -46.323692061981603, -23.070416170822501 ], [ -46.323865601917397, -23.070351827349299 ], [ -46.324058917878297, -23.070137957058801 ], [ -46.324281043946698, -23.069829507293601 ], [ -46.3244620778731, -23.069662906728201 ], [ -46.324656892896897, -23.069602312854201 ], [ -46.324886382227497, -23.069612180500101 ], [ -46.325065554558002, -23.069689289673001 ], [ -46.325296584291003, -23.069856367701099 ], [ -46.325493972776698, -23.069990685621601 ], [ -46.325727231007399, -23.070086993450399 ], [ -46.325966644307599, -23.070134116841899 ], [ -46.3262774862539, -23.070249822799099 ], [ -46.326636681689102, -23.0704905040715 ], [ -46.327058546322199, -23.071056896961 ], [ -46.327200764873801, -23.071264023744799 ], [ -46.327299194881597, -23.0713378780661 ], [ -46.327368739637798, -23.071498447999598 ], [ -46.327530187248598, -23.0719333868769 ], [ -46.327613667283998, -23.072648052845999 ], [ -46.327620731749697, -23.072934926413499 ], [ -46.327550332543602, -23.073120255744499 ], [ -46.3274113521705, -23.073243271362799 ], [ -46.327275924873597, -23.073295507348298 ], [ -46.3270638058817, -23.0733248033156 ], [ -46.3269274143383, -23.073278781774398 ], [ -46.324636733810003, -23.072315357116398 ], [ -46.324427785538198, -23.072234566252298 ], [ -46.324312981213403, -23.072223736820501 ], [ -46.324185856301597, -23.0722562473793 ], [ -46.3240594629426, -23.072363432416701 ], [ -46.3240015714862, -23.072525071912501 ], [ -46.324034152821703, -23.072815663058801 ], [ -46.324110157791502, -23.0732567262388 ], [ -46.324154944889997, -23.073492186409101 ], [ -46.324476157324298, -23.074300178464899 ], [ -46.324880246463898, -23.075436661570599 ], [ -46.325119215339399, -23.076033580899999 ], [ -46.325278389473802, -23.076236636004602 ], [ -46.325419724657202, -23.076353368163801 ], [ -46.3257999048028, -23.076566359972201 ], [ -46.326460716636497, -23.076804509079601 ], [ -46.326721110720101, -23.076932031427798 ], [ -46.326982198926103, -23.077130298238298 ], [ -46.327273563774703, -23.0773833387187 ], [ -46.327419998367503, -23.077586498492 ], [ -46.327460236026802, -23.0777905511592 ], [ -46.327406826560697, -23.077975737641999 ], [ -46.3272515435714, -23.078169640972799 ], [ -46.327095602163098, -23.078253100144799 ], [ -46.326912522071403, -23.078298662148899 ], [ -46.326786660618403, -23.078287141530499 ], [ -46.326629873698998, -23.078241291812301 ], [ -46.326455755411203, -23.078160997084801 ], [ -46.325978761194399, -23.077693331365499 ], [ -46.325536246332497, -23.077275685132498 ], [ -46.325427067376197, -23.077232578974598 ], [ -46.325328516815901, -23.077233405864899 ], [ -46.325213374794203, -23.0772752509607 ], [ -46.325108888790098, -23.0773641721158 ], [ -46.325015800574697, -23.077575633164901 ], [ -46.324766367907898, -23.0784801877437 ], [ -46.3246660810157, -23.078650831565401 ], [ -46.324527641121499, -23.078743182007099 ], [ -46.324378513633299, -23.078785309874601 ] ], [ [ -46.324394482065102, -23.049004617261499 ], [ -46.324492270150103, -23.048442231086199 ], [ -46.324759406536501, -23.048033753127399 ], [ -46.324768810082197, -23.047675227286899 ], [ -46.323902208359499, -23.047515210282 ], [ -46.323487455709198, -23.047351407035102 ], [ -46.323244969067702, -23.047640194281499 ], [ -46.323036542242299, -23.047450766547001 ], [ -46.322791136806501, -23.047440871506101 ], [ -46.322627158464499, -23.047836535235898 ], [ -46.322643219177202, -23.048159003425098 ], [ -46.323514494911997, -23.0487969176314 ], [ -46.323748277508301, -23.048938339368998 ], [ -46.324083822490401, -23.048923581505701 ], [ -46.324394482065102, -23.049004617261499 ] ] ] ] } }
]
}
