{
"type": "FeatureCollection",
"name": "PE Rio do Peixe",
"crs": { "type": "name", "properties": { "name": "urn:ogc:def:crs:OGC:1.3:CRS84" } },
"features": [
{"type":"Feature","properties":{"id":null,"Name":"Gleba A - 23,3 ha","descriptio":null,"timestamp":null,"begin":null,"end":null,"altitudeMo":null,"tessellate":-1,"extrude":0,"visibility":-1,"drawOrder":null,"icon":null},"geometry":{"type":"MultiPolygon","coordinates":[[[[-51.74839243489329,-21.572197713300206,0.0],[-51.7441943221245,-21.568383655164002,0.0],[-51.741333799332899,-21.570389017704798,0.0],[-51.741512662560297,-21.570640503049599,0.0],[-51.741873913126199,-21.571138319578701,0.0],[-51.742120220330307,-21.571495646953299,0.0],[-51.742435493551497,-21.571907946675498,0.0],[-51.742694937139809,-21.572259164032094,0.0],[-51.742997073976809,-21.572637867010695,0.0],[-51.743194119739989,-21.572912731456096,0.0],[-51.743384597311199,-21.573184541339295,0.0],[-51.743578358978397,-21.573450242642505,0.0],[-51.743703154628413,-21.573612106416004,0.0],[-51.743910052679801,-21.573798402233404,0.0],[-51.744688623267912,-21.574405982352566,0.0],[-51.745276658199991,-21.573850464750009,0.0],[-51.746565163140517,-21.572777975035592,0.0],[-51.747238224103,-21.572385462574196,0.0],[-51.747769259350527,-21.572291385055841,0.0],[-51.74839243489329,-21.572197713300206,0.0]]]]}},
{"type":"Feature","properties":{"id":null,"Name":"Gleba B - 34,2 ha","descriptio":null,"timestamp":null,"begin":null,"end":null,"altitudeMo":null,"tessellate":-1,"extrude":0,"visibility":-1,"drawOrder":null,"icon":null},"geometry":{"type":"MultiPolygon","coordinates":[[[[-51.74406980556725,-21.574125485552329,0.0],[-51.743490097979688,-21.573617884251409,0.0],[-51.742957467161077,-21.572847926134589,0.0],[-51.7425208800489,-21.572265272152499,0.0],[-51.741818083493293,-21.571291023692702,0.0],[-51.741538935328698,-21.570921479460203,0.0],[-51.741215002492893,-21.570472299940398,0.0],[-51.735578174240999,-21.5744239846669,0.0],[-51.735541838551391,-21.574541470420797,0.0],[-51.735522300558699,-21.576367769401305,0.0],[-51.739281789157502,-21.57620380449551,0.0],[-51.741289651738427,-21.575869594883361,0.0],[-51.742797082803037,-21.575316404240009,0.0],[-51.744048014359826,-21.574761652260698,0.0],[-51.744550092239457,-21.574487451132125,0.0],[-51.74406980556725,-21.574125485552329,0.0]]]]}},
{"type":"Feature","properties":{"id":null,"Name":"Gleba D - 36,7 ha","descriptio":null,"timestamp":null,"begin":null,"end":null,"altitudeMo":null,"tessellate":-1,"extrude":0,"visibility":-1,"drawOrder":null,"icon":null},"geometry":{"type":"MultiPolygon","coordinates":[[[[-51.738752038814198,-21.579910218051197,0.0],[-51.739732114267007,-21.579841920110212,0.0],[-51.740988796380798,-21.579015515024498,0.0],[-51.741863010025199,-21.578615972069901,0.0],[-51.742614287375801,-21.578615972069908,0.0],[-51.743382639211703,-21.578670610422702,0.0],[-51.745339375220397,-21.577434417691205,0.0],[-51.746397993305401,-21.577113417368601,0.0],[-51.746832898168108,-21.577111984540601,0.0],[-51.746767216247001,-21.576940962792303,0.0],[-51.746685113845707,-21.576760778946309,0.0],[-51.746537329523193,-21.576592810752402,0.0],[-51.746222056302003,-21.576214118109895,0.0],[-51.746107112940095,-21.5760644731639,0.0],[-51.745952760425602,-21.575786560711098,0.0],[-51.745873942120298,-21.575652185268094,0.0],[-51.745670328164906,-21.575429243917199,0.0],[-51.7453944640964,-21.575181870236001,0.0],[-51.745122150440217,-21.574931613167557,0.0],[-51.744848340692712,-21.57470579392831,0.0],[-51.744550964147621,-21.574487754694456,0.0],[-51.744037854088603,-21.574767442993142,0.0],[-51.743255615352837,-21.575111990741824,0.0],[-51.742742180041503,-21.575337031690921,0.0],[-51.741289201748877,-21.575872143049342,0.0],[-51.740215564936975,-21.576052579485154,0.0],[-51.739281237872781,-21.576206392664819,0.0],[-51.738331892473738,-21.576248617384849,0.0],[-51.73759142390518,-21.576279274417306,0.0],[-51.736690792257519,-21.576322953558495,0.0],[-51.735887538921098,-21.576348077670414,0.0],[-51.735520814128002,-21.576365973840133,0.0],[-51.735520575715881,-21.57656493988717,0.0],[-51.735738140730312,-21.577296163111001,0.0],[-51.735939342724919,-21.577959625192417,0.0],[-51.736173490923079,-21.578269840742426,0.0],[-51.736273032323098,-21.578550147322499,0.0],[-51.736279868666799,-21.578562230162497,0.0],[-51.738752038814198,-21.579910218051197,0.0]]]]}},
{"type":"Feature","properties":{"id":null,"Name":"Gleba C - 23,7 ha","descriptio":null,"timestamp":null,"begin":null,"end":null,"altitudeMo":null,"tessellate":-1,"extrude":0,"visibility":-1,"drawOrder":null,"icon":null},"geometry":{"type":"MultiPolygon","coordinates":[[[[-51.747251717567487,-21.577084390743696,0.0],[-51.747865388027492,-21.576858281404199,0.0],[-51.748653532805797,-21.576527762524801,0.0],[-51.749271629171503,-21.576681432891995,0.0],[-51.749869236155007,-21.576517517833697,0.0],[-51.750494162314901,-21.576466294378001,0.0],[-51.7516279081349,-21.576203347305203,0.0],[-51.752376803525102,-21.575914001359003,0.0],[-51.752257129279798,-21.575714056592094,0.0],[-51.748384632753549,-21.572196313928163,0.0],[-51.747728361605233,-21.572297145423768,0.0],[-51.747246710882102,-21.572379694662462,0.0],[-51.746569158680607,-21.572776431773487,0.0],[-51.746360316967419,-21.572948166878973,0.0],[-51.745815930160248,-21.573397618607359,0.0],[-51.745278843449611,-21.573852736186495,0.0],[-51.744687656275808,-21.574404359205506,0.0],[-51.745190850141007,-21.574754309791199,0.0],[-51.745447009633203,-21.574980306183502,0.0],[-51.745640771300401,-21.575169654240803,0.0],[-51.746021726442692,-21.57551780970039,0.0],[-51.746245044974401,-21.575859856354789,0.0],[-51.746376408816609,-21.576085851022803,0.0],[-51.746655556981203,-21.576388194689493,0.0],[-51.747013523451102,-21.576785210667303,0.0],[-51.747164591869598,-21.576986772209008,0.0],[-51.747251717567487,-21.577084390743696,0.0]]]]}}
]
}
