{
"type": "FeatureCollection",
"name": "Rancho Katende",
"crs": { "type": "name", "properties": { "name": "urn:ogc:def:crs:OGC:1.3:CRS84" } },
"features": [
{"type":"Feature","properties":{"recibo":"SP-3525508-54D41EB88EB94910BA7BBE7183F03EFE","modfiscais":1.3021,"tema":"Área do Imovel","area":31.2515,"municipio":"Joanópolis","estado":"São Paulo"},"geometry":{"type":"MultiPolygon","coordinates":[[[[-46.210556030273402,-22.900262757697199],[-46.212176084518397,-22.897762277952999],[-46.210405826568604,-22.896329175898401],[-46.209547519683802,-22.895251868524099],[-46.208689212799101,-22.893779205154502],[-46.2040758132935,-22.897544842753501],[-46.204537153243997,-22.898137847022301],[-46.204982399248301,-22.8983132772982],[-46.205344498157501,-22.898603600640801],[-46.2054383753227,-22.8986854471569],[-46.205545663644799,-22.898758645702301],[-46.205816566944101,-22.898818563310002],[-46.206007003644899,-22.898872921685001],[-46.2060619889184,-22.898900100851701],[-46.206088140459102,-22.898917396688201],[-46.206119991694003,-22.898935927936201],[-46.206142622834001,-22.8989513706438],[-46.206001639202,-22.898986579976],[-46.206200122833202,-22.899086648460202],[-46.206511259079001,-22.899037231882499],[-46.206833124160802,-22.899037231882499],[-46.2069611995529,-22.899015612198799],[-46.2070758639437,-22.8990817068713],[-46.207159012454397,-22.899139771302501],[-46.207228749990499,-22.899206483586401],[-46.2074775244186,-22.8994665378506],[-46.207779943943102,-22.8996574086283],[-46.207973733435097,-22.899733386369199],[-46.208170205354797,-22.899836542817798],[-46.208260059270401,-22.899876075883299],[-46.208341866618298,-22.899930433786601],[-46.208488047122998,-22.900037914072701],[-46.208681166047398,-22.9001515714614],[-46.208909153938301,-22.900200987507901],[-46.209007054541402,-22.9002504036897],[-46.209098249673801,-22.900255345275902],[-46.209226995793898,-22.900195428210001],[-46.209365129470797,-22.900108332171001],[-46.209505274920602,-22.900071270085999],[-46.209664195776099,-22.900056445154799],[-46.209811717227304,-22.900062004646198],[-46.209947168758703,-22.9000860951014],[-46.210212707519503,-22.9001342756717],[-46.210556030273402,-22.900262757697199]]]]}},
{"type":"Feature","properties":{"recibo":"SP-3525508-54D41EB88EB94910BA7BBE7183F03EFE","modfiscais":1.3021,"tema":"Área Líquida do Imóvel","area":31.2515,"municipio":"Joanópolis","estado":"São Paulo"},"geometry":{"type":"MultiPolygon","coordinates":[[[[-46.210556030273402,-22.900262757697199],[-46.212176084518397,-22.897762277952999],[-46.210405826568604,-22.896329175898401],[-46.209547519683802,-22.895251868524099],[-46.208689212799101,-22.893779205154502],[-46.2040758132935,-22.897544842753501],[-46.204537153243997,-22.898137847022301],[-46.204982399248301,-22.8983132772982],[-46.205344498157501,-22.898603600640801],[-46.2054383753227,-22.8986854471569],[-46.205545663644799,-22.898758645702301],[-46.205816566944101,-22.898818563310002],[-46.206007003644899,-22.898872921685001],[-46.2060619889184,-22.898900100851701],[-46.206088140459102,-22.898917396688201],[-46.206119991694003,-22.898935927936201],[-46.206142622834001,-22.8989513706438],[-46.206001639202,-22.898986579976],[-46.206200122833202,-22.899086648460202],[-46.206511259079001,-22.899037231882499],[-46.206833124160802,-22.899037231882499],[-46.2069611995529,-22.899015612198799],[-46.2070758639437,-22.8990817068713],[-46.207159012454397,-22.899139771302501],[-46.207228749990499,-22.899206483586401],[-46.2074775244186,-22.8994665378506],[-46.207779943943102,-22.8996574086283],[-46.207973733435097,-22.899733386369199],[-46.208170205354797,-22.899836542817798],[-46.208260059270401,-22.899876075883299],[-46.208341866618298,-22.899930433786601],[-46.208488047122998,-22.900037914072701],[-46.208681166047398,-22.9001515714614],[-46.208909153938301,-22.900200987507901],[-46.209007054541402,-22.9002504036897],[-46.209098249673801,-22.900255345275902],[-46.209226995793898,-22.900195428210001],[-46.209365129470797,-22.900108332171001],[-46.209505274920602,-22.900071270085999],[-46.209664195776099,-22.900056445154799],[-46.209811717227304,-22.900062004646198],[-46.209947168758703,-22.9000860951014],[-46.210212707519503,-22.9001342756717],[-46.210556030273402,-22.900262757697199]]]]}}
]
}
