{
"type": "FeatureCollection",
"name": "Recanto SoLe",
"crs": { "type": "name", "properties": { "name": "urn:ogc:def:crs:OGC:1.3:CRS84" } },
"features": [
{ "type": "Feature", "properties": { "CAR": "SP-3538600-D974CB24B02649A7BD1143835EB0ACC1", "Município": "Piracaia", "Área (ha)": 16.652048118703625, "Estado": "São Paulo" }, "geometry": { "type": "MultiPolygon", "coordinates": [ [ [ [ -46.2163167469445, -23.007711685277801 ], [ -46.216370738333303, -23.007650394722202 ], [ -46.216423747222201, -23.007577460277801 ], [ -46.216490158611101, -23.007573788888902 ], [ -46.216717446388898, -23.0076338213889 ], [ -46.216739883888899, -23.007589933888902 ], [ -46.216664850555603, -23.007361097499999 ], [ -46.217537780833297, -23.005336996666699 ], [ -46.217341404166703, -23.0051223702778 ], [ -46.2171926672222, -23.004997697777799 ], [ -46.217088675, -23.0049230797222 ], [ -46.216974541111099, -23.004827314444402 ], [ -46.216375157222203, -23.0043448230556 ], [ -46.215941866666697, -23.003953 ], [ -46.214695038611097, -23.002837630833302 ], [ -46.213439018611098, -23.001368446388899 ], [ -46.213151207777798, -23.001106916111102 ], [ -46.2121646758333, -23.002454552500001 ], [ -46.211662092222198, -23.003030848888901 ], [ -46.212946356111097, -23.0041562525 ], [ -46.213342699722197, -23.004410538888902 ], [ -46.213835628888901, -23.004860349166702 ], [ -46.214886565833297, -23.006096901944399 ], [ -46.2163167469445, -23.007711685277801 ] ] ] ] } },
{ "type": "Feature", "properties": { "CAR": "SP-3538600-8A6DA77D76FD4729871444165D99C821", "Município": "Piracaia", "Área (ha)": 23.574316669671983, "Estado": "São Paulo" }, "geometry": { "type": "MultiPolygon", "coordinates": [ [ [ [ -46.215941905975299, -23.003959873834201 ], [ -46.216317415237398, -23.003510530741998 ], [ -46.216588318347902, -23.003095751175199 ], [ -46.216928958892801, -23.002614309008099 ], [ -46.217245459556601, -23.002184713009001 ], [ -46.217580735683399, -23.001747708779401 ], [ -46.217704117298098, -23.001495875190798 ], [ -46.217816770076801, -23.001140344618801 ], [ -46.217980384826703, -23.0009823307307 ], [ -46.2181547284126, -23.000866289163799 ], [ -46.217846274375901, -23.000486067160399 ], [ -46.218146681785598, -23.000204603429101 ], [ -46.218393445015003, -22.999942891012001 ], [ -46.218795776367202, -22.999784875722 ], [ -46.219155192375197, -22.999661426147998 ], [ -46.219509243965199, -22.999621922260399 ], [ -46.219353675842299, -22.998999734506899 ], [ -46.2191981077194, -22.998426924198402 ], [ -46.219117641449003, -22.997701031781101 ], [ -46.217964291572599, -22.9980664474995 ], [ -46.217363476753199, -22.9977504123414 ], [ -46.217071115970597, -22.997846704381999 ], [ -46.216655373573303, -22.997994845848801 ], [ -46.216207444667802, -22.998165208334601 ], [ -46.215949952602401, -22.998387419949601 ], [ -46.215386688709302, -22.998807152002001 ], [ -46.214828789234197, -22.999189847735899 ], [ -46.214547157287598, -22.999414526661301 ], [ -46.214236021041899, -22.999658957155301 ], [ -46.213822960853598, -22.999947828986802 ], [ -46.213509142398799, -23.0001502857993 ], [ -46.213334798812902, -23.0005996400788 ], [ -46.213171184063, -23.0011033101304 ], [ -46.213407218456297, -23.0013798340654 ], [ -46.213782727718403, -23.001836591110202 ], [ -46.214386224746697, -23.002498268844299 ], [ -46.214742958545699, -23.002853795839201 ], [ -46.215118467807798, -23.003174756905299 ], [ -46.215413510799401, -23.003473496903901 ], [ -46.215941905975299, -23.003959873834201 ] ] ] ] } }
]
}
