{
"type": "FeatureCollection",
"name": "REDS 2 - 10028",
"crs": { "type": "name", "properties": { "name": "urn:ogc:def:crs:OGC:1.3:CRS84" } },
"features": [
{"type":"Feature","properties":{"fid":61.0,"handle":3274,"block":-1,"etype":18,"space":0,"layer":"CONFRONTANTES","olinetype":"byblock","linetype":null,"color":"0,0,0,79","ocolor":256,"color24":-1,"transparen":0,"lweight":-1,"linewidth":0.13,"ltscale":1.0,"visible":1,"width":0.0,"thickness":0.0,"ext":"(3:0,0,0.1)","area":18.149,"area_ha":18.149},"geometry":{"type":"MultiPolygon","coordinates":[[[[-46.260457451154977,-22.982781969446776],[-46.259655730052444,-22.983299615502624],[-46.25891871694143,-22.983737181250817],[-46.258773632813032,-22.98402589275711],[-46.261058780322067,-22.98563307364337],[-46.262091019805609,-22.986573306768044],[-46.263095456108701,-22.9871196370826],[-46.263884372352145,-22.987729485548876],[-46.264129690884516,-22.988164601179577],[-46.264974615010814,-22.988999749667808],[-46.265031077978151,-22.989050925279283],[-46.265017434448566,-22.989152968458722],[-46.265049167106248,-22.98942296814991],[-46.2652189732054,-22.989711238660654],[-46.265218978899895,-22.989867861101903],[-46.265166978890271,-22.99008005678634],[-46.265241416327235,-22.990439519692821],[-46.265206497935957,-22.990598299679142],[-46.265180345524875,-22.990774432218156],[-46.265450498862506,-22.990725579464609],[-46.265611328194879,-22.990560175740551],[-46.266027768288254,-22.990373581693092],[-46.267096685561938,-22.99035975215585],[-46.267187223944291,-22.990409678945433],[-46.267391372145113,-22.990430038570391],[-46.267498758230616,-22.990404693918578],[-46.26780822130489,-22.990478799233898],[-46.261104149064224,-22.983023883653431],[-46.261123932570356,-22.982814826576448],[-46.260457451154977,-22.982781969446776]]]]}}
]
}
