{
"type": "FeatureCollection",
"name": "REDS 3",
"crs": { "type": "name", "properties": { "name": "urn:ogc:def:crs:OGC:1.3:CRS84" } },
"features": [
{"type":"Feature","properties":{"Nome do Projeto":null,"Município":null,"Região Hidrográfica":null,"UGRHI":null,"Propriedade":null,"Área (ha)":"120.97344733395404","Fotos do Projeto":null},"geometry":{"type":"MultiPolygon","coordinates":[[[[-46.057951641388797,-23.018678392222199],[-46.055307201388899,-23.0193431222222],[-46.055081371388901,-23.0197836722222],[-46.054836371111101,-23.021517841944402],[-46.053062751111099,-23.022624501944399],[-46.055508031111103,-23.022168392222198],[-46.058202201111101,-23.022555892222201],[-46.058407201111102,-23.021183392222198],[-46.059522201111101,-23.020287282222199],[-46.060806371111099,-23.0214417322222],[-46.0608835911111,-23.022329782222201],[-46.061708311111097,-23.022743122222199],[-46.062054141111098,-23.0229558922222],[-46.062711921111102,-23.022874232500001],[-46.063114981111099,-23.0238708925],[-46.062048031111097,-23.024346732222199],[-46.060298591111099,-23.024296732222201],[-46.057444701111102,-23.0236017322222],[-46.053132481111099,-23.023847841944502],[-46.048486641111097,-23.023395891666699],[-46.050215530833299,-23.026160061666701],[-46.050610530833303,-23.026338121944399],[-46.0534844208333,-23.027368121944502],[-46.0577049808334,-23.027858672222202],[-46.058072750833396,-23.028307002222199],[-46.058221920833397,-23.028387842222202],[-46.058252480833303,-23.0286781222222],[-46.058346920833301,-23.0287889522222],[-46.058298590833303,-23.028903952222201],[-46.058257750833299,-23.029047282222201],[-46.0582022008333,-23.0291500622222],[-46.058182750833403,-23.029239232222199],[-46.058233030833399,-23.0292725622222],[-46.0583633108333,-23.029393122222199],[-46.0584047008333,-23.0294620022222],[-46.0584935908334,-23.0295797822222],[-46.058609420833299,-23.029619782222198],[-46.058756920833297,-23.029793122222198],[-46.058936370833401,-23.029891452222198],[-46.059001640833301,-23.029988952222201],[-46.059102750833297,-23.030043392222201],[-46.059204420833403,-23.030064502222199],[-46.0593233108333,-23.0301917322222],[-46.059381640833301,-23.030275622222199],[-46.059449420833303,-23.030453952222199],[-46.059432750833402,-23.030554232222201],[-46.059521920833397,-23.030685622222201],[-46.059531920833301,-23.0308395022222],[-46.059509420833301,-23.030953952222202],[-46.059573030833299,-23.031027842222201],[-46.0596691408334,-23.0311070022222],[-46.059761640833301,-23.0311342322222],[-46.059874980833399,-23.0312478422222],[-46.0599591408333,-23.0314047822222],[-46.059978030555598,-23.031560622222202],[-46.060147750555501,-23.031593392222199],[-46.060315250555497,-23.031562842222201],[-46.060406090555603,-23.031566452222201],[-46.060659140833302,-23.031466172222199],[-46.0611016408333,-23.031491452222198],[-46.061715530833297,-23.031526732222201],[-46.061897480833302,-23.031492562222201],[-46.061994140833299,-23.031518672222202],[-46.062069420833303,-23.031508122222199],[-46.062207480833401,-23.031505062222202],[-46.062270530833302,-23.031440622222199],[-46.062338590833299,-23.0313881222222],[-46.062373870833298,-23.031380622222201],[-46.062421920833401,-23.031290892222199],[-46.062476920833298,-23.0312881222222],[-46.062543870833302,-23.031230342222202],[-46.062676640833303,-23.0311039522222],[-46.062727750833403,-23.0310661722222],[-46.0627152508333,-23.031006452222201],[-46.0627141408334,-23.0309353422222],[-46.062752200833302,-23.030845062222198],[-46.062784420833303,-23.030788672222201],[-46.0628158108333,-23.030703122222199],[-46.062825250833299,-23.030640892222198],[-46.062868870833299,-23.0306114522222],[-46.062949140833297,-23.030506452222198],[-46.063506640833403,-23.029828672222202],[-46.064050810833301,-23.028842562222199],[-46.063587480833299,-23.0270628422222],[-46.0642660908333,-23.026639782499998],[-46.064662751111101,-23.026011172499999],[-46.064841641111101,-23.0255100625],[-46.065589701111101,-23.024660342499999],[-46.065433591111102,-23.024714782499998],[-46.065462201111103,-23.024049232500001],[-46.065787481111101,-23.0219742325],[-46.064041371111102,-23.021734502499999],[-46.062823031111101,-23.020623122500002],[-46.062971371388898,-23.0179520025],[-46.060688031388899,-23.0180206225],[-46.060237481388903,-23.0178220022222],[-46.057951641388797,-23.018678392222199]]]]}}
]
}
