{
"type": "FeatureCollection",
"name": "Reserva Muriqui",
"crs": { "type": "name", "properties": { "name": "urn:ogc:def:crs:OGC:1.3:CRS84" } },
"features": [
{"type":"Feature","properties":{"id":8190},"geometry":{"type":"MultiPolygon","coordinates":[[[[-45.9402489249631,-23.013150739113797],[-45.940372366757302,-23.012856329128397],[-45.940483843928298,-23.012605541611798],[-45.940762895301503,-23.012189725745408],[-45.940792432840396,-23.01213867503559],[-45.941171588115097,-23.011368416544201],[-45.941192056025798,-23.011319483675898],[-45.9412657104549,-23.011107582530101],[-45.941306713039097,-23.011165457108895],[-45.941409359518701,-23.011270035384701],[-45.941453994195399,-23.011293642842194],[-45.941698061517599,-23.011537709643704],[-45.941905391345003,-23.011466440015507],[-45.942222865143201,-23.011343337930494],[-45.9424949855416,-23.011187840559998],[-45.9425338598842,-23.011019385075198],[-45.942462590256099,-23.010825013361995],[-45.942138637400802,-23.010468665221204],[-45.941736792888697,-23.0099842503293],[-45.9417333595553,-23.009961372047595],[-45.941878874606203,-23.009710315270304],[-45.941978854411303,-23.009563883359302],[-45.942084362192297,-23.009600843957088],[-45.942222930206803,-23.009610605654704],[-45.942358849790708,-23.009583805864292],[-45.942745088899997,-23.009452167772096],[-45.9429101894372,-23.009357844135099],[-45.942918500626298,-23.009350631827598],[-45.943013310110103,-23.009334830227697],[-45.943285430508503,-23.009153416628799],[-45.943525155621401,-23.009023835486705],[-45.943810234133998,-23.008712840745602],[-45.9440305220756,-23.008641571117408],[-45.944276726245697,-23.008524948089494],[-45.944509972301503,-23.008162120891594],[-45.944471097958797,-23.007851126150488],[-45.944399828330702,-23.0075336523524],[-45.944283205302803,-23.007306885353596],[-45.943941800049302,-23.007109736073296],[-45.943910337127399,-23.007049753115908],[-45.943965275720103,-23.006758358075601],[-45.944180307432703,-23.006208524226601],[-45.9444990618601,-23.005844036873398],[-45.944094559121801,-23.005809564679705],[-45.94400088922611,-23.006029103497692],[-45.9439819419024,-23.006256471382002],[-45.943890994748699,-23.006396681577304],[-45.943743205623903,-23.006457313013101],[-45.943633311146499,-23.006544470701996],[-45.943549942922303,-23.006570996955205],[-45.943462785233301,-23.006461102477797],[-45.94345520630381,-23.006275418705602],[-45.943542363992805,-23.005998787779792],[-45.9435309955986,-23.005960893132396],[-45.943424890585902,-23.005862367049193],[-45.943323719860501,-23.005775649284598],[-45.943290791650398,-23.0058296418113],[-45.943033297592898,-23.006488040077109],[-45.943011425004002,-23.006564129201802],[-45.942922051312401,-23.007038150219692],[-45.942919532941005,-23.007178649104691],[-45.942963784905899,-23.007313063676897],[-45.942989524245,-23.007362135530101],[-45.942719376940602,-23.008043159395704],[-45.942702370184001,-23.008095691581698],[-45.9426359599112,-23.008357756615197],[-45.942315080969003,-23.008636209854597],[-45.9422309939511,-23.008664868407102],[-45.9420996666164,-23.008597713170097],[-45.941861905783902,-23.008378866842904],[-45.941757383728898,-23.008305646230291],[-45.941635575501103,-23.008260828604794],[-45.941235068449799,-23.008168692626089],[-45.9411884608581,-23.008160176859594],[-45.9408185976243,-23.008109772754604],[-45.940294790088501,-23.008004397914792],[-45.940125650389597,-23.007998190209197],[-45.9398108677156,-23.008037691351994],[-45.939603540236099,-23.008110839782297],[-45.939190571916598,-23.008369027516292],[-45.938947637305603,-23.008531167015001],[-45.938919387965797,-23.009011405792098],[-45.939237735969705,-23.009285333144305],[-45.939423564425503,-23.009327049736395],[-45.939751200569901,-23.009108378031296],[-45.939718794072199,-23.009053096358596],[-45.939707425677902,-23.008946991345901],[-45.939597531200498,-23.0088863599101],[-45.939317110809903,-23.008829517939091],[-45.939317110809903,-23.008719623461602],[-45.9395217419058,-23.008605939519502],[-45.939692267818998,-23.0084657293242],[-45.939946161956399,-23.008344466452591],[-45.940162161446501,-23.008348255917305],[-45.940442581837097,-23.008363413776301],[-45.940541107920303,-23.008458150394702],[-45.940579002567702,-23.008613518449003],[-45.940582792032401,-23.008749939179605],[-45.940529739526099,-23.008844675797992],[-45.940383449665298,-23.008946556236705],[-45.940627564730399,-23.008995664956402],[-45.941022822351599,-23.009050579201794],[-45.941154367380499,-23.009080841],[-45.941027289571402,-23.009269100653498],[-45.940798335637098,-23.009664109562593],[-45.940748004203797,-23.009798016971502],[-45.940747737087896,-23.009810635126993],[-45.940492048046302,-23.010384449469495],[-45.940304983393403,-23.010922618904292],[-45.940355655704401,-23.011243543540608],[-45.940259410959001,-23.011491558845893],[-45.940026202537602,-23.011613715638088],[-45.939859625093597,-23.011639627684996],[-45.939530171926798,-23.011739574151299],[-45.939245139411703,-23.011850625780589],[-45.939156298108202,-23.0119616774099],[-45.939013458556303,-23.012230747263594],[-45.938893921316399,-23.012568264176096],[-45.938923681953,-23.012615408950204],[-45.939328606516,-23.012778978978197],[-45.939355005457301,-23.012690982507095],[-45.939203426867799,-23.012562140705992],[-45.9391655322204,-23.012452246228595],[-45.939233742585699,-23.012251404597503],[-45.939339847598397,-23.012069510289997],[-45.939483847258401,-23.011997510459988],[-45.939589952271099,-23.011925510629997],[-45.939851425338006,-23.011830774011493],[-45.940150793052297,-23.011743616322605],[-45.940325108430308,-23.0117170900694],[-45.940480476484503,-23.011811826687893],[-45.940514581667202,-23.011898984376792],[-45.9402947927124,-23.012190773161691],[-45.940309950571297,-23.012304457103799],[-45.940283424318103,-23.012463614622799],[-45.940215213952797,-23.012596245888599],[-45.940056056433903,-23.012675824648095],[-45.939927214632803,-23.012800876984496],[-45.939789179401501,-23.0129650269892],[-45.9402489249631,-23.013150739113797]]]]}},
{"type":"Feature","properties":{"id":8191},"geometry":{"type":"MultiPolygon","coordinates":[[[[-45.947943875228198,-23.012844229385898],[-45.948368339233497,-23.012365473472993],[-45.948595378119997,-23.012069335794902],[-45.948975421473499,-23.011876846304208],[-45.949473919898203,-23.011526416718397],[-45.949735508180503,-23.011245085924301],[-45.949834220739902,-23.010894656338603],[-45.949955645154397,-23.010798101984793],[-45.950130358418001,-23.010736716243599],[-45.9503277835367,-23.01064787494019],[-45.950061259626402,-23.0104751279613],[-45.949819413855998,-23.01064787494019],[-45.949621988737299,-23.010608389916396],[-45.9496812162729,-23.0104405785655],[-45.949656538132999,-23.010198732795097],[-45.949241945383797,-23.0103764154019],[-45.948921129565797,-23.010188861539195],[-45.948852030774297,-23.010045728328098],[-45.948595378119997,-23.0098433675814],[-45.948318982953801,-23.009710105626301],[-45.948008038391798,-23.009715041254303],[-45.9475440893628,-23.009833496325502],[-45.947272629824603,-23.009947015768699],[-45.947065333449899,-23.009947015768695],[-45.946867908331207,-23.009917402000905],[-45.946675418840499,-23.0101345696315],[-45.9463792811624,-23.010445514193499],[-45.946260826091198,-23.01051954861299],[-45.945969624041098,-23.010554098008797],[-45.945658679479102,-23.0106034542885],[-45.945303314265402,-23.010712038103801],[-45.94510588914671,-23.010889720710601],[-45.944962755935698,-23.011442511043008],[-45.945076275378909,-23.011748519977001],[-45.945273700497602,-23.011941009467705],[-45.945737649526599,-23.011876846304201],[-45.9461226285081,-23.011684356813394],[-45.946611255676899,-23.011240150296299],[-45.946681000251608,-23.011048352716006],[-45.947173917265197,-23.010707102475799],[-45.947567521132001,-23.010549660929094],[-45.947850098296797,-23.010539291124896],[-45.948146235974903,-23.010662681824101],[-45.9483239185817,-23.010914398850396],[-45.9485747745412,-23.011174721072489],[-45.948037652159599,-23.011605386765904],[-45.947948810856197,-23.011669549929501],[-45.948072201555398,-23.011778133744798],[-45.948437438025003,-23.011565901742198],[-45.948748382586999,-23.011437575415005],[-45.949074134032898,-23.011328991599704],[-45.9490346490091,-23.011511609834496],[-45.9486792837954,-23.011704099325303],[-45.948501601188603,-23.011723841837203],[-45.948175849742697,-23.012039722027104],[-45.9480623302995,-23.012330924077197],[-45.947859969552802,-23.012553027335702],[-45.947751385737497,-23.0127553880824],[-45.947943875228198,-23.012844229385898]],[[-45.949116666622409,-23.011232038582897],[-45.949082561439702,-23.011137301964503],[-45.949048456257103,-23.011004670698597],[-45.948927193385501,-23.010928881403899],[-45.948817298908097,-23.010845513179696],[-45.948612667812199,-23.010739408166998],[-45.948461089222697,-23.010709092449101],[-45.948370142069002,-23.010591619042199],[-45.948332247421597,-23.010386987946401],[-45.948529299588003,-23.010133093808893],[-45.948582352094299,-23.010208883103701],[-45.948840035696499,-23.010462777241095],[-45.949200034846598,-23.010746987096503],[-45.949173508593404,-23.01101982855759],[-45.949234140029297,-23.011152459823396],[-45.949116666622409,-23.011232038582897]]]]}},
{"type":"Feature","properties":{"id":8192},"geometry":{"type":"MultiPolygon","coordinates":[[[[-45.936472701961797,-23.011285026416491],[-45.936893840673697,-23.011262349716695],[-45.9372080749433,-23.011191080088501],[-45.937483434870302,-23.010899522518702],[-45.937591369076102,-23.010651673893694],[-45.9385326661032,-23.009946503283501],[-45.939212977030898,-23.009467600482903],[-45.939126684340401,-23.0094222968204],[-45.938956405175503,-23.0093741744477],[-45.9387454070799,-23.009215000445796],[-45.938710797493499,-23.00912155456259],[-45.938688030404798,-23.009109501398004],[-45.938628843684299,-23.008743936359597],[-45.937924436031103,-23.009240189779305],[-45.937198391340303,-23.009784103751205],[-45.936770738588699,-23.0098207595106],[-45.936391713748009,-23.009930903481393],[-45.936213539677603,-23.010076682266298],[-45.936100156178298,-23.010400635121592],[-45.936151988635103,-23.010909241104393],[-45.936284809305803,-23.011097133760494],[-45.936472701961797,-23.011285026416491]]]]}},
{"type":"Feature","properties":{"id":8193},"geometry":{"type":"MultiPolygon","coordinates":[[[[-45.951688767574602,-23.001475733958493],[-45.9517406000314,-23.001372069044802],[-45.951747079088499,-23.001171218274603],[-45.951669330403298,-23.000925014104496],[-45.951701725688807,-23.000782474848197],[-45.951785953431198,-23.000601061249299],[-45.951857223059307,-23.000471480107105],[-45.951973846087199,-23.000315982736598],[-45.9521228644007,-23.000024425166902],[-45.952058073829598,-22.999791179111096],[-45.952015752377598,-22.999764728233096],[-45.951967930278798,-22.9996812544689],[-45.951858249711798,-22.999582994655601],[-45.9517004505608,-22.999480476896796],[-45.951549128662705,-22.999245384511799],[-45.951433010628001,-22.998948832746198],[-45.951606592044399,-22.9986891916205],[-45.951651962583298,-22.998601401910101],[-45.951825071326105,-22.998147564220996],[-45.952106526347201,-22.997666686112797],[-45.952143498694198,-22.997587002428507],[-45.952060818672201,-22.997488695166101],[-45.9518760019781,-22.997350832841498],[-45.951564466819299,-22.997743367141602],[-45.951371977328606,-22.998231994310398],[-45.951283136025097,-22.998468904452896],[-45.9509795949051,-22.998572552640201],[-45.950567450646901,-22.998730006901496],[-45.950562649876098,-22.999375710565804],[-45.950646852618902,-22.9995918250494],[-45.950686878481299,-22.999670297940195],[-45.950915724077198,-23.000025833612295],[-45.951054567980599,-23.000164325403293],[-45.951297790880702,-23.000322341093696],[-45.951329264661503,-23.000336590102503],[-45.9513518566051,-23.000432605764502],[-45.9514296052904,-23.000646414649001],[-45.951565665489603,-23.001203613560094],[-45.9515851026609,-23.001443338672999],[-45.951688767574602,-23.001475733958493]]]]}},
{"type":"Feature","properties":{"id":8194},"geometry":{"type":"MultiPolygon","coordinates":[[[[-45.945079071524901,-23.005354860303999],[-45.945170315116897,-23.005260700505705],[-45.945227765015701,-23.005152606727592],[-45.945270679991602,-23.005034099614601],[-45.945295934297,-23.004884416830294],[-45.945266295886903,-23.004735424546997],[-45.945151818567801,-23.004445674879602],[-45.945020489905602,-23.004154240049001],[-45.944944201057297,-23.003779786778502],[-45.944920939535102,-23.003702882053801],[-45.944751203244209,-23.003941108427004],[-45.944709519132097,-23.004047213439698],[-45.944610993048897,-23.004123002734499],[-45.944538993218899,-23.0041343711287],[-45.944489730177303,-23.004005529327596],[-45.9444707828536,-23.003888055920701],[-45.944448046065197,-23.003785740372795],[-45.944410343862998,-23.003748038170599],[-45.944135112820803,-23.003803084379097],[-45.9439470856002,-23.003861581736604],[-45.94399224149241,-23.003980749603691],[-45.944071233054203,-23.004368481856002],[-45.94410067234751,-23.004459288684608],[-45.944239341395402,-23.004765706311108],[-45.9442594622858,-23.004816634564495],[-45.943902752182503,-23.005101752758691],[-45.943842405945702,-23.005159415594896],[-45.943765117978302,-23.005247792209506],[-45.945079071524901,-23.005354860303999]]]]}},
{"type":"Feature","properties":{"id":8195},"geometry":{"type":"MultiPolygon","coordinates":[[[[-45.941180406813899,-23.005037143439399],[-45.941492392964498,-23.004760577299091],[-45.941867354362003,-23.004447788595993],[-45.941551311579602,-23.004358342525496],[-45.941484680602102,-23.00407701173129],[-45.941484680602102,-23.003973363543988],[-45.942234543557902,-23.003283757432797],[-45.9421075812106,-23.003321755979393],[-45.9419694963618,-23.003333667707395],[-45.941829336297701,-23.003389610939088],[-45.941357268247003,-23.003666128616995],[-45.941291543719302,-23.003712265983008],[-45.940833743952901,-23.004094156005394],[-45.940436672745001,-23.004445858408403],[-45.939920281428599,-23.004934430162802],[-45.941180406813899,-23.005037143439399]]]]}},
{"type":"Feature","properties":{"id":8196},"geometry":{"type":"MultiPolygon","coordinates":[[[[-45.9457278605475,-23.002507423010897],[-45.946007505410101,-23.0022843118889],[-45.946921587221297,-23.001794573973406],[-45.947928667662502,-23.0012835509018],[-45.947973837112109,-23.001257570516195],[-45.948360075694801,-23.001007413368303],[-45.948452398868497,-23.000929557149099],[-45.9488165620511,-23.000532235459808],[-45.949669809167403,-22.999828847799801],[-45.950125686607301,-22.999699727718895],[-45.950244947555902,-22.999648837016498],[-45.9503452241782,-22.999570339905802],[-45.950468184855602,-22.999444126911296],[-45.949979219556901,-22.999417696354598],[-45.949442573766603,-22.999616255297102],[-45.949369346280598,-22.999686770653891],[-45.949080612044497,-23.000005118657796],[-45.948629002085397,-23.0003752907554],[-45.948103357706898,-23.000997179879402],[-45.9476739580737,-23.001241493463798],[-45.946941017320498,-23.001537631141897],[-45.946556038338997,-23.001582051793598],[-45.946000780192598,-23.001878189471604],[-45.945815694143803,-23.002115099614098],[-45.9457278605475,-23.002507423010897]]]]}},
{"type":"Feature","properties":{"id":8197},"geometry":{"type":"MultiPolygon","coordinates":[[[[-45.939699272400503,-23.006432212644398],[-45.939948716099103,-23.006399817358897],[-45.940227315554601,-23.006276715273902],[-45.940389291982299,-23.006059666860804],[-45.940573945109797,-23.005751911648307],[-45.94090761655071,-23.005586695692095],[-45.940659138603898,-23.005526877018301],[-45.9400445353781,-23.005458381924399],[-45.939530405773397,-23.005419815110699],[-45.939260316281597,-23.005393943743197],[-45.9392360198175,-23.005638528148904],[-45.9392360198175,-23.005943043832904],[-45.939336445202599,-23.006173050360204],[-45.939547014558499,-23.006360943016205],[-45.939699272400503,-23.006432212644398]]]]}},
{"type":"Feature","properties":{"id":8198},"geometry":{"type":"MultiPolygon","coordinates":[[[[-45.93882137927821,-23.012453348018305],[-45.938992496955109,-23.0119477959562],[-45.939141491224298,-23.011780293082101],[-45.939511663321902,-23.011624820801106],[-45.939821682453598,-23.011518396323005],[-45.939663637586399,-23.011369254158893],[-45.939566451729803,-23.011226714902598],[-45.939359121902399,-23.011103612817596],[-45.939145313018003,-23.011051780360702],[-45.9388926297908,-23.011116570931794],[-45.938639946563704,-23.011375733216006],[-45.938497407307402,-23.011615458328901],[-45.938413179565003,-23.012068992326299],[-45.938632050315597,-23.012102298802901],[-45.9386898778031,-23.012245032334899],[-45.93882137927821,-23.012453348018305]]]]}},
{"type":"Feature","properties":{"id":8199},"geometry":{"type":"MultiPolygon","coordinates":[[[[-45.942371685370503,-23.004191983867194],[-45.942837574633501,-23.004052547987399],[-45.943448143409697,-23.003952696465298],[-45.943891589151299,-23.003853743750302],[-45.943764940723199,-23.003803084379104],[-45.943424382393403,-23.0037586637274],[-45.943143051599201,-23.003773470611296],[-45.942906141456803,-23.003810487820992],[-45.942476741823597,-23.004106625499102],[-45.942371685370503,-23.004191983867194]]]]}},
{"type":"Feature","properties":{"id":8200},"geometry":{"type":"MultiPolygon","coordinates":[[[[-45.968474213369603,-23.0032507826072],[-45.968679268702303,-23.003067697488593],[-45.968906294249301,-23.0026649102278],[-45.969279787891097,-23.002357327228697],[-45.969580047485501,-23.002203535729098],[-45.970810379482103,-23.001668927182997],[-45.970942200767404,-23.001603016540297],[-45.971176549719203,-23.001559076111896],[-45.971586660384702,-23.001698220802005],[-45.9720992987166,-23.001859335706293],[-45.972589966834299,-23.001947216563195],[-45.973038339243999,-23.002730290365292],[-45.973413849867697,-23.002650263418296],[-45.973626228605198,-23.002467178299792],[-45.973743403081002,-23.002049744229495],[-45.973889871175899,-23.001764131444599],[-45.974336598865101,-23.001493165469196],[-45.974483066959898,-23.001434578231294],[-45.974545665768503,-23.001391240647195],[-45.974538674483099,-23.001371820195203],[-45.974428141424298,-23.0011306569345],[-45.973725094569097,-23.000603371793105],[-45.973358544406601,-23.000540534803001],[-45.973185613394499,-23.0005747908179],[-45.972971424327397,-23.000709223566602],[-45.972736337661402,-23.000879286725699],[-45.972534383672397,-23.000972509997297],[-45.972334329644802,-23.000931805587605],[-45.972137044212197,-23.000855897322797],[-45.972040711478598,-23.000830397340103],[-45.9720368757919,-23.000817356028801],[-45.9720200611035,-23.000810886318494],[-45.972011665815302,-23.000731642198893],[-45.9719674774312,-23.000581401578895],[-45.971886919978999,-23.000508167531496],[-45.971714586748803,-23.000543822706401],[-45.9716043969811,-23.000639878604495],[-45.971439974736903,-23.0006615568089],[-45.971278456867203,-23.000577962911596],[-45.971191196528601,-23.000552107959898],[-45.971030081624299,-23.000530137745692],[-45.970977416407102,-23.000509881923602],[-45.970882625548001,-23.000495324739592],[-45.970790376760398,-23.0006489543726],[-45.970627338326302,-23.000679682526002],[-45.970258353567601,-23.000642368194299],[-45.970213009664199,-23.000678284353697],[-45.970085362412711,-23.000815750530595],[-45.970044541145803,-23.000901475238191],[-45.970018534806101,-23.000991253311089],[-45.969727381202098,-23.001107469882598],[-45.9693596526132,-23.001181872868898],[-45.969314558201503,-23.001183083970702],[-45.969294434700601,-23.001189244172398],[-45.9689640539641,-23.001196426368999],[-45.9689125470371,-23.001256141167595],[-45.968708562321304,-23.001526120790505],[-45.968595400752399,-23.001577986542788],[-45.968374240039402,-23.001709816894301],[-45.968092692234301,-23.0018336091868],[-45.968064102703998,-23.001848350599207],[-45.967961575037599,-23.002251137859901],[-45.967952213664503,-23.00227454134269],[-45.9679446672342,-23.002338209242399],[-45.967849778379303,-23.002566045484699],[-45.967746650463802,-23.002674494062703],[-45.967749196300197,-23.002686880442095],[-45.968269158036797,-23.003118961321803],[-45.968474213369603,-23.0032507826072]]]]}},
{"type":"Feature","properties":{"id":8201},"geometry":{"type":"MultiPolygon","coordinates":[[[[-45.966160017471303,-23.001635971861695],[-45.966636038779498,-23.001606678242702],[-45.967024179230798,-23.001614001647393],[-45.967273174992002,-23.001518797385796],[-45.967294004675999,-23.001210028835501],[-45.967197759930599,-23.000910189436492],[-45.967168146162798,-23.000336422685205],[-45.967071901417398,-22.999981057471505],[-45.967008972160897,-22.999825585190599],[-45.967029213470099,-22.999741929732991],[-45.966851674998701,-22.999589551191697],[-45.966824340500807,-22.999387792701608],[-45.967291483503899,-22.999435288736894],[-45.967569772883998,-22.999427965332096],[-45.967859047371299,-22.999530492998495],[-45.967901086916001,-22.999703428398288],[-45.968219434920002,-22.999870005842304],[-45.968335068679501,-22.999907648342692],[-45.968360100317,-22.999721937003201],[-45.968178715989197,-22.999277730486096],[-45.968133675049103,-22.998944620619199],[-45.967845561101406,-22.998848330852901],[-45.967464283840897,-22.9988224188061],[-45.967079304859404,-22.998666946525095],[-45.966957148067202,-22.998363405405101],[-45.967349530490601,-22.998015443633392],[-45.967567932028203,-22.997748919723104],[-45.967616054400899,-22.9975749388372],[-45.967538318260402,-22.997119627157197],[-45.967532026010097,-22.997065655666599],[-45.967360138893099,-22.997121500248102],[-45.966727916122899,-22.997407556211499],[-45.966753213255402,-22.997644716277595],[-45.966504217494098,-22.99818664822849],[-45.966430983446699,-22.998604082298698],[-45.9664072366092,-22.999053362598495],[-45.966277191947199,-22.999578095129294],[-45.966225928114,-22.999988205794804],[-45.966526187708403,-23.000705899459504],[-45.966181987685502,-23.001218537791395],[-45.965984255757498,-23.001548091004796],[-45.966160017471303,-23.001635971861695]]]]}},
{"type":"Feature","properties":{"id":8202},"geometry":{"type":"MultiPolygon","coordinates":[[[[-45.976456724537698,-23.006048323218405],[-45.9764933415615,-23.006000721087592],[-45.976398137299803,-23.005813974266697],[-45.976390813895101,-23.005759048731097],[-45.976555590501803,-23.005828621076091],[-45.976577560716002,-23.005663844469499],[-45.976566575608899,-23.005381893386907],[-45.976592207525499,-23.0053416146608],[-45.976643471358699,-23.005367246577393],[-45.976647133061,-23.005319644446605],[-45.976570237311201,-23.005129235923299],[-45.976570237311201,-23.004986429530891],[-45.976625917725599,-23.004920143338996],[-45.976504326668604,-23.004752080579095],[-45.976504326668604,-23.004898548674003],[-45.976409122406899,-23.004905872078695],[-45.976343211764203,-23.004832638031289],[-45.976284624526301,-23.004737433769701],[-45.9763102564429,-23.004645891210405],[-45.976174773455199,-23.004620259293802],[-45.9760502755746,-23.004587303972393],[-45.975977041527202,-23.004521393329799],[-45.976006335146103,-23.004250427354403],[-45.976061260681703,-23.004114944366602],[-45.976167450050404,-23.003957491164705],[-45.9762040670742,-23.003865948605409],[-45.9761271713244,-23.003759759236704],[-45.976013658550897,-23.003770744343807],[-45.975881837265497,-23.003972137974195],[-45.975837896837099,-23.004078327342899],[-45.9757353691707,-23.004103959259499],[-45.975731707468299,-23.004060018831094],[-45.9757646627897,-23.003902565629097],[-45.975706075551699,-23.003792714557999],[-45.975559607456908,-23.003785391153304],[-45.9754534180882,-23.003803699665092],[-45.975299626588601,-23.003657231570287],[-45.975252024457802,-23.003591320927598],[-45.975197098922202,-23.003470484749403],[-45.975123864874803,-23.003345986868794],[-45.975003028696598,-23.003327678356897],[-45.9749867814865,-23.003338509838802],[-45.975153158493796,-23.003917212438598],[-45.975292303183899,-23.004363940127899],[-45.975621856397197,-23.004759403983908],[-45.976193081967097,-23.004971782721402],[-45.976149141538599,-23.005198808268393],[-45.976112524514903,-23.005652859362296],[-45.976185758562302,-23.005901855123497],[-45.976456724537698,-23.006048323218405]]]]}},
{"type":"Feature","properties":{"id":8203},"geometry":{"type":"MultiPolygon","coordinates":[[[[-45.977091633049,-23.004697956868096],[-45.977225682035602,-23.004638567805596],[-45.977518618225297,-23.004265074163804],[-45.977950699105001,-23.004162546497501],[-45.978445812062802,-23.004193491386197],[-45.9783864416871,-23.0039757996765],[-45.978108152306902,-23.003807361367503],[-45.977683394831899,-23.003594982629995],[-45.977610160784501,-23.003389927297196],[-45.977587256802899,-23.003224690476596],[-45.977471269545603,-23.003283918012201],[-45.977383135237503,-23.003283737928506],[-45.977069015866199,-23.003219754848601],[-45.977036934284399,-23.003150656056995],[-45.9768370413518,-23.003355484617696],[-45.976735013917903,-23.003554703903895],[-45.976782616048702,-23.003631599653698],[-45.976819233072398,-23.003796376260404],[-45.976841203286703,-23.003946506057598],[-45.976841203286703,-23.004089312449999],[-45.976899790524598,-23.004191840116402],[-45.976929084143599,-23.0043529550207],[-45.976994994786203,-23.0045616720559],[-45.977091633049,-23.004697956868096]]]]}},
{"type":"Feature","properties":{"id":8204},"geometry":{"type":"MultiPolygon","coordinates":[[[[-45.972040711478698,-23.006092263646799],[-45.972758405143303,-23.005923825337803],[-45.972897549833398,-23.005484421053296],[-45.972780375357601,-23.005220778482599],[-45.972663200881698,-23.005074310387798],[-45.972751081738608,-23.004649552912795],[-45.972953513582198,-23.004508975325404],[-45.972901211535799,-23.004510408222703],[-45.972677847691202,-23.004609274186695],[-45.972555277024107,-23.004647577545196],[-45.972571658322401,-23.004700816745896],[-45.97252405619161,-23.004836299733697],[-45.972432513632299,-23.004942489102397],[-45.972454483846498,-23.005118250816196],[-45.972447160441803,-23.005264718910993],[-45.972417866822802,-23.005370908279794],[-45.972340971073002,-23.005473435946197],[-45.972392234906202,-23.005597933826795],[-45.972157885954502,-23.005766372135799],[-45.9720736668,-23.005689476386095],[-45.9722274582995,-23.005414848708195],[-45.972249428513699,-23.005239086994401],[-45.9722274582995,-23.005037693364102],[-45.972271398727997,-23.004744757174393],[-45.972220134894798,-23.004539701841598],[-45.972267737025597,-23.004349293318398],[-45.972309357613803,-23.0043187715575],[-45.972300692346998,-23.004232118842499],[-45.972282379995598,-23.004098938287498],[-45.972113945526097,-23.004232118842499],[-45.972040711478698,-23.004473791199008],[-45.971974800836001,-23.005045016768808],[-45.971608630598901,-23.005579625314898],[-45.971711158265308,-23.005916501933001],[-45.972040711478698,-23.006092263646799]]]]}},
{"type":"Feature","properties":{"id":8205},"geometry":{"type":"MultiPolygon","coordinates":[[[[-45.966255671942299,-23.002511183758493],[-45.966712934529305,-23.002463516597395],[-45.967196279242202,-23.002350003823988],[-45.966866726028805,-23.002020450610601],[-45.966939960076303,-23.001859335706296],[-45.966577451541603,-23.001830042087292],[-45.966203957899701,-23.001881305920502],[-45.9660721366144,-23.001892291027598],[-45.965900036603003,-23.001855674003902],[-45.965885389793499,-23.001791594212399],[-45.965768215317603,-23.001700051653096],[-45.965673011056005,-23.001661603778302],[-45.965548513175399,-23.001696389950798],[-45.9654588014673,-23.0017549771887],[-45.965508234449302,-23.001809902724293],[-45.9656162546692,-23.001870320813403],[-45.965594284455001,-23.001949047414399],[-45.965520756296897,-23.002066443288896],[-45.965645782208,-23.002286659382396],[-45.965891052426201,-23.002346457175094],[-45.966255671942299,-23.002511183758493]]]]}},
{"type":"Feature","properties":{"id":8206},"geometry":{"type":"MultiPolygon","coordinates":[[[[-45.967373562745202,-23.001535819326897],[-45.967464523771099,-23.001522588662699],[-45.967641770839698,-23.001280186791696],[-45.967791974544504,-23.001156738585291],[-45.967909991741202,-23.001038228200898],[-45.968006551265702,-23.000929593590495],[-45.9679636359215,-23.0008456486044],[-45.967872440815,-23.000929593590499],[-45.967765152454398,-23.000835772720201],[-45.967706143855999,-23.000722200000595],[-45.967829525470698,-23.000569123574998],[-45.967861711978898,-23.000401233102195],[-45.967990458011599,-23.000322225748597],[-45.968006551265702,-23.000139521066306],[-45.9678402543068,-23.000060513559497],[-45.967502295970903,-22.999922250612805],[-45.967502295970903,-22.999780881736296],[-45.967485553729503,-22.999772165355001],[-45.967361055848897,-22.9997685036526],[-45.967192617539808,-22.999889339830798],[-45.967200048449499,-22.999922531227597],[-45.967275496071103,-23.000174472392501],[-45.967310662420402,-23.000670503003295],[-45.967327320164799,-23.000844483889097],[-45.967403205444803,-23.001167459044296],[-45.967420788619407,-23.001308124441397],[-45.967428192061398,-23.001339589069694],[-45.967381922483902,-23.001489659030593],[-45.967373562745202,-23.001535819326897]]]]}},
{"type":"Feature","properties":{"id":8207},"geometry":{"type":"MultiPolygon","coordinates":[[[[-45.969321897468397,-23.004596458228395],[-45.969362176194501,-23.004424358216998],[-45.969387808111101,-23.004124098622597],[-45.969299927254198,-23.003838485837694],[-45.968845876160202,-23.003919043289798],[-45.968773435270798,-23.003934205357702],[-45.968721852380597,-23.003800585617501],[-45.968622559362998,-23.003605467235296],[-45.968596915439697,-23.003373787956296],[-45.968585210872703,-23.003329463272799],[-45.968557451868698,-23.003274378778098],[-45.968419874617602,-23.003390302605201],[-45.968426611238797,-23.003457668791093],[-45.9684632282625,-23.003551042201604],[-45.968483367625502,-23.003657231570305],[-45.968466889964901,-23.003728634766496],[-45.968452243155397,-23.003818346474603],[-45.9684339346435,-23.003876933712501],[-45.968430272941099,-23.003915381587404],[-45.968472382518399,-23.003970307123002],[-45.968662791041702,-23.004043541170397],[-45.9687067314701,-23.004151561390298],[-45.9688001048806,-23.004206486925899],[-45.968902632547,-23.004248596503192],[-45.968922771910002,-23.004310845443499],[-45.968816582541301,-23.004374925234995],[-45.9687136146702,-23.004388881723496],[-45.968651805934599,-23.004374925234991],[-45.968631666571497,-23.0042907060805],[-45.968585895291902,-23.004248596503192],[-45.968507168690898,-23.004244934800798],[-45.9684339346435,-23.004224795437793],[-45.968428442090001,-23.004180855009299],[-45.968413795280497,-23.004140576283202],[-45.968377178256802,-23.004087481598901],[-45.968335068679501,-23.003992277337201],[-45.968280143144,-23.003928197545697],[-45.9682288793108,-23.003845809242407],[-45.968201416543003,-23.003743281575993],[-45.968195923989398,-23.003671878379802],[-45.968221455725903,-23.003557491595792],[-45.968045275514001,-23.003705941592695],[-45.968048767475402,-23.003728629996495],[-45.968207404326797,-23.004004828172299],[-45.968405446398997,-23.004247290896199],[-45.968593308738498,-23.004373149409403],[-45.969321897468397,-23.004596458228395]]]]}},
{"type":"Feature","properties":{"id":8208},"geometry":{"type":"MultiPolygon","coordinates":[[[[-45.965156671600099,-23.003034946396891],[-45.965316471609398,-23.002785997530701],[-45.965477200014703,-23.002491377350392],[-45.965531202778202,-23.002410564991791],[-45.965610299072203,-23.002354221343801],[-45.9654431441881,-23.002311290825794],[-45.965328390837797,-23.001970732496101],[-45.965317285674899,-23.001885592913599],[-45.965190927089203,-23.001952575952895],[-45.965150511330997,-23.001978301829297],[-45.965132191323704,-23.001993424578693],[-45.965099970643998,-23.002027658431697],[-45.964971927378002,-23.002217675610996],[-45.964807354126002,-23.002518579781004],[-45.964708388736099,-23.002672754970803],[-45.964453237863701,-23.002680832515296],[-45.9644562556797,-23.002753721546608],[-45.964464649273701,-23.002767437894203],[-45.964569007791198,-23.002811378322708],[-45.9648747599392,-23.002785746406097],[-45.964920531218809,-23.002789408108399],[-45.964957148242497,-23.002809547471504],[-45.964924192921202,-23.002866303858198],[-45.964907715260502,-23.002902920881905],[-45.964867436534398,-23.002959677268702],[-45.9650322131411,-23.002996294292394],[-45.965118263146799,-23.003010941101895],[-45.965156671600099,-23.003034946396891]]]]}},
{"type":"Feature","properties":{"id":8209},"geometry":{"type":"MultiPolygon","coordinates":[[[[-45.967870032478402,-22.9987432269888],[-45.967547802669799,-22.998615067405801],[-45.967467245217698,-22.998406350370693],[-45.967661097433201,-22.998251268889497],[-45.9678426171292,-22.998095169619798],[-45.967608650959001,-22.997989531586494],[-45.967456880398899,-22.998119091820694],[-45.967328100527602,-22.998318469513801],[-45.967331762229897,-22.998461275906195],[-45.967456260110602,-22.998669992941394],[-45.967657653740908,-22.998735903584098],[-45.967870032478402,-22.9987432269888]]]]}}
]
}
