{
"type": "FeatureCollection",
"name": "Reserva AMME",
"crs": { "type": "name", "properties": { "name": "urn:ogc:def:crs:OGC:1.3:CRS84" } },
"features": [
{ "type": "Feature", "properties": { "CAR": "SP-3535606-5384A1D3BF6748FEBB42098D801AA510", "Município": "Paraibuna", "Área (ha)": 30.514481660604268, "Estado": "São Paulo" }, "geometry": { "type": "MultiPolygon", "coordinates": [ [ [ [ -45.561604085610398, -23.565226266208096 ], [ -45.561754607118402, -23.564620219083409 ], [ -45.562756763474901, -23.563784428604301 ], [ -45.5628359853213, -23.563713128942602 ], [ -45.562891440613697, -23.563618062726995 ], [ -45.563053845398805, -23.563142731648799 ], [ -45.563212289091503, -23.562722855863104 ], [ -45.563255861107002, -23.5626634394783 ], [ -45.563331121860998, -23.562679283847608 ], [ -45.563521254292297, -23.562544606708791 ], [ -45.5635529430308, -23.562203952769401 ], [ -45.564258017463501, -23.561007702889398 ], [ -45.564091651586097, -23.561043352720201 ], [ -45.564024313016702, -23.561090885828101 ], [ -45.563766842016001, -23.560956208689198 ], [ -45.563093456322008, -23.560520488534301 ], [ -45.562729035828703, -23.5604095779494 ], [ -45.561956622826706, -23.560290745179802 ], [ -45.561905128626499, -23.560257075895102 ], [ -45.561655579810498, -23.5598055113709 ], [ -45.561588241241104, -23.559771842086207 ], [ -45.560580143246099, -23.559312355377305 ], [ -45.5597760415056, -23.559280666638699 ], [ -45.5594908428587, -23.558868713037594 ], [ -45.558409464655902, -23.557799218111796 ], [ -45.5578502741078, -23.557294773491396 ], [ -45.557787573161903, -23.557490252910998 ], [ -45.557676662577009, -23.557743762819289 ], [ -45.557609324007608, -23.557945778527497 ], [ -45.557526141068905, -23.558112144404895 ], [ -45.557403347207099, -23.558488448175105 ], [ -45.557375619560801, -23.558781569006598 ], [ -45.557379580653198, -23.558999429084096 ], [ -45.557375619560801, -23.559260861177105 ], [ -45.557502374515003, -23.559530215454799 ], [ -45.557866795008302, -23.560013468717599 ], [ -45.558021277608702, -23.560211523333496 ], [ -45.558195565670701, -23.560421461226298 ], [ -45.558484725409897, -23.560762115165705 ], [ -45.55870258548741, -23.5609839363355 ], [ -45.5589560953957, -23.561047313812601 ], [ -45.559348243535197, -23.561047313812608 ], [ -45.559684936382297, -23.561039391627897 ], [ -45.559926563013697, -23.561027508351 ], [ -45.560144423091202, -23.5610790025511 ], [ -45.560619754169302, -23.561265173890092 ], [ -45.5608811862623, -23.561407773213496 ], [ -45.560964369201002, -23.561498878336792 ], [ -45.560944563739397, -23.5616612831219 ], [ -45.560766314585102, -23.561764271522105 ], [ -45.560350399891703, -23.561819726814601 ], [ -45.559760197136299, -23.561764271522105 ], [ -45.559478959581703, -23.561732582783598 ], [ -45.559280904965803, -23.561724660598905 ], [ -45.55898778413431, -23.561744466060496 ], [ -45.5588016127953, -23.561803882445293 ], [ -45.55846095885601, -23.561859337737801 ], [ -45.558251020963098, -23.561997975968897 ], [ -45.558116343824302, -23.562219797138695 ], [ -45.558017316516398, -23.562520840154896 ], [ -45.557870756100598, -23.562829805355697 ], [ -45.557720234592509, -23.563324941895409 ], [ -45.5576964680386, -23.563467541218902 ], [ -45.557757864969503, -23.563665595834795 ], [ -45.558126246555105, -23.563938911204701 ], [ -45.558294592978598, -23.563938911204698 ], [ -45.558510472510001, -23.564037938512705 ], [ -45.558666935656504, -23.564134985274499 ], [ -45.558771904602899, -23.564232032036305 ], [ -45.558995706318903, -23.564289467874897 ], [ -45.559092753080705, -23.564358786990407 ], [ -45.559239313496498, -23.564453853206096 ], [ -45.559354185173703, -23.564501386313907 ], [ -45.559461134666307, -23.564537036144792 ], [ -45.559576006343498, -23.564600413621797 ], [ -45.559682955836102, -23.564606355260302 ], [ -45.559805749698, -23.5646004136218 ], [ -45.559825555159499, -23.564667752191298 ], [ -45.559809710790297, -23.564727168575995 ], [ -45.559865166082702, -23.564828176430101 ], [ -45.559904777005897, -23.564869767899506 ], [ -45.560106792714102, -23.564996522853697 ], [ -45.5603246527916, -23.565055939238395 ], [ -45.560986155208703, -23.565190616377205 ], [ -45.561176287640002, -23.565222305115803 ], [ -45.561548630317901, -23.565210421838795 ], [ -45.561604085610398, -23.565226266208096 ] ] ] ] } }
]
}
