{
"type": "FeatureCollection",
"name": "Reserva Mantiqueira",
"crs": { "type": "name", "properties": { "name": "urn:ogc:def:crs:OGC:1.3:CRS84" } },
"features": [
{"type":"Feature","properties":{"id":null,"Name":null,"description":null,"timestamp":null,"begin":null,"end":null,"altitudeMode":null,"tessellate":-1,"extrude":0,"visibility":-1,"drawOrder":null,"icon":null},"geometry":{"type":"Polygon","coordinates":[[[-46.127424374812882,-22.967900912354601,0.0],[-46.127499017288699,-22.967794280246299,0.0],[-46.127525675315788,-22.967650326899989,0.0],[-46.127712281505289,-22.967623668872989,0.0],[-46.127744271137772,-22.967687648137989,0.0],[-46.127957535354483,-22.967676984927099,0.0],[-46.128042841041172,-22.967639663689202,0.0],[-46.128090825489878,-22.967591679240481,0.0],[-46.128117483517009,-22.967522368369998,0.0],[-46.128192125992769,-22.967490378737502,0.0],[-46.128224115625287,-22.967644995294599,0.0],[-46.128234506454191,-22.967756696704502,0.0],[-46.128042841041172,-22.967818272470598,0.0],[-46.1275607684519,-22.967908681317589,0.0],[-46.127566662032393,-22.967887250115801,0.0],[-46.127605316171582,-22.96785126177917,0.0],[-46.127679958647498,-22.967789948316899,0.0],[-46.127718612786687,-22.96773929806551,0.0],[-46.127722611490768,-22.96770730843301,0.0],[-46.12769328766101,-22.967675318800499,0.0],[-46.127646636113582,-22.967701976827591,0.0],[-46.127641304508188,-22.967732633558679,0.0],[-46.127627975494711,-22.967743296769619,0.0],[-46.127614646481099,-22.967728634854691,0.0],[-46.127590654256771,-22.967692646518081,0.0],[-46.12755866462431,-22.967701976827591,0.0],[-46.127517344682303,-22.967777952204781,0.0],[-46.127524009188988,-22.967821937949399,0.0],[-46.127525342090401,-22.967869922398201,0.0],[-46.12753132225518,-22.967914773634099,0.0],[-46.127424374812882,-22.967936900691189,0.0],[-46.127424374812882,-22.967900912354601,0.0]]]}},
{"type":"Feature","properties":{"id":null,"Name":null,"description":null,"timestamp":null,"begin":null,"end":null,"altitudeMode":null,"tessellate":-1,"extrude":0,"visibility":-1,"drawOrder":null,"icon":null},"geometry":{"type":"Polygon","coordinates":[[[-46.12633672730788,-22.971025233128699,0.0],[-46.126038157404601,-22.97100390670699,0.0],[-46.125952185267188,-22.97093659518859,0.0],[-46.125962182027394,-22.970702004550311,0.0],[-46.126030159996382,-22.970385440478719,0.0],[-46.126022162588313,-22.970257481948689,0.0],[-46.126128794696591,-22.970047549985392,0.0],[-46.126125795668607,-22.969992401191881,0.0],[-46.126146788864908,-22.969762309095699,0.0],[-46.126251421621177,-22.969540381020181,0.0],[-46.126352722124089,-22.969433748911879,0.0],[-46.126470017443289,-22.969145842219401,0.0],[-46.12663529721118,-22.96888992515937,0.0],[-46.12694986193079,-22.968665997731868,0.0],[-46.126990696889393,-22.96857638768379,0.0],[-46.126982518013989,-22.96850005151331,0.0],[-46.126979852211292,-22.968430740642901,0.0],[-46.12705182888439,-22.96836942718059,0.0],[-46.127102479135807,-22.968318776929099,0.0],[-46.1270784869115,-22.968292118901982,0.0],[-46.127134468768311,-22.96822813963697,0.0],[-46.127175099930113,-22.968223862672609,0.0],[-46.12718445256909,-22.968210145468799,0.0],[-46.127357615960882,-22.968100034812998,0.0],[-46.127382388420187,-22.96799888060411,0.0],[-46.127424374812882,-22.967980724326189,0.0],[-46.127424374812882,-22.967936900691189,0.0],[-46.127578991370001,-22.967904911058689,0.0],[-46.128042841041172,-22.967818272470598,0.0],[-46.128234506454191,-22.967756696704502,0.0],[-46.128245442046982,-22.967874254327469,0.0],[-46.128325416128177,-22.968098181755011,0.0],[-46.128445377250102,-22.96867132933729,0.0],[-46.128642646650491,-22.9687219795888,0.0],[-46.128823921234691,-22.96862334488857,0.0],[-46.128874571486108,-22.968586023650591,0.0],[-46.1289278875403,-22.96862334488857,0.0],[-46.128983869397189,-22.96859668686151,0.0],[-46.12899719841068,-22.96851671278019,0.0],[-46.128970540383598,-22.96844740190981,0.0],[-46.129013193227003,-22.968370093631311,0.0],[-46.129098498913613,-22.968290119550009,0.0],[-46.129229123246297,-22.968234137693202,0.0],[-46.129314428932993,-22.968188819047111,0.0],[-46.129427725548076,-22.9681568294146,0.0],[-46.129478375799579,-22.968114176571309,0.0],[-46.129563681486189,-22.968090184346899,0.0],[-46.129611665934988,-22.968151497809171,0.0],[-46.129930229358592,-22.9681568294146,0.0],[-46.130196809629382,-22.9681568294146,0.0],[-46.130311439145878,-22.96818615324441,0.0],[-46.130348760383782,-22.968203480961989,0.0],[-46.130398077733908,-22.96823147189038,0.0],[-46.130411406747378,-22.968252798312111,0.0],[-46.130376751312177,-22.968306114366261,0.0],[-46.130384748720402,-22.968343435604201,0.0],[-46.130359423594598,-22.968362096223089,0.0],[-46.130326101060803,-22.968403416165099,0.0],[-46.130284781118803,-22.968482057344989,0.0],[-46.130238129571389,-22.968543370807321,0.0],[-46.130214137346996,-22.968598019762801,0.0],[-46.130152334324293,-22.968654494938789,0.0],[-46.130090177521083,-22.96876463243208,0.0],[-46.129930229358592,-22.96911118678419,0.0],[-46.129882244909872,-22.969164502838289,0.0],[-46.129700970325707,-22.968999223070391,0.0],[-46.129658317482388,-22.96891391738378,0.0],[-46.1296369910607,-22.96876463243208,0.0],[-46.129589006611987,-22.96862601069131,0.0],[-46.129561015683493,-22.968626010691271,0.0],[-46.129418395238588,-22.968583357847901,0.0],[-46.129391262269692,-22.968552348740619,0.0],[-46.129321093439778,-22.968559365623491,0.0],[-46.129261112878801,-22.968592688157401,0.0],[-46.129218460035503,-22.968611348776388,0.0],[-46.129197679368687,-22.968610886983789,0.0],[-46.129143817559687,-22.968688657054891,0.0],[-46.129134487250177,-22.9687219795887,0.0],[-46.129141151756983,-22.968772629840199,0.0],[-46.129135820151589,-22.968820614289012,0.0],[-46.129153147869211,-22.968843273611991,0.0],[-46.129171808488081,-22.96886193423088,0.0],[-46.129219792936922,-22.96888459355398,0.0],[-46.1293437527628,-22.968908585778301,0.0],[-46.129409064929092,-22.968952571523008,0.0],[-46.12944206349389,-22.968971199745091,0.0],[-46.129594338217373,-22.968993891465001,0.0],[-46.129647654271473,-22.969073865546189,0.0],[-46.129594338217373,-22.9691325132058,0.0],[-46.129535690557788,-22.969169834443701,0.0],[-46.129445053265663,-22.969164502838311,0.0],[-46.129397068816978,-22.9691325132058,0.0],[-46.129338421157399,-22.969121849994991,0.0],[-46.129301099919481,-22.9691325132058,0.0],[-46.129263778681583,-22.969153839627491,0.0],[-46.129231789049093,-22.969217818892499,0.0],[-46.129237120654487,-22.969308456184589,0.0],[-46.129173141389487,-22.969388430265791,0.0],[-46.129002530016102,-22.9694044250821,0.0],[-46.128885234697002,-22.969500393979612,0.0],[-46.128661307269503,-22.969660342142081,0.0],[-46.128581333188201,-22.96964434732579,0.0],[-46.128389395393192,-22.969639015720389,0.0],[-46.128336079339071,-22.96968166856367,0.0],[-46.12826676846867,-22.969804295488309,0.0],[-46.128262633445068,-22.9698208355824,0.0],[-46.1282171178932,-22.969802629361588,0.0],[-46.128121148995689,-22.969789300348079,0.0],[-46.128099822574001,-22.969810626769689,0.0],[-46.128206454682307,-22.969858611218481,0.0],[-46.128243842565382,-22.96989599910151,0.0],[-46.128229447230687,-22.969953580440009,0.0],[-46.128048172646572,-22.97012952341867,0.0],[-46.127850903246191,-22.970390772084091,0.0],[-46.127674960267413,-22.970678678776601,0.0],[-46.12718445256909,-22.97085462175539,0.0],[-46.126923203903686,-22.970934595836582,0.0],[-46.126773918951983,-22.970977248679901,0.0],[-46.126704608081582,-22.971094543999101,0.0],[-46.126486012259477,-22.971115870420789,0.0],[-46.12633672730788,-22.971025233128699,0.0]],[[-46.127695953463657,-22.96818315421638,0.0],[-46.127698619266397,-22.968127172359509,0.0],[-46.127711948280002,-22.9679965480268,0.0],[-46.12764263740948,-22.967977887407891,0.0],[-46.127562663328298,-22.968012542843091,0.0],[-46.127552000117483,-22.968031203462001,0.0],[-46.127544002709271,-22.968103180135181,0.0],[-46.127559997525601,-22.968148498781179,0.0],[-46.127637305804079,-22.968193817427199,0.0],[-46.127695953463657,-22.96818315421638,0.0]]]}}
]
}
