{
"type": "FeatureCollection",
"name": "Sitio Bella Luna",
"crs": { "type": "name", "properties": { "name": "urn:ogc:def:crs:OGC:1.3:CRS84" } },
"features": [
{ "type": "Feature", "properties": { "CAR": "SP-3504107-E479BC7CA61843CFBA80520150BEFBAC", "Município": "Atibaia", "Área (ha)": 44.785704242687949, "Estado": "São Paulo" }, "geometry": { "type": "MultiPolygon", "coordinates": [ [ [ [ -46.570100518889006, -23.185783289721993 ], [ -46.569951706388999, -23.186173643888996 ], [ -46.569156696111001, -23.185970250277993 ], [ -46.568762259722, -23.185871952777998 ], [ -46.568689961388998, -23.186197785278001 ], [ -46.568640008332999, -23.186446090555989 ], [ -46.568533582222003, -23.187229677499996 ], [ -46.568505281389001, -23.187408048333001 ], [ -46.568489705, -23.187488036666995 ], [ -46.568456422499999, -23.187599448332993 ], [ -46.568421923610998, -23.187673574443995 ], [ -46.568391149444004, -23.187723641388999 ], [ -46.568355786110999, -23.187765535833002 ], [ -46.568290526110999, -23.187832201943994 ], [ -46.568237491666999, -23.187874995 ], [ -46.568033331667003, -23.188026671111 ], [ -46.567922812778001, -23.188132801388996 ], [ -46.567771974167002, -23.188333345 ], [ -46.567624734166998, -23.188515790833005 ], [ -46.567528019443998, -23.188658087499991 ], [ -46.5674539125, -23.188795553333005 ], [ -46.567267256944, -23.189175264444 ], [ -46.567201095556001, -23.189349135833005 ], [ -46.567170011389003, -23.1894816575 ], [ -46.567128899444, -23.189591972778 ], [ -46.566965537500003, -23.189891709167 ], [ -46.56686528, -23.190166072499999 ], [ -46.566780837778005, -23.190422758056005 ], [ -46.56669169, -23.190636142499997 ], [ -46.566667758888997, -23.190720277777999 ], [ -46.566539752221999, -23.191338090555998 ], [ -46.566487505, -23.191582805833001 ], [ -46.566357528333, -23.192073573610998 ], [ -46.566293098610998, -23.192362751666998 ], [ -46.566279147221998, -23.192607537221999 ], [ -46.566255785833, -23.192866414166996 ], [ -46.566152206110999, -23.193459690556001 ], [ -46.565992244443997, -23.193926102222001 ], [ -46.565765565, -23.194577769167005 ], [ -46.565697736666998, -23.194734678332992 ], [ -46.566708616667, -23.194897466110991 ], [ -46.566804992778003, -23.194893345555993 ], [ -46.568220811388997, -23.194645249443997 ], [ -46.568146080555998, -23.195282219444 ], [ -46.568068062778003, -23.195754679721997 ], [ -46.568770033611003, -23.195891633611009 ], [ -46.568873078056001, -23.195839401111005 ], [ -46.569459113889003, -23.196012186388991 ], [ -46.569325314444001, -23.195312815833002 ], [ -46.569346686388997, -23.194992819721989 ], [ -46.569611143888999, -23.1945744 ], [ -46.570364483611002, -23.19478552 ], [ -46.570906660555998, -23.195084447500005 ], [ -46.571101939443999, -23.195116905277995 ], [ -46.571554463889001, -23.195067231110997 ], [ -46.571176376389005, -23.194589752778001 ], [ -46.571174114167, -23.194538299444005 ], [ -46.571241069444, -23.193864198888999 ], [ -46.571263328333004, -23.193386424443997 ], [ -46.571420283610998, -23.191586088610997 ], [ -46.571333566943999, -23.191664168611002 ], [ -46.571129144167003, -23.191743333611001 ], [ -46.570956358333, -23.191720856111001 ], [ -46.570935802500003, -23.191600318610998 ], [ -46.570836103889, -23.19121109 ], [ -46.570746656388998, -23.191105599444001 ], [ -46.570683861667, -23.191057188611005 ], [ -46.570608298888999, -23.190961131943997 ], [ -46.570592741389, -23.190933923610995 ], [ -46.570533895833002, -23.190905792777993 ], [ -46.570458095832997, -23.190889751943995 ], [ -46.570489139167002, -23.190344158056003 ], [ -46.570527780832997, -23.190223300555996 ], [ -46.570521099167003, -23.189768301388995 ], [ -46.571477793611002, -23.189836415556005 ], [ -46.571731901389001, -23.189854468055994 ], [ -46.572269752499999, -23.189901925556008 ], [ -46.572548068056001, -23.189934996943993 ], [ -46.572557534444002, -23.189917472777999 ], [ -46.572569699166998, -23.188368015556001 ], [ -46.571630513888998, -23.188526678333002 ], [ -46.571406948610999, -23.188104189166996 ], [ -46.571566683611003, -23.187378047221994 ], [ -46.571892248889, -23.186857236389002 ], [ -46.570100518889006, -23.185783289721993 ] ] ] ] } }
]
}
