{
"type": "FeatureCollection",
"name": "Sitio Sao Joao",
"crs": { "type": "name", "properties": { "name": "urn:ogc:def:crs:OGC:1.3:CRS84" } },
"features": [
{ "type": "Feature", "properties": { "CAR": "SP-3525508-3C85B7657C1B481B944C82804A5A61E9", "Município": "Joanópolis", "Área (ha)": 16.733287143605803, "Estado": "São Paulo" }, "geometry": { "type": "MultiPolygon", "coordinates": [ [ [ [ -46.21085611, -22.98051556 ], [ -46.21101389, -22.98009028 ], [ -46.21120111, -22.97992139 ], [ -46.21167083, -22.97952611 ], [ -46.21193139, -22.9793475 ], [ -46.21237333, -22.97901694 ], [ -46.21253361, -22.97872194 ], [ -46.21284028, -22.97832694 ], [ -46.21313028, -22.97805944 ], [ -46.21332694, -22.9777 ], [ -46.21348944, -22.97747056 ], [ -46.21231306, -22.97398194 ], [ -46.21222778, -22.973925 ], [ -46.21174667, -22.97372167 ], [ -46.21161972, -22.97368222 ], [ -46.21138139, -22.97364556 ], [ -46.21121806, -22.97364167 ], [ -46.21098417, -22.97366944 ], [ -46.21088028, -22.97375306 ], [ -46.21075278, -22.97397 ], [ -46.21042472, -22.97457361 ], [ -46.21034972, -22.97484889 ], [ -46.2102925, -22.9750875 ], [ -46.21027333, -22.97521833 ], [ -46.21025972, -22.97537194 ], [ -46.21028611, -22.97567611 ], [ -46.21029694, -22.97598778 ], [ -46.21029528, -22.97633306 ], [ -46.21028056, -22.97668194 ], [ -46.21021, -22.97713083 ], [ -46.21019944, -22.97786472 ], [ -46.21023972, -22.97826472 ], [ -46.21031056, -22.97845444 ], [ -46.21054694, -22.97890306 ], [ -46.21055889, -22.97901694 ], [ -46.21047917, -22.97958806 ], [ -46.21042889, -22.97985167 ], [ -46.210515, -22.979945 ], [ -46.21064194, -22.98029778 ], [ -46.21073194, -22.98043306 ], [ -46.21085611, -22.98051556 ] ] ] ] } }
]
}
