{
"type": "FeatureCollection",
"name": "Sitio Vista Alegre",
"crs": { "type": "name", "properties": { "name": "urn:ogc:def:crs:OGC:1.3:CRS84" } },
"features": [
{"type":"Feature","properties":{"Nome do Projeto":null,"Município":null,"Região Hidrográfica":null,"UGRHI":null,"Propriedade":"Sítio Vista Alegre","Área (ha)":6.9161639272485571,"Fotos do Projeto":null},"geometry":{"type":"MultiPolygon","coordinates":[[[[-46.249994721913502,-22.976057860122499],[-46.250030583099303,-22.975976971340401],[-46.2500852776881,-22.975777415939],[-46.250082805529601,-22.975587277095599],[-46.250099138868499,-22.975536915987501],[-46.250097972195697,-22.975422804874398],[-46.250151638838403,-22.975327999314],[-46.250203941710303,-22.975269452963801],[-46.250234850378497,-22.9752680352676],[-46.250259840222597,-22.975248780952398],[-46.250316689853697,-22.975066519056],[-46.250322107765399,-22.975008671761501],[-46.250466946572097,-22.9748692591346],[-46.250441019400299,-22.974850135242502],[-46.250335491062003,-22.974745555662601],[-46.2500573123896,-22.9743971279809],[-46.2500079158701,-22.974414045847801],[-46.249945042389498,-22.974344453860201],[-46.249875647402497,-22.974223249774901],[-46.249867631201703,-22.9741895330096],[-46.249823574451902,-22.9740976632071],[-46.249711362649002,-22.973923868620702],[-46.249512431367897,-22.9736754270522],[-46.249434373997097,-22.9735880688375],[-46.249345147401201,-22.9734529301486],[-46.249207547624401,-22.9732859290901],[-46.249112179660301,-22.9732147857653],[-46.249039809354002,-22.973194401301999],[-46.248693215554702,-22.973149619482498],[-46.248645894341799,-22.9731483661641],[-46.248108669447397,-22.973450478966701],[-46.246922505958501,-22.9741047889298],[-46.246571123970803,-22.974303546639401],[-46.246554452767398,-22.974495878230599],[-46.246583407731002,-22.974685412604298],[-46.246610737003898,-22.974729725696601],[-46.246643750453202,-22.9747451811504],[-46.246719210566802,-22.974751541943402],[-46.246910527731302,-22.9747019873478],[-46.247078333415097,-22.9746946159804],[-46.247151044694,-22.974709759435701],[-46.247241991226602,-22.9747561000673],[-46.247415147712303,-22.974864024761501],[-46.2476751225934,-22.9749512233745],[-46.247804937694198,-22.974981361512398],[-46.2479574202683,-22.975004908916102],[-46.248127233883899,-22.975004835977199],[-46.248246141308798,-22.974994325683401],[-46.2483517730345,-22.975014628527699],[-46.248442799115303,-22.975069638512402],[-46.248508279432002,-22.975136320371298],[-46.248546490960898,-22.975229139560401],[-46.248551569646999,-22.975346604566202],[-46.248549660668701,-22.975584701590201],[-46.248577069481001,-22.975733151278799],[-46.248630391004497,-22.975835423974399],[-46.248712535729297,-22.975932230825499],[-46.248833273932902,-22.976004166953],[-46.248923286750497,-22.9760124894044],[-46.249048675179502,-22.975996056703199],[-46.249140221508704,-22.975972581429701],[-46.249262748153399,-22.975930331590799],[-46.249364497249502,-22.9759405817078],[-46.249543582940099,-22.975973720813801],[-46.249744888521199,-22.9759947210588],[-46.249833888544501,-22.9760103878052],[-46.249933277428497,-22.976076221156902],[-46.2499489718601,-22.976103443361101],[-46.249994721913502,-22.976057860122499]]]]}}
]
}
