{
"type": "FeatureCollection",
"name": "Sítio São Jorge",
"crs": { "type": "name", "properties": { "name": "urn:ogc:def:crs:OGC:1.3:CRS84" } },
"features": [
{"type":"Feature","properties":{"recibo":"SP-3538600-D974CB24B02649A7BD1143835EB0ACC1","modfiscais":0.6935,"tema":"Área do Imovel","area":16.652,"municipio":"Piracaia","estado":"São Paulo"},"geometry":{"type":"MultiPolygon","coordinates":[[[[-46.2163167469445,-23.007711685277801],[-46.216370738333303,-23.007650394722202],[-46.216423747222201,-23.007577460277801],[-46.216490158611101,-23.007573788888902],[-46.216717446388898,-23.0076338213889],[-46.216739883888899,-23.007589933888902],[-46.216664850555603,-23.007361097499999],[-46.217537780833297,-23.005336996666699],[-46.217341404166703,-23.0051223702778],[-46.2171926672222,-23.004997697777799],[-46.217088675,-23.0049230797222],[-46.216974541111099,-23.004827314444402],[-46.216375157222203,-23.0043448230556],[-46.215941866666697,-23.003953],[-46.214695038611097,-23.002837630833302],[-46.213439018611098,-23.001368446388899],[-46.213151207777798,-23.001106916111102],[-46.2121646758333,-23.002454552500001],[-46.211662092222198,-23.003030848888901],[-46.212946356111097,-23.0041562525],[-46.213342699722197,-23.004410538888902],[-46.213835628888901,-23.004860349166702],[-46.214886565833297,-23.006096901944399],[-46.2163167469445,-23.007711685277801]]]]}}
]
}
