{
"type": "FeatureCollection",
"name": "Sítio das Siriemas",
"crs": { "type": "name", "properties": { "name": "urn:ogc:def:crs:OGC:1.3:CRS84" } },
"features": [
{"type":"Feature","properties":{"recibo":"SP-3538600-8A6DA77D76FD4729871444165D99C821","modfiscais":0.9819,"tema":"Área do Imovel","area":23.5645,"municipio":"Piracaia","estado":"São Paulo"},"geometry":{"type":"MultiPolygon","coordinates":[[[[-46.215941905975299,-23.003959873834201],[-46.216317415237398,-23.003510530741998],[-46.216588318347902,-23.003095751175199],[-46.216928958892801,-23.002614309008099],[-46.217245459556601,-23.002184713009001],[-46.217580735683399,-23.001747708779401],[-46.217704117298098,-23.001495875190798],[-46.217816770076801,-23.001140344618801],[-46.217980384826703,-23.0009823307307],[-46.2181547284126,-23.000866289163799],[-46.217846274375901,-23.000486067160399],[-46.218146681785598,-23.000204603429101],[-46.218393445015003,-22.999942891012001],[-46.218795776367202,-22.999784875722],[-46.219155192375197,-22.999661426147998],[-46.219509243965199,-22.999621922260399],[-46.219353675842299,-22.998999734506899],[-46.2191981077194,-22.998426924198402],[-46.219117641449003,-22.997701031781101],[-46.217964291572599,-22.9980664474995],[-46.217363476753199,-22.9977504123414],[-46.217071115970597,-22.997846704381999],[-46.216655373573303,-22.997994845848801],[-46.216207444667802,-22.998165208334601],[-46.215949952602401,-22.998387419949601],[-46.215386688709302,-22.998807152002001],[-46.214828789234197,-22.999189847735899],[-46.214547157287598,-22.999414526661301],[-46.214236021041899,-22.999658957155301],[-46.213822960853598,-22.999947828986802],[-46.213509142398799,-23.0001502857993],[-46.213334798812902,-23.0005996400788],[-46.213171184063,-23.0011033101304],[-46.213407218456297,-23.0013798340654],[-46.213782727718403,-23.001836591110202],[-46.214386224746697,-23.002498268844299],[-46.214742958545699,-23.002853795839201],[-46.215118467807798,-23.003174756905299],[-46.215413510799401,-23.003473496903901],[-46.215941905975299,-23.003959873834201]]]]}},
{"type":"Feature","properties":{"recibo":"SP-3538600-8A6DA77D76FD4729871444165D99C821","modfiscais":0.9819,"tema":"Área Líquida do Imóvel","area":23.5645,"municipio":"Piracaia","estado":"São Paulo"},"geometry":{"type":"MultiPolygon","coordinates":[[[[-46.215941905975299,-23.003959873834201],[-46.216317415237398,-23.003510530741998],[-46.216588318347902,-23.003095751175199],[-46.216928958892801,-23.002614309008099],[-46.217245459556601,-23.002184713009001],[-46.217580735683399,-23.001747708779401],[-46.217704117298098,-23.001495875190798],[-46.217816770076801,-23.001140344618801],[-46.217980384826703,-23.0009823307307],[-46.2181547284126,-23.000866289163799],[-46.217846274375901,-23.000486067160399],[-46.218146681785598,-23.000204603429101],[-46.218393445015003,-22.999942891012001],[-46.218795776367202,-22.999784875722],[-46.219155192375197,-22.999661426147998],[-46.219509243965199,-22.999621922260399],[-46.219353675842299,-22.998999734506899],[-46.2191981077194,-22.998426924198402],[-46.219117641449003,-22.997701031781101],[-46.217964291572599,-22.9980664474995],[-46.217363476753199,-22.9977504123414],[-46.217071115970597,-22.997846704381999],[-46.216655373573303,-22.997994845848801],[-46.216207444667802,-22.998165208334601],[-46.215949952602401,-22.998387419949601],[-46.215386688709302,-22.998807152002001],[-46.214828789234197,-22.999189847735899],[-46.214547157287598,-22.999414526661301],[-46.214236021041899,-22.999658957155301],[-46.213822960853598,-22.999947828986802],[-46.213509142398799,-23.0001502857993],[-46.213334798812902,-23.0005996400788],[-46.213171184063,-23.0011033101304],[-46.213407218456297,-23.0013798340654],[-46.213782727718403,-23.001836591110202],[-46.214386224746697,-23.002498268844299],[-46.214742958545699,-23.002853795839201],[-46.215118467807798,-23.003174756905299],[-46.215413510799401,-23.003473496903901],[-46.215941905975299,-23.003959873834201]]]]}}
]
}
