{
"type": "FeatureCollection",
"name": "Anahata",
"crs": { "type": "name", "properties": { "name": "urn:ogc:def:crs:OGC:1.3:CRS84" } },
"features": [
{"type":"Feature","properties":{"Nome do Projeto":null,"Município":null,"Região Hidrográfica":null,"UGRHI":null,"Propriedade":"Anahata","Área (ha)":"5.986566868872289","Fotos do Projeto":null},"geometry":{"type":"MultiPolygon","coordinates":[[[[-46.131401527307901,-22.96022360967174],[-46.131173490225009,-22.960251437893849],[-46.13041741565813,-22.961122515703391],[-46.129463122962562,-22.962163526483341],[-46.128663935366738,-22.963006002812119],[-46.128172328708601,-22.96351922946527],[-46.12775696022377,-22.963967088221789],[-46.127281123477893,-22.9644536790179],[-46.126698547783221,-22.965031775400991],[-46.126314193930853,-22.965439926051111],[-46.1257179372572,-22.965990422805781],[-46.125365649368163,-22.966331758620409],[-46.125175952911377,-22.966434574628988],[-46.1250307087358,-22.966605797253042],[-46.12485408782959,-22.966691412780101],[-46.124598479643112,-22.966894742854031],[-46.124583409811791,-22.966996640129199],[-46.124718279467068,-22.967103462771949],[-46.125060414376108,-22.96731640668439],[-46.125378611056171,-22.967425816594151],[-46.125685732224717,-22.967512871437489],[-46.131401527307901,-22.96022360967174]]]]}}
]
}
