{
"type": "FeatureCollection",
"name": "Quinhao",
"crs": { "type": "name", "properties": { "name": "urn:ogc:def:crs:OGC:1.3:CRS84" } },
"features": [
{"type":"Feature","properties":{"Nome do Projeto":null,"Município":null,"Região Hidrográfica":null,"UGRHI":null,"Propriedade":"Quinhão","Área (ha)":31.412921061428833,"Fotos do Projeto":null},"geometry":{"type":"MultiPolygon","coordinates":[[[[-46.124521493911701,-22.9670297469075],[-46.124642193317399,-22.9670198685508],[-46.124757528305103,-22.9669877638866],[-46.1250284314156,-22.966691412780101],[-46.125487089157097,-22.966207371242401],[-46.125985980033903,-22.9657727202217],[-46.126720905303998,-22.965071348582601],[-46.1279171791168,-22.964053858823501],[-46.128898859023998,-22.962937575873699],[-46.129537228396998,-22.962142340992798],[-46.130186319351203,-22.9614261331661],[-46.131173372268698,-22.960398737629401],[-46.130379438400297,-22.959973946809399],[-46.1299180984497,-22.9595392757521],[-46.129542589187601,-22.959045329673],[-46.1290973424912,-22.958581018713801],[-46.128716468811,-22.9582303146986],[-46.128534078598001,-22.9581364641741],[-46.128196120262103,-22.958793416477999],[-46.127858161926298,-22.959460244500601],[-46.127343177795403,-22.9601616452432],[-46.126892566680901,-22.960912436373398],[-46.126334667205803,-22.961673102083399],[-46.125755310058601,-22.962137402427],[-46.125047206878698,-22.962740002623399],[-46.124156713485696,-22.963480900823601],[-46.123899221420302,-22.9637575017777],[-46.1233198642731,-22.9643798518556],[-46.1227190494537,-22.965083696706301],[-46.1222791671753,-22.965624543417999],[-46.122171878814697,-22.9653775817176],[-46.122053861617999,-22.965407217145501],[-46.122193336486802,-22.965723327971801],[-46.122032403945902,-22.965762841773198],[-46.121925115585299,-22.965841869341201],[-46.121968030929601,-22.9659406537363],[-46.122067272663102,-22.966014741985202],[-46.122230887412996,-22.9660912997998],[-46.122303307056399,-22.966195023221399],[-46.122389137744896,-22.9663283817893],[-46.122464239597299,-22.966353077806001],[-46.122547388076804,-22.966343199399901],[-46.122622489929199,-22.966288868153299],[-46.122601032257101,-22.966244415298899],[-46.122568845748901,-22.966204901638299],[-46.122442781925201,-22.966088830193499],[-46.122418642044103,-22.965992515514799],[-46.122491061687498,-22.965933244909099],[-46.122614443302197,-22.965970289040701],[-46.1227190494537,-22.9658962007674],[-46.123531758785198,-22.966167857571001],[-46.123673915863002,-22.965943123345198],[-46.123813390731797,-22.965957940997999],[-46.123934090137503,-22.966039438059202],[-46.123877763748197,-22.966333320993002],[-46.123875081539197,-22.966553115374701],[-46.123979687690699,-22.966587689739399],[-46.124135255813599,-22.966550645776898],[-46.124344468116803,-22.966619794498602],[-46.124478578567498,-22.966669186420901],[-46.124430298805201,-22.966953189624299],[-46.124290823936498,-22.967076669091899],[-46.124384701251998,-22.967165574238798],[-46.124521493911701,-22.9670297469075]]]]}}
]
}
