{
"type": "FeatureCollection",
"name": "Recanto do Alento",
"crs": { "type": "name", "properties": { "name": "urn:ogc:def:crs:OGC:1.3:CRS84" } },
"features": [
{"type":"Feature","properties":{"Nome do Projeto":null,"Município":null,"Região Hidrográfica":null,"UGRHI":null,"Propriedade":"Recanto do Alento","Área (ha)":33.77682962010207,"Fotos do Projeto":null},"geometry":{"type":"MultiPolygon","coordinates":[[[[-46.066731215032597,-23.4231827768897],[-46.066951156171903,-23.423069562629401],[-46.067138910802903,-23.422990804826],[-46.067321301015902,-23.422892357505699],[-46.067428589376497,-23.422710229770001],[-46.067562699827199,-23.422508412256398],[-46.067750454458299,-23.422326283992],[-46.067777276548398,-23.422055552324601],[-46.067739725622197,-23.421809432146102],[-46.067852377746,-23.4215386994208],[-46.067906021926298,-23.421351647396001],[-46.0680723188852,-23.421149827809401],[-46.068249344680197,-23.421026766934698],[-46.068335175368702,-23.420824946852399],[-46.068367361876902,-23.4206526611726],[-46.0684853790735,-23.4204311506831],[-46.068581938598101,-23.420209639822701],[-46.068699955794699,-23.4198404542311],[-46.068689226958703,-23.419594329930799],[-46.068710684630801,-23.4192792901583],[-46.068898439261801,-23.418974094663199],[-46.069139838727999,-23.418737813796302],[-46.069225669416497,-23.418565525698501],[-46.069290042432797,-23.418304631411299],[-46.069284678014803,-23.418147110083002],[-46.069306135686901,-23.4179698983645],[-46.069338322195101,-23.417689312658201],[-46.069445610555697,-23.417374268348802],[-46.069445610555697,-23.417172442693801],[-46.069515347990098,-23.4170001522569],[-46.069665551694897,-23.416877087371599],[-46.069815755399802,-23.41670479655],[-46.069831848653799,-23.4164734342367],[-46.069810390981701,-23.4161977679735],[-46.069762111219497,-23.4159171785086],[-46.069982052358696,-23.415607052618199],[-46.070148349317599,-23.4153018486512],[-46.070191264661801,-23.415045870587601],[-46.0701859002438,-23.414716051967901],[-46.070261002096203,-23.4142828561138],[-46.0699337725964,-23.413613368897401],[-46.069622636350701,-23.413332773951598],[-46.0693007712689,-23.413121096668899],[-46.0688608889905,-23.412766659530501],[-46.068348585996802,-23.4123999155711],[-46.067986488851503,-23.4120823962581],[-46.067546606573202,-23.411875639752999],[-46.067079902204597,-23.411713187986699],[-46.066717803906997,-23.411499046517299],[-46.066350341352504,-23.411358747076999],[-46.066200137603602,-23.411267675331398],[-46.066092849287202,-23.411265213900901],[-46.065529585394003,-23.4112701367014],[-46.065379381689098,-23.411604886698399],[-46.065298915418701,-23.411772261379301],[-46.0651969914761,-23.412023323003901],[-46.0651057963696,-23.412338380054798],[-46.065046787771301,-23.412692818340499],[-46.065052152189303,-23.413052178410801],[-46.065052152189303,-23.413495223804698],[-46.065003872426999,-23.413736436743399],[-46.064960957082803,-23.413953035742299],[-46.064950228246701,-23.414233629372699],[-46.0649448638287,-23.414504377048399],[-46.064880490812399,-23.414819428191901],[-46.064918041738601,-23.414976953482299],[-46.065100431951599,-23.415173859831601],[-46.0652345417475,-23.415360920591901],[-46.065443754050598,-23.415572594291302],[-46.065744161460302,-23.415611975407302],[-46.065937280509402,-23.415744886587198],[-46.065996289107702,-23.415917178658798],[-46.066071390960097,-23.416197768123801],[-46.065921187255299,-23.416532505654398],[-46.065851449820897,-23.4168180164082],[-46.066473722312402,-23.41665064811],[-46.065862178657,-23.416995229669698],[-46.066114306304399,-23.417137984624301],[-46.066323518607497,-23.417192133015199],[-46.066237687919099,-23.417285662302],[-46.066012382361798,-23.417339810632399],[-46.065840720984802,-23.417443184656001],[-46.065760254714398,-23.4175810165619],[-46.065787076804597,-23.417733616004401],[-46.066028475615902,-23.417694235519999],[-46.066200136992798,-23.417846834832002],[-46.066291332099397,-23.418112652567899],[-46.066618561599199,-23.418161878016001],[-46.066913604590802,-23.418348934551499],[-46.0671925543284,-23.418718124305901],[-46.0675036905741,-23.419023320391599],[-46.067728996131301,-23.419294058265301],[-46.067922115180401,-23.419210375709],[-46.068281531188397,-23.4190134753675],[-46.068469285819397,-23.418880567471401],[-46.068651676032502,-23.4188116522134],[-46.068619489524302,-23.419057777969901],[-46.068549752089901,-23.4192694457542],[-46.068560480926003,-23.4197518495358],[-46.068490743491601,-23.420017663443701],[-46.068378090712898,-23.4202391746256],[-46.068286895606398,-23.420470530352802],[-46.068179607900703,-23.4206871189274],[-46.068088412794197,-23.420913551429699],[-46.067954302343402,-23.421100603473199],[-46.067696810278001,-23.421361492246],[-46.067519784482997,-23.421568233926902],[-46.067509055647001,-23.4217060615346],[-46.0675036912289,-23.421981716319198],[-46.0674715047207,-23.422242603354],[-46.0673481231061,-23.4224493436576],[-46.067256927999601,-23.4226117822408],[-46.067133546384902,-23.422838211448301],[-46.066908240827601,-23.4230252613707],[-46.066666842016303,-23.423138475668999],[-46.066377163442702,-23.4231630874601],[-46.066076756032999,-23.422936658808901],[-46.065867543729802,-23.4229661930028],[-46.065497398885803,-23.422857900926299],[-46.065223813566298,-23.422680695518899],[-46.0650092368451,-23.422621626997],[-46.064778566869798,-23.422646238884401],[-46.064671278509202,-23.4226117822408],[-46.064939499410698,-23.423000649554002],[-46.065180898222003,-23.4229760377326],[-46.065400839361203,-23.423089252073002],[-46.065567136320198,-23.4232024663164],[-46.065905094656003,-23.423113863873301],[-46.066135764631298,-23.423148320386002],[-46.066436172041001,-23.423251689870298],[-46.066731215032597,-23.4231827768897]]]]}}
]
}
