{
"type": "FeatureCollection",
"name": "REDS 4",
"crs": { "type": "name", "properties": { "name": "urn:ogc:def:crs:OGC:1.3:CRS84" } },
"features": [
{"type":"Feature","properties":{"Nome do Projeto":null,"Município":null,"Região Hidrográfica":null,"UGRHI":null,"Propriedade":null,"Área (ha)":"290.67832677987127","Fotos do Projeto":null},"geometry":{"type":"MultiPolygon","coordinates":[[[[-46.113756209233102,-22.9996430534542],[-46.113822589155099,-22.999543002825199],[-46.113957164806102,-22.999018420563001],[-46.114482991160799,-22.997032830828498],[-46.115276537404696,-22.995150961370602],[-46.115984641882299,-22.992960025071],[-46.1152407583862,-22.992682825340999],[-46.114523984192601,-22.992598698544899],[-46.114185537013199,-22.9926354597409],[-46.113032304607501,-22.9929596636679],[-46.110131576535302,-22.992186571813601],[-46.109860240006903,-22.991864535072501],[-46.109549391223702,-22.991786288185001],[-46.109028421855299,-22.991370291436201],[-46.108323182223302,-22.990925826496401],[-46.107638011109103,-22.990869460373101],[-46.106971799492598,-22.9906625480405],[-46.106532367813003,-22.9902653706271],[-46.106008986889101,-22.990551424171802],[-46.105587702354001,-22.9902201180501],[-46.104917241549401,-22.990026240129101],[-46.104816757782103,-22.989794673977698],[-46.103986508250699,-22.9901175956788],[-46.103281914602199,-22.990027508175299],[-46.102671483848198,-22.990487948559199],[-46.101841368151,-22.9903765602565],[-46.1011920279593,-22.990283259004801],[-46.101024882163998,-22.990264403183801],[-46.100465053494098,-22.989889249344198],[-46.100269664502697,-22.989801094936698],[-46.099789013923598,-22.9894954715962],[-46.099520403573401,-22.989381887317599],[-46.099438700179697,-22.989165303114401],[-46.099206877389399,-22.989095160058199],[-46.098983093139502,-22.9890934196412],[-46.098823405857097,-22.989175828133],[-46.098621350834101,-22.989349878652],[-46.098407766172102,-22.989053580566299],[-46.097896157070203,-22.9888572360124],[-46.097440288197099,-22.988832418359799],[-46.097202327857303,-22.988873853207199],[-46.096806765591801,-22.988634820189102],[-46.096518994325898,-22.9884967222327],[-46.095544412798603,-22.9884618198741],[-46.0948632284952,-22.988071014447598],[-46.094370662710702,-22.988105589889901],[-46.0940561331699,-22.988182258498401],[-46.0937029735856,-22.988349817724998],[-46.093247487122198,-22.988154378581701],[-46.092961035452497,-22.987908645709901],[-46.092500764406402,-22.987726730991],[-46.092199810511403,-22.987670122924801],[-46.092057880272499,-22.987337369672801],[-46.091386686798799,-22.9870062442881],[-46.090965710973101,-22.986519142608099],[-46.0900768465021,-22.9862724824944],[-46.088916547827701,-22.985832947816601],[-46.088667772318097,-22.985648073892602],[-46.088474853384298,-22.985639227307299],[-46.087888766282099,-22.985498363890699],[-46.087673157782802,-22.985277028887801],[-46.087476701496698,-22.985223256486901],[-46.087387929934899,-22.985214614194199],[-46.087324355102702,-22.985235147390501],[-46.087390833879503,-22.986070491797499],[-46.087629821584599,-22.987572391398899],[-46.087633222847799,-22.9879350154973],[-46.087550897988599,-22.9881917407995],[-46.087631033103897,-22.9885665244771],[-46.087728889910501,-22.988778274332901],[-46.087777449663598,-22.989041358232399],[-46.088016145739502,-22.989349686017],[-46.088249016866797,-22.989830589486999],[-46.088358303887702,-22.990146720657101],[-46.088424709027102,-22.990529928260699],[-46.088541453822501,-22.991375859042201],[-46.088644242862898,-22.991547201242501],[-46.088827046797199,-22.9917358044945],[-46.088866642617397,-22.992031599755599],[-46.089021159479003,-22.992661348719],[-46.088928011064503,-22.993012838955799],[-46.0890582285693,-22.9931913596036],[-46.089175681388497,-22.993265959043999],[-46.089529909686199,-22.993411182677001],[-46.089940057286498,-22.993635164571799],[-46.090406780574497,-22.994324017380698],[-46.090567553196998,-22.994888744606602],[-46.090833938586599,-22.9953367450026],[-46.0910710570801,-22.995483893340399],[-46.091287869319203,-22.995677284781902],[-46.091832749140103,-22.995958448490999],[-46.092285492376703,-22.9962561418406],[-46.092365912592903,-22.9966470675168],[-46.092325073119802,-22.9970651712806],[-46.092565299750198,-22.997156536126301],[-46.093792733842797,-22.9978121604385],[-46.094352753957203,-22.9979037310138],[-46.094855355780098,-22.9982666007798],[-46.0956897705587,-22.998489311316899],[-46.0959738163493,-22.998833653667699],[-46.096837246624098,-22.998772365467001],[-46.098232894273401,-22.999288668927001],[-46.098906914344902,-22.998728102565501],[-46.099278900088102,-22.998512058832102],[-46.100071692332101,-22.998321302943999],[-46.100967693763003,-22.999013568610899],[-46.101521121381701,-22.999121041258999],[-46.101791159622202,-22.9997259716475],[-46.102142720639101,-22.999881767112701],[-46.1025657356168,-23.000287714428801],[-46.102738591501002,-23.000072083559299],[-46.103270966383398,-23.000238389238799],[-46.105025137740398,-23.001246414077499],[-46.105759889025499,-23.001367313741302],[-46.106905078115801,-23.001689876077499],[-46.107196318053496,-23.001704216561599],[-46.107619844264597,-23.0017938548751],[-46.109517418393203,-23.0022159416798],[-46.109763433267801,-23.002341804587498],[-46.1109066142552,-23.002961294223699],[-46.111675346432399,-23.0031401742471],[-46.113756209233102,-22.9996430534542]]]]}}
]
}
