{
"type": "FeatureCollection",
"name": "REDS 2",
"crs": { "type": "name", "properties": { "name": "urn:ogc:def:crs:OGC:1.3:CRS84" } },
"features": [
{"type":"Feature","properties":{"Nome do Projeto":null,"Município":null,"Região Hidrográfica":null,"UGRHI":null,"Propriedade":null,"Área (ha)":"28.98829847795767","Fotos do Projeto":null},"geometry":{"type":"MultiPolygon","coordinates":[[[[-46.268379448589442,-22.984668423120912],[-46.267995267195928,-22.98472830871378],[-46.26765714899922,-22.984800740515841],[-46.26749588345762,-22.984851525514678],[-46.267372273674546,-22.984891983738471],[-46.267064360683527,-22.984929309494287],[-46.266719061884565,-22.984723523308833],[-46.266544181994696,-22.984590616611595],[-46.266265516939967,-22.984374903542125],[-46.266103856799077,-22.984331035742308],[-46.265951691380344,-22.984301091395679],[-46.26563812614696,-22.984241574068491],[-46.26516677396787,-22.984110925152791],[-46.264864471718766,-22.984039367098724],[-46.264288755357427,-22.983884999782372],[-46.263964765130204,-22.983826700277941],[-46.263709727465447,-22.98378243677525],[-46.263348369203477,-22.983739147012081],[-46.263127894672593,-22.983761054894892],[-46.262717985262306,-22.983753384258762],[-46.262541535464038,-22.983749100143289],[-46.262312383676687,-22.983743194461425],[-46.262169449611918,-22.983747033596089],[-46.261995694937269,-22.983809193392624],[-46.261914391838424,-22.983739391820713],[-46.261705721291612,-22.983543976706517],[-46.261423638642292,-22.983261743682952],[-46.261152488010545,-22.982931743514328],[-46.261123932570356,-22.982814826576448],[-46.261104149064224,-22.983023883653431],[-46.26780822130489,-22.990478799233898],[-46.267975379341031,-22.990612262677494],[-46.268231780947268,-22.990906556244202],[-46.268410503874399,-22.991001766788319],[-46.268608988721638,-22.991051749646431],[-46.268718941268844,-22.991080755692494],[-46.268684521853615,-22.990973009723415],[-46.268677376862613,-22.990884879392475],[-46.268678575283161,-22.990800141463957],[-46.268693017375355,-22.990689881684069],[-46.268692750162081,-22.99045975982774],[-46.268653679114237,-22.99024462556492],[-46.268645716437327,-22.989952010315388],[-46.268665918693017,-22.989864157728785],[-46.268712390161539,-22.989600649930026],[-46.268756352060329,-22.989421475090104],[-46.268790094226361,-22.98933461594617],[-46.268850870413459,-22.98920514449825],[-46.268892467616823,-22.989175927293349],[-46.268959714540799,-22.989062444652792],[-46.268963438231097,-22.988989057658245],[-46.268916349083078,-22.98889301918377],[-46.268795003971178,-22.988790918874543],[-46.268736483880204,-22.988779691201305],[-46.268636724663821,-22.988790054853315],[-46.268581438970948,-22.988780445030365],[-46.268566012681923,-22.988699705853822],[-46.268492015754397,-22.988552184026378],[-46.268503396997851,-22.988393086104015],[-46.268583043464339,-22.988294280543478],[-46.268588932674994,-22.98797229993858],[-46.268776681565654,-22.987886465561154],[-46.268879912889119,-22.987807178620081],[-46.268914212833508,-22.987684006700913],[-46.268955265494149,-22.987651894609648],[-46.268988478944209,-22.987507461227455],[-46.268992871235262,-22.987282206310017],[-46.268956639901369,-22.987158976075758],[-46.269081853276319,-22.987095788466142],[-46.26906359076456,-22.986878563732901],[-46.26903665371799,-22.986771769399368],[-46.268964280797029,-22.986623629593108],[-46.268802451734629,-22.986520281867165],[-46.268537489283403,-22.986366630053205],[-46.2684416893497,-22.986233562127392],[-46.268372223739888,-22.986059233276514],[-46.268311217891394,-22.985861957222077],[-46.268385616117996,-22.985626605753001],[-46.268529720258115,-22.98540632884233],[-46.268618993386042,-22.984984790107291],[-46.268654115569262,-22.984668735094981],[-46.268630176331868,-22.984597683017981],[-46.268379448589442,-22.984668423120912]]],[[[-46.268726975919897,-22.98467287540921],[-46.268668441069686,-22.984998267221485],[-46.268582120488588,-22.985428841349552],[-46.268427783446405,-22.985661673297649],[-46.268382058072753,-22.985857742863242],[-46.268467437905855,-22.986080508914149],[-46.268499691659528,-22.986209316742695],[-46.268579327797582,-22.986319464606279],[-46.268792200542919,-22.986452570421783],[-46.269039565232951,-22.986595804436547],[-46.269131346857506,-22.98666205897327],[-46.269289227966304,-22.986843961408724],[-46.269349102389,-22.986963651308297],[-46.269353710881298,-22.987018356798092],[-46.269422451975977,-22.986722543863397],[-46.269447056224593,-22.986596423831667],[-46.269601918334594,-22.986354103227598],[-46.269556408838476,-22.986078425589533],[-46.269491495250527,-22.98585792579804],[-46.269460973243056,-22.985650427338381],[-46.269475692584848,-22.985430075264734],[-46.269506599685783,-22.985303046684933],[-46.26954763908951,-22.98510992266937],[-46.269571908916397,-22.984894831918893],[-46.269515325279187,-22.984791066039673],[-46.269299522943427,-22.984572858783686],[-46.269168035033772,-22.984372482282179],[-46.268698783845842,-22.984573668789775],[-46.268726975919897,-22.98467287540921]]]]}}
]
}
