{
"type": "FeatureCollection",
"name": "Alto Tiete I (1753)",
"crs": { "type": "name", "properties": { "name": "urn:ogc:def:crs:OGC:1.3:CRS84" } },
"features": [
{"type":"Feature","properties":{"Nome do Projeto":null,"Tipo":null,"Município":null,"Região Hidrográfica":null,"UGRHI":null,"Propriedade":null,"Área (ha)":12.336040604576347,"Ano de Implantação":null,"Metodologia de Restauração":null,"Monitoramento":null,"Status do Projeto":null,"Fotos do Projeto":null},"geometry":{"type":"MultiPolygon","coordinates":[[[[-45.971025563670999,-23.514101609831702],[-45.9710207329098,-23.514103344710499],[-45.9712524368286,-23.513562768978801],[-45.971584759490703,-23.513146944389099],[-45.971606878971599,-23.5131447439365],[-45.971612618671202,-23.5131003132011],[-45.971600484018303,-23.5129232749584],[-45.971165800868498,-23.512678325545899],[-45.970983854500801,-23.512629579780299],[-45.970883465941597,-23.5125611214633],[-45.970768162707898,-23.512501967288902],[-45.970687615712997,-23.512414962680499],[-45.970537792809303,-23.5124158965167],[-45.970473105799996,-23.5124485389791],[-45.9703647542336,-23.5126564669469],[-45.970305837303201,-23.512795002571298],[-45.97025643608,-23.512869000251499],[-45.9701824016255,-23.5129892075574],[-45.969979363175199,-23.5132253588691],[-45.969855252027102,-23.513327455481502],[-45.969760734507702,-23.513378705917201],[-45.969451839917902,-23.513481952876401],[-45.9691627528656,-23.513562047869701],[-45.968903091158097,-23.5135682693669],[-45.9687283635377,-23.513578567692001],[-45.968523637333497,-23.5135844467904],[-45.968298597758398,-23.513544395755201],[-45.968213091209599,-23.513462026309199],[-45.968064115892901,-23.513449665803702],[-45.967906646748503,-23.5134045426855],[-45.967740849686599,-23.513346413517802],[-45.967416133017601,-23.513211943929001],[-45.967378423703103,-23.513199810384801],[-45.967386674651898,-23.513188753434601],[-45.966899690494202,-23.512907584804701],[-45.966886552643999,-23.5129703560557],[-45.966545809466403,-23.512855450658499],[-45.966461220202902,-23.512832516586599],[-45.966455019948,-23.5128351175928],[-45.966183000491498,-23.512771122496801],[-45.966181404244203,-23.512758453389701],[-45.965791116668797,-23.512685646825901],[-45.9642696028058,-23.512858069099199],[-45.9635241577908,-23.513180311225199],[-45.963516036701499,-23.5133099202219],[-45.9641606576565,-23.513456385571899],[-45.965547258595699,-23.5134268974153],[-45.965979977057899,-23.5134788263126],[-45.966655698691298,-23.5136649286089],[-45.966656693345499,-23.5136930726824],[-45.966779923013803,-23.5137365331321],[-45.966937839556003,-23.513804985845798],[-45.967204862072698,-23.5138945008792],[-45.967546536045603,-23.5140287733153],[-45.967781975253899,-23.5141393505127],[-45.967951376635497,-23.514173576769299],[-45.968249982460598,-23.5141367177234],[-45.968505520137903,-23.514170943980702],[-45.968677993328598,-23.514189980783001],[-45.971016065345601,-23.514117244287998],[-45.971025563670999,-23.514101609831702]]],[[[-45.967236071337403,-23.509400097533199],[-45.967430416856402,-23.509327842078701],[-45.967619711393802,-23.509184569446699],[-45.967953073720501,-23.5089108425536],[-45.969120910252201,-23.508719690173901],[-45.969351109684197,-23.508592878206699],[-45.969671912001999,-23.508461322521502],[-45.970474940655002,-23.5079631620026],[-45.970301461903397,-23.507733618334299],[-45.9702583937556,-23.507746782920499],[-45.970157901410602,-23.507788909587401],[-45.970123446892302,-23.507836302071599],[-45.970077507534597,-23.5078599983073],[-45.970034439386701,-23.507899492023999],[-45.969994242448699,-23.507920555334699],[-45.969951174300903,-23.507920555334699],[-45.969916719782603,-23.507928454075401],[-45.969893750103701,-23.507981112334299],[-45.969807613808001,-23.508036403483501],[-45.9696841517842,-23.508083795878601],[-45.969583659439202,-23.508131188256701],[-45.969525639319897,-23.508143081096598],[-45.9694884012019,-23.508168816781801],[-45.969373215780799,-23.5082327543231],[-45.969048497826002,-23.5085210048051],[-45.9684070777678,-23.508591372499399],[-45.967979079378097,-23.508646233016801],[-45.967673754958703,-23.508819656579799],[-45.967744217915303,-23.5088578094119],[-45.967573081371903,-23.509005148688701],[-45.967108175835001,-23.509262974450099],[-45.966954829362102,-23.5093642301497],[-45.966910213768699,-23.509460631365599],[-45.967006295562001,-23.509585414209202],[-45.9670519791147,-23.509635282304298],[-45.966985131964002,-23.5097903319712],[-45.966849820268997,-23.5098789376582],[-45.966785491112603,-23.5097581369265],[-45.966757721049802,-23.509678902358399],[-45.966707688868603,-23.509654137049701],[-45.966581135608301,-23.509700895002599],[-45.966472892210298,-23.509772615110801],[-45.966496252366198,-23.5098685943553],[-45.966479741690698,-23.510090200441699],[-45.9667745193793,-23.510117625989199],[-45.9670579450353,-23.509831672982401],[-45.967141576338001,-23.509492629272501],[-45.967236071337403,-23.509400097533199]]],[[[-45.971819622281799,-23.507787604878001],[-45.972199577069603,-23.5076891094632],[-45.972288523195701,-23.507458692173199],[-45.9723873606615,-23.507341054450801],[-45.9725735573885,-23.5073942228844],[-45.972700474439797,-23.507397609607501],[-45.972792938331999,-23.5070292528574],[-45.972945602168998,-23.506836051019899],[-45.973102858596597,-23.506651178966301],[-45.9732160572255,-23.506637933758402],[-45.973346860301099,-23.506553530191201],[-45.973473254433401,-23.506485871312201],[-45.973608895974202,-23.506443230385202],[-45.9733865086869,-23.5063986479561],[-45.973291037587302,-23.506357451479001],[-45.973128605408903,-23.506454590544699],[-45.972940414641798,-23.506129780039501],[-45.972868768240602,-23.506247248255502],[-45.972897216381398,-23.5064184222745],[-45.972559768698503,-23.506750695248702],[-45.972145894772297,-23.507167030778199],[-45.972137414225102,-23.507246490606502],[-45.9720065176706,-23.5073183558419],[-45.971572091917302,-23.507404652637401],[-45.9714410416371,-23.507455621813701],[-45.971323831403701,-23.507539939055501],[-45.971161089877199,-23.507595284952401],[-45.9709524801236,-23.507575689039399],[-45.970985580365898,-23.507763551680199],[-45.971013260573102,-23.507830248083501],[-45.971073551054502,-23.508017941172501],[-45.971575371885201,-23.507851818404198],[-45.9716340996955,-23.507826376175501],[-45.971819622281799,-23.507787604878001]]],[[[-45.949959897253898,-23.5060635284472],[-45.949876240578,-23.505972907486999],[-45.949828940869502,-23.5059914221684],[-45.949307222599899,-23.505689499770298],[-45.949108739133599,-23.505837078122401],[-45.948836359728098,-23.506215381693501],[-45.948878000027698,-23.506236474993202],[-45.948951000026199,-23.506279474993299],[-45.949071000023899,-23.5063774749934],[-45.949228000021002,-23.506188474993401],[-45.949322000019301,-23.506081474993401],[-45.949472000016399,-23.5061364749935],[-45.9495860000142,-23.5061954749936],[-45.949705000011903,-23.506269474993701],[-45.949825000009497,-23.506356474993801],[-45.949858000008902,-23.506339474993801],[-45.949999000006201,-23.5063664749939],[-45.950331999999797,-23.506489474994201],[-45.950347999999501,-23.506497474994202],[-45.950371822381101,-23.506436052085501],[-45.950443999997702,-23.5063404749942],[-45.949959897253898,-23.5060635284472]]],[[[-45.9504820301485,-23.504095643031899],[-45.950403276003897,-23.5039538711269],[-45.950175601242897,-23.504173974937199],[-45.950035272499598,-23.504448224420202],[-45.949975011736797,-23.504644220905099],[-45.950397742678398,-23.504758039170401],[-45.9503747417886,-23.504553140920201],[-45.9503693773704,-23.504317013175999],[-45.9504820301485,-23.504095643031899]]],[[[-45.944067277759899,-23.503879803905601],[-45.943883091638298,-23.5037566755672],[-45.943701383193499,-23.503918675422302],[-45.943514693943101,-23.5041061885515],[-45.943800637384598,-23.504381395945],[-45.943936209299999,-23.5045292148287],[-45.944393613056803,-23.504164551590701],[-45.944203178130003,-23.503985033505],[-45.944067277759899,-23.503879803905601]]],[[[-45.945302129012099,-23.503486483679399],[-45.945213199139999,-23.503450252661398],[-45.945195876010501,-23.503454977237201],[-45.9451796349286,-23.503465107188202],[-45.945167679821203,-23.503458418106302],[-45.945151183121801,-23.503456749845899],[-45.945137500723597,-23.5034516346131],[-45.9450854669753,-23.503426426992],[-45.945057041436598,-23.503398039101],[-45.945038628572497,-23.503386288967601],[-45.945008553105602,-23.503356216774701],[-45.944988553717799,-23.503324630962101],[-45.944977078114597,-23.503318053274999],[-45.9449652200502,-23.503306216718101],[-45.944956838673598,-23.503291270449299],[-45.944945179155098,-23.503284507020702],[-45.944933400668297,-23.503266054537299],[-45.944910610944497,-23.503241636627202],[-45.944893453608799,-23.5032377748066],[-45.944888046439701,-23.503218456227799],[-45.9448915925893,-23.503204172440501],[-45.944906006046899,-23.503189364472199],[-45.944910756512101,-23.503190001365599],[-45.944919341012998,-23.503196748850701],[-45.944929875649201,-23.5032005547659],[-45.944935101661102,-23.503214191354399],[-45.944956121837102,-23.503243295765301],[-45.944972412970998,-23.503244997326899],[-45.9450073305647,-23.503264921801399],[-45.945022358736303,-23.5032666435838],[-45.945035792281701,-23.503274980706301],[-45.945075137495799,-23.503283177298101],[-45.945097066777798,-23.503281565186001],[-45.945116019358203,-23.503288458139899],[-45.945120014131703,-23.5032988976876],[-45.945176355785001,-23.5033370300341],[-45.945189930207903,-23.503348955313601],[-45.945199745814101,-23.5033685131115],[-45.9452112607079,-23.503371951224899],[-45.945231115238698,-23.503391784569502],[-45.945246090989698,-23.503396833411799],[-45.945256306276598,-23.503406975607],[-45.945301006434001,-23.503436775711801],[-45.945314947542499,-23.503442972069799],[-45.945324471579497,-23.503438261146901],[-45.945338437355701,-23.503436529715199],[-45.945367606285402,-23.5034467484728],[-45.945392939793102,-23.5034636276797],[-45.945412144195402,-23.503481080090801],[-45.945423,-23.503467000690701],[-45.945495,-23.503312000690698],[-45.945528,-23.503204000690701],[-45.945203,-23.503043000690699],[-45.94507,-23.502955000690701],[-45.944949475966403,-23.502748403037099],[-45.944852625053997,-23.502686284559701],[-45.944495943963403,-23.502553573303199],[-45.9442184680859,-23.5024422526444],[-45.943953031741501,-23.502356375288599],[-45.943798004081401,-23.502233376049301],[-45.943582934620899,-23.502052480971301],[-45.943448718138498,-23.502191183699999],[-45.943180315200401,-23.502415040901301],[-45.943318,-23.5024840006907],[-45.943508,-23.502625000690699],[-45.943642,-23.502707000690702],[-45.943801,-23.5028190006907],[-45.944008,-23.502946000690699],[-45.944139,-23.503004000690702],[-45.944211174859802,-23.5030411002687],[-45.944443,-23.5032170006907],[-45.944583,-23.5033410006907],[-45.944695,-23.503413000690699],[-45.944891,-23.5035210006907],[-45.944999,-23.503592000690698],[-45.945085,-23.5036630006907],[-45.945194,-23.503764000690701],[-45.945368636696401,-23.5035375069609],[-45.945320435055997,-23.503506403668499],[-45.945302129012099,-23.503486483679399]]]]}}
]
}
