{
"type": "FeatureCollection",
"name": "Braganca Pta PCJ",
"crs": { "type": "name", "properties": { "name": "urn:ogc:def:crs:OGC:1.3:CRS84" } },
"features": [
{"type":"Feature","properties":{"Nome do Projeto":"Bragança Paulista - PCJ","Tipo":"Programa Nascentes","Município":"Bragança Paulista","Região Hidrográfica":"Paraná","UGRHI":"05 - Piracicaba, Capivari e Jundiaí","Propriedade":"Fazenda Santa Cruz","Área (ha)":23.744212458634927,"Ano de Implantação":"2021","Metodologia de Restauração":null,"Monitoramento":"5 anos","Status do Projeto":"Ativo","Fotos do Projeto":null},"geometry":{"type":"MultiPolygon","coordinates":[[[[-46.612059,-22.975563],[-46.612080631074001,-22.975585146099501],[-46.612071363698703,-22.975523981422999],[-46.611934826731101,-22.975477530702001],[-46.611615251952301,-22.9754365329782],[-46.611622,-22.975469],[-46.611671,-22.975499],[-46.611871,-22.975502],[-46.611949,-22.975539],[-46.612059,-22.975563]]],[[[-46.611416830812701,-22.974566815052],[-46.611304198897102,-22.974465676188998],[-46.611213,-22.974564],[-46.611318,-22.974663],[-46.611431,-22.974754],[-46.611474,-22.974815],[-46.611581634138702,-22.975274786893699],[-46.6116040412941,-22.975232608718901],[-46.6116040412941,-22.974989094333299],[-46.611633600843803,-22.9748961928914],[-46.611416830812701,-22.974566815052]]],[[[-46.612140132346902,-22.9747585845987],[-46.611988,-22.974496],[-46.611697,-22.974124],[-46.61165,-22.974167],[-46.611507969250603,-22.974286048427501],[-46.611504101864199,-22.974340191837701],[-46.611577296939601,-22.9744499844508],[-46.612060102917901,-22.9746780152627],[-46.612082624479598,-22.974808921839902],[-46.612109368834098,-22.9749271600387],[-46.612286726132197,-22.975073550189599],[-46.612625935513897,-22.975219275519599],[-46.612626558249602,-22.975179918626299],[-46.6123456993666,-22.975073532685801],[-46.612155660562102,-22.974862378458599],[-46.612140132346902,-22.9747585845987]]],[[[-46.61118,-22.970665],[-46.611039,-22.970781],[-46.611188,-22.971014],[-46.611431,-22.971331],[-46.611441,-22.971394],[-46.612126,-22.971605],[-46.612276,-22.971697],[-46.611905,-22.970993],[-46.611899,-22.97051],[-46.611618,-22.970541],[-46.61118,-22.970665]]],[[[-46.611969,-22.969732],[-46.612003,-22.969254],[-46.612001819625199,-22.969125016457699],[-46.611893667303299,-22.9690929722939],[-46.611840437465901,-22.9691747885255],[-46.611724302640901,-22.9692124946375],[-46.611644365683503,-22.969164230814201],[-46.611585544148802,-22.969060161944999],[-46.611612582468098,-22.9690096904157],[-46.611536,-22.968987],[-46.611516,-22.968976],[-46.611343,-22.969006],[-46.611178,-22.969321],[-46.611171,-22.969827],[-46.611211,-22.970041],[-46.611295,-22.970399],[-46.611668,-22.970418],[-46.611945,-22.970304],[-46.612039,-22.970126],[-46.611969,-22.969732]]],[[[-46.615559,-22.969274],[-46.616423,-22.968914],[-46.617057455121298,-22.9687554965601],[-46.617087620010899,-22.96865444418],[-46.617179622924198,-22.968141641056899],[-46.616936,-22.968116],[-46.616707,-22.968136],[-46.616407,-22.968172],[-46.615753,-22.968162],[-46.615332023436402,-22.968702708003299],[-46.614727217400102,-22.9690526207226],[-46.614634,-22.969037],[-46.613658,-22.968841],[-46.613601,-22.96907],[-46.613605,-22.969133],[-46.613607,-22.969161],[-46.613642,-22.969216],[-46.613687,-22.969261],[-46.614292,-22.969436],[-46.614843,-22.969646],[-46.615012,-22.969649],[-46.615559,-22.969274]]],[[[-46.613389,-22.967102],[-46.613599,-22.96667],[-46.613522,-22.966532],[-46.613445,-22.966313],[-46.613438,-22.9663],[-46.613199,-22.966716],[-46.613052,-22.966897],[-46.613053,-22.966937],[-46.612755,-22.967084],[-46.61273,-22.967229],[-46.61311,-22.967341],[-46.613211,-22.967359],[-46.613259,-22.967314],[-46.613389,-22.967102]]],[[[-46.613497,-22.965691],[-46.613531,-22.966025],[-46.61353,-22.966037],[-46.613622,-22.966435],[-46.61368,-22.966539],[-46.613798,-22.966358],[-46.614028,-22.966057],[-46.614138,-22.965965],[-46.613497,-22.965691]]],[[[-46.605151373198197,-22.981006966469099],[-46.605272032756602,-22.980922504778199],[-46.605332362535798,-22.9807746968192],[-46.605365049943799,-22.980662333853999],[-46.605395639902099,-22.980616166547801],[-46.6052765574901,-22.980424784099899],[-46.605246392600399,-22.979854667686499],[-46.605348953225104,-22.979580167191202],[-46.605599321808697,-22.979601282613899],[-46.605894336667902,-22.979863518044301],[-46.605951,-22.979778],[-46.606596,-22.979453],[-46.607068,-22.97933],[-46.607264,-22.979196],[-46.607736,-22.979008],[-46.607932530423,-22.978954442055599],[-46.608054743821697,-22.978940671531799],[-46.608164845668803,-22.9789451962653],[-46.6081523301104,-22.978894542833601],[-46.608154465543898,-22.9788672092849],[-46.608142575119103,-22.978848564535902],[-46.607983856331202,-22.978515346588502],[-46.607656567279101,-22.9780432660664],[-46.607466528474603,-22.9779467384197],[-46.606947,-22.978352],[-46.606696,-22.978601],[-46.606395,-22.978886],[-46.606238817468103,-22.978844143885102],[-46.606104583709403,-22.978823028462401],[-46.605965825217297,-22.9788200119735],[-46.605855723370297,-22.978827553195899],[-46.605694341210899,-22.978877325263699],[-46.605664176321298,-22.978893915953002],[-46.605646077387597,-22.9788984406864],[-46.605406890837003,-22.9792745027775],[-46.605246392600399,-22.979394653120199],[-46.605173996865403,-22.9794911807669],[-46.605137798997902,-22.9795530187906],[-46.605103109374902,-22.9797943379074],[-46.605094054692003,-22.9798909211917],[-46.604851,-22.980398],[-46.604801,-22.980544],[-46.6046,-22.980892],[-46.60451,-22.981063],[-46.604409,-22.981161],[-46.604207243414599,-22.981276944531199],[-46.604521289821797,-22.981597148711099],[-46.604698,-22.981468],[-46.604813830767398,-22.981368145890102],[-46.605079639183103,-22.981034863030501],[-46.605151373198197,-22.981006966469099]]],[[[-46.608697422770703,-22.9768158329587],[-46.608558497478001,-22.9770478247098],[-46.608400131807599,-22.9771730090016],[-46.608335277294998,-22.977112679222401],[-46.608445379141997,-22.976970904241298],[-46.608514758387997,-22.976857785905299],[-46.6084121977634,-22.976821588037801],[-46.608307844543702,-22.976754127370501],[-46.608219,-22.976857],[-46.608085,-22.977112],[-46.6079,-22.977588],[-46.607814,-22.977702],[-46.607579,-22.977875],[-46.607575,-22.977929],[-46.6078,-22.978054],[-46.608266,-22.977822],[-46.608323,-22.977776],[-46.608805,-22.976935],[-46.608697422770703,-22.9768158329587]]],[[[-46.609946459460502,-22.975450970866799],[-46.610030544090201,-22.975364623870401],[-46.6102628137401,-22.975135370709399],[-46.610522231790597,-22.974897068081599],[-46.610615742948298,-22.974823164102101],[-46.610731877773297,-22.974707029277202],[-46.610875160998901,-22.974465710160398],[-46.610837454886898,-22.974441578248701],[-46.610728861284301,-22.974396330914299],[-46.610656465549297,-22.974372199002701],[-46.610646062137697,-22.9743747998556],[-46.610371,-22.974247],[-46.609876326092099,-22.974547155362298],[-46.609840882346901,-22.974574680824102],[-46.609593530252198,-22.9747481289393],[-46.609481920160697,-22.974838623608001],[-46.609453263515597,-22.974894428653801],[-46.609225518599096,-22.975128206548099],[-46.609211944398801,-22.975197585794199],[-46.609115416752097,-22.975336344286401],[-46.609184795998203,-22.975470578045101],[-46.609406507936697,-22.975729996095598],[-46.609495494360999,-22.9758189825199],[-46.609578447807401,-22.975879312299099],[-46.6096297281197,-22.975844622676],[-46.609813733946197,-22.975645534404698],[-46.6098718013587,-22.975549006758001],[-46.609946459460502,-22.975450970866799]]],[[[-46.606624317797902,-22.973666483950801],[-46.606976512713103,-22.973709529996],[-46.607109564125601,-22.9736703972277],[-46.607340447458903,-22.973693876888699],[-46.607390600083299,-22.973676582915399],[-46.607576222388303,-22.973623437905701],[-46.607635127255598,-22.973600134888699],[-46.607841346893998,-22.973552998922599],[-46.607931352261197,-22.973564738753101],[-46.608267894069101,-22.973705616719201],[-46.608428338419401,-22.9737290963802],[-46.608648,-22.973737],[-46.608884,-22.973706],[-46.608905359891097,-22.973697656296402],[-46.608922389619998,-22.973681158739002],[-46.608998698518299,-22.9736341994169],[-46.609229581851601,-22.9735070179198],[-46.6092349748182,-22.9735088155761],[-46.609523,-22.973336],[-46.609758,-22.973231],[-46.610224,-22.973085],[-46.610193,-22.972632],[-46.609484,-22.972612],[-46.6091,-22.972592],[-46.608871,-22.972706],[-46.608373182301797,-22.972883603700801],[-46.608369639266897,-22.9728720887531],[-46.608213145234302,-22.972898564382],[-46.608214086512604,-22.972894590094899],[-46.6081534307217,-22.972917091436699],[-46.608018422670803,-22.973007096803901],[-46.607915699153899,-22.973020793272902],[-46.607586983899601,-22.9730090534424],[-46.607406973165098,-22.973056012764399],[-46.607393602809601,-22.9730524256032],[-46.607365883758398,-22.973024706549701],[-46.607252398730097,-22.972997313611799],[-46.607127173871298,-22.972997313611799],[-46.607121688675498,-22.973001262956299],[-46.606984339266802,-22.973020793272902],[-46.606933466668004,-22.973048186210701],[-46.606812155085997,-22.973126451747401],[-46.606733889549297,-22.973196890730499],[-46.606647797458898,-22.9733103757587],[-46.606467786724401,-22.973470820109],[-46.606358214973,-22.973462993555401],[-46.6062369033911,-22.973435600617499],[-46.606099938701803,-22.973384728018601],[-46.605948785585603,-22.9733608074554],[-46.605774651464799,-22.973348219446699],[-46.605659261384702,-22.973324092429898],[-46.60559512599,-22.973306462481901],[-46.605497294069103,-22.9733103757588],[-46.605305543504102,-22.973361248357602],[-46.605160752261099,-22.9734316873407],[-46.605098139831803,-22.973482559939502],[-46.605078573447599,-22.973537345815199],[-46.605109879662301,-22.973639091012998],[-46.605211624859997,-22.973830841578],[-46.6053172833346,-22.973995199205099],[-46.605442118234002,-22.974084617957701],[-46.605724264125598,-22.974183036493201],[-46.605990366950401,-22.974046071804],[-46.606260383052103,-22.9738924756881],[-46.606530392585498,-22.973693319731201],[-46.606624317797902,-22.973666483950801]]],[[[-46.611591577126703,-22.973313411377902],[-46.611648890416902,-22.972557780893599],[-46.611670005839699,-22.97207514266],[-46.611401,-22.971969],[-46.611271,-22.972027],[-46.611035,-22.972046],[-46.610789,-22.972568],[-46.610533,-22.972929],[-46.610449,-22.97311],[-46.610412,-22.973294],[-46.610461,-22.973885],[-46.610508,-22.974077],[-46.610869,-22.974239],[-46.610924933066698,-22.974130879885902],[-46.611060675069901,-22.974008712083101],[-46.6113623239658,-22.973829230989999],[-46.611591577126703,-22.973313411377902]]],[[[-46.610572,-22.969857],[-46.610155,-22.969974],[-46.610213,-22.97026],[-46.610368,-22.970447],[-46.610475,-22.970512],[-46.610994,-22.970216],[-46.6109401858768,-22.9699287275484],[-46.610596766014901,-22.969856720157999],[-46.610572,-22.969857]]],[[[-46.60727,-22.970018],[-46.607233,-22.969929],[-46.607374,-22.969294],[-46.607431,-22.968891],[-46.607712,-22.968583],[-46.608032,-22.96853],[-46.608201,-22.968445],[-46.608505,-22.968244],[-46.60881,-22.968096],[-46.609145,-22.968004],[-46.60939,-22.967975],[-46.60987,-22.968006],[-46.610213,-22.968096],[-46.610525,-22.968159],[-46.610851,-22.968288],[-46.6109897875793,-22.967788711848598],[-46.611042,-22.967576],[-46.610566,-22.96757],[-46.610408,-22.967402],[-46.609999,-22.967275],[-46.609653,-22.967239],[-46.609425,-22.967141],[-46.609028,-22.966818],[-46.608851,-22.966938],[-46.608228,-22.967683],[-46.607902,-22.967719],[-46.607548,-22.967825],[-46.606767,-22.968396],[-46.606752,-22.968492],[-46.606751,-22.968648],[-46.606731,-22.968955],[-46.606273,-22.969639],[-46.606078,-22.969751],[-46.606013,-22.969812],[-46.605934,-22.969944],[-46.606021,-22.970204],[-46.606113,-22.970358],[-46.606288,-22.970434],[-46.606603,-22.970564],[-46.606849,-22.970462],[-46.607195,-22.970344],[-46.607287,-22.970282],[-46.60727,-22.970018]]]]}}
]
}
