{
"type": "FeatureCollection",
"name": "Cantareira I (4069)",
"crs": { "type": "name", "properties": { "name": "urn:ogc:def:crs:OGC:1.3:CRS84" } },
"features": [
{"type":"Feature","properties":{"Nome do Projeto":"Cantareira I","Tipo":"Programa Nascentes","Município":"Piracaia","Região Hidrográfica":"Paraná","UGRHI":"05 -  Piracicaba, Capivari e Jundiaí","Propriedade":null,"Área (ha)":0.38803241738167416,"Ano de Implantação":"2020","Metodologia de Restauração":null,"Monitoramento":"5 anos","Status do Projeto":"Ativo","Fotos do Projeto":null},"geometry":{"type":"MultiPolygon","coordinates":[[[[-46.351211598956702,-23.064289262138999],[-46.351292480459101,-23.064240994145599],[-46.351310023944002,-23.064218365592701],[-46.351317987959803,-23.064175890841401],[-46.351340756528302,-23.0640935737094],[-46.351360897954201,-23.064047160858301],[-46.3513985536635,-23.064006878006499],[-46.351469486511398,-23.063998996578899],[-46.351534289360004,-23.064021765147402],[-46.351536916502504,-23.0640673022843],[-46.351488350557197,-23.064110396010399],[-46.351514252320598,-23.064175767127502],[-46.351558058257098,-23.064251011644501],[-46.351626674293101,-23.0642316637806],[-46.351620819754302,-23.064178697469],[-46.351635555782202,-23.063934620681401],[-46.351438685836499,-23.063911450330998],[-46.351249658534996,-23.063966512161301],[-46.3511094053829,-23.0642117829222],[-46.351096838700798,-23.064254200955101],[-46.351140421733099,-23.0642914078046],[-46.351140256553499,-23.064294626352002],[-46.351174116786098,-23.064300863763201],[-46.351211598956702,-23.064289262138999]]],[[[-46.351385855808097,-23.063406575942398],[-46.3515329757887,-23.063378115231799],[-46.351558371499699,-23.063252012391299],[-46.351585518638998,-23.063075118128801],[-46.351475021836499,-23.063046579219499],[-46.351474302939302,-23.063044468132802],[-46.351504077221101,-23.062949891002301],[-46.351503757193299,-23.062866960318399],[-46.351488314366101,-23.062795765308302],[-46.351455037227602,-23.0627440981722],[-46.351352140812502,-23.062317625371101],[-46.351325431530299,-23.062139855394399],[-46.3512877758209,-23.062039148264802],[-46.351257125825001,-23.062012876839599],[-46.351246779421103,-23.0620193967086],[-46.3511489810193,-23.062059802660499],[-46.351183073979897,-23.062178572760299],[-46.351227789400198,-23.062169629676202],[-46.351335502243202,-23.062788759594898],[-46.351285601661999,-23.062811370795799],[-46.351308134943402,-23.0629416719452],[-46.351274216893998,-23.063220843582599],[-46.351259752967501,-23.063413143798702],[-46.351385855808097,-23.063406575942398]]]]}}
]
}
