{
"type": "FeatureCollection",
"name": "Fazenda Carmelina (1880)",
"crs": { "type": "name", "properties": { "name": "urn:ogc:def:crs:OGC:1.3:CRS84" } },
"features": [
{"type":"Feature","properties":{"Nome do Projeto":"Fazenda Carmelilna","Tipo":"Programa Nascentes","Município":"Salesópolis","Região Hidrográfica":"Paraná","UGRHI":"05 - Piracicaba, Capivari e Jundiaí","Propriedade":"Fazenda Carmelilna","Área (ha)":13.764341872762799,"Ano de Implantação":"2020","Metodologia de Restauração":null,"Monitoramento":"5 anos","Status do Projeto":"Ativo","Fotos do Projeto":null},"geometry":{"type":"MultiPolygon","coordinates":[[[[-45.761174901624599,-23.594825879321299],[-45.761876046614198,-23.594660666996099],[-45.763216645900101,-23.5947309743791],[-45.763368762128401,-23.594727952202401],[-45.7634171169559,-23.594723922633399],[-45.763255934197502,-23.5944579710821],[-45.763211608938903,-23.594123516858399],[-45.763254926805203,-23.593983489336999],[-45.763152172796801,-23.593862602268199],[-45.7631594174958,-23.593824711373902],[-45.763069499877901,-23.5935293252295],[-45.762942132684202,-23.592992441686],[-45.762894551773101,-23.592677520992599],[-45.762814774529097,-23.5922486090905],[-45.762792629568096,-23.5920287743862],[-45.761473089723602,-23.5918581018223],[-45.761064088479699,-23.591894367942398],[-45.760518867308498,-23.5918603598845],[-45.760547408198804,-23.592130626666599],[-45.760609346202898,-23.592433348743899],[-45.760608665489698,-23.592536986350598],[-45.760565750562598,-23.592733627648801],[-45.760523609021398,-23.592828455943302],[-45.760384134376103,-23.593025097090901],[-45.760352409737202,-23.5930622791861],[-45.760181739746798,-23.593227998963702],[-45.760006246816403,-23.5933699023653],[-45.7598797038832,-23.5934858677807],[-45.759863641743998,-23.593530026503199],[-45.760032894851904,-23.593607578713101],[-45.7600996353938,-23.5936495932676],[-45.760309150077397,-23.593824897755599],[-45.760521919121203,-23.593907390261698],[-45.760790789274502,-23.593971270041699],[-45.760873945557996,-23.5940042971026],[-45.760942252981202,-23.594059078375398],[-45.760989232668997,-23.5941304179395],[-45.761010428628197,-23.594211549337601],[-45.7610046373632,-23.594284598589802],[-45.761162603678002,-23.594851200171],[-45.761174901624599,-23.594825879321299]]],[[[-45.762547562384199,-23.589991320349601],[-45.7626254487963,-23.589580028576599],[-45.762677195373399,-23.589241322657699],[-45.762702837032002,-23.588945717184501],[-45.761468831841803,-23.589290684975101],[-45.760021023565102,-23.589502147787002],[-45.760834117206997,-23.589867002151301],[-45.7609953052444,-23.5899255098781],[-45.761184140971601,-23.590594149858099],[-45.761201591822598,-23.590999138123699],[-45.761464023193597,-23.591077372846801],[-45.761574836338497,-23.591236540818599],[-45.7625056667557,-23.591389664436999],[-45.7625368815945,-23.591416345347501],[-45.762496282149499,-23.590410819067799],[-45.762547562384199,-23.589991320349601]]],[[[-45.763615204080999,-23.589425613436902],[-45.763732439426803,-23.589273062460901],[-45.763868564239203,-23.589141747098399],[-45.763952644498303,-23.589089685867801],[-45.764212289953903,-23.589008380968401],[-45.7645304136948,-23.5889016665299],[-45.764768327616203,-23.5887235058184],[-45.764800575258803,-23.5886408536998],[-45.764921041290798,-23.588501434422501],[-45.7647836208344,-23.588039386962301],[-45.764611959457397,-23.5881573757325],[-45.764386653900097,-23.588226202466],[-45.764129161834703,-23.588236034853502],[-45.763871669769202,-23.588147543339002],[-45.763646364211901,-23.588029554560102],[-45.763410329818697,-23.5879607277231],[-45.763217210769703,-23.5879902249434],[-45.7630455493927,-23.588147543338899],[-45.762927532196002,-23.588413017703701],[-45.762856530264898,-23.588531479583999],[-45.7630086943281,-23.5887540172073],[-45.7630384495382,-23.5888476656555],[-45.7632095122339,-23.589289201818499],[-45.763389917365402,-23.589615436584001],[-45.763467045265898,-23.589530869422902],[-45.763615204080999,-23.589425613436902]]]]}}
]
}
