{
"type": "FeatureCollection",
"name": "Manancial Cantareira II (232)",
"crs": { "type": "name", "properties": { "name": "urn:ogc:def:crs:OGC:1.3:CRS84" } },
"features": [
{"type":"Feature","properties":{"Nome do Projeto":"Manancial Cantareira II","Tipo":"Programa Nascentes","Município":"Piracaia","Região Hidrográfica":"Paraná","UGRHI":"05 -  Piracicaba, Capivari e Jundiaí","Propriedade":"Gleba 3 - Ponte","Área (ha)":1.7992896113794878,"Ano de Implantação":"2021","Metodologia de Restauração":null,"Monitoramento":"3 anos","Status do Projeto":"Ativo","Fotos do Projeto":null},"geometry":{"type":"MultiPolygon","coordinates":[[[[-46.234899467491601,-23.0158269157699],[-46.234841246850998,-23.015745147279599],[-46.2346624172472,-23.015615953263001],[-46.234307275573897,-23.015490552261198],[-46.234321005373701,-23.015420314073399],[-46.234332375878402,-23.0153779049012],[-46.2343775970037,-23.015323140189601],[-46.234401842206097,-23.0152600749397],[-46.234367540450201,-23.015222858548501],[-46.234330747392903,-23.015198962306702],[-46.234287599504199,-23.0151944621261],[-46.2342564932869,-23.0152213061351],[-46.234238602877397,-23.015264975297299],[-46.2342072875932,-23.015268846936401],[-46.234184906521797,-23.0152496749199],[-46.234157003697199,-23.015197898699999],[-46.2341866277214,-23.015151719747099],[-46.234284216952801,-23.015109847481899],[-46.234334871781698,-23.015078014405301],[-46.234345090128102,-23.0150525424196],[-46.234362408301699,-23.014946001522901],[-46.234446781519203,-23.014887304015598],[-46.234525643841202,-23.014797211352001],[-46.234624043629701,-23.014700920485001],[-46.234670504557897,-23.014638891083401],[-46.234754558256,-23.0145451303502],[-46.234823444123798,-23.014507109132701],[-46.234876787995098,-23.0144837190179],[-46.234899003908701,-23.014484754867802],[-46.2349637108276,-23.014561636135301],[-46.235040818989901,-23.0145658711827],[-46.235087720062602,-23.0145522045222],[-46.235084733393499,-23.014511116478399],[-46.235107892160201,-23.014472242753001],[-46.235135354774897,-23.014475655947098],[-46.235205876982398,-23.014473896517],[-46.235255775733698,-23.0145025269195],[-46.2353398882289,-23.014558700923001],[-46.235385549166899,-23.014552298796101],[-46.235458353360201,-23.014514246729],[-46.235493774160503,-23.014530898477499],[-46.235529503349099,-23.0145814042098],[-46.235635875998398,-23.0146434500897],[-46.235676058915502,-23.014609280026601],[-46.2357108188532,-23.014553387460399],[-46.235736843138199,-23.014542301892298],[-46.235815731158901,-23.014598516418999],[-46.2358603613228,-23.014622351127599],[-46.235923923054898,-23.014573488594699],[-46.235894911865898,-23.014543486175501],[-46.235916400668501,-23.014464723197101],[-46.236018281944602,-23.014463927722101],[-46.236074397189597,-23.014601333445199],[-46.236033767622303,-23.014729821334001],[-46.236051204631501,-23.0149231502837],[-46.236026447399801,-23.015073279053102],[-46.235972623680397,-23.015187360068101],[-46.235863808182202,-23.015287360537702],[-46.235382372336602,-23.0154942569615],[-46.235057500715698,-23.0156805839489],[-46.234899467491601,-23.0158269157699]]]]}}
]
}
