{
"type": "FeatureCollection",
"name": "Reserva Muriqui (2108)",
"crs": { "type": "name", "properties": { "name": "urn:ogc:def:crs:OGC:1.3:CRS84" } },
"features": [
{"type":"Feature","properties":{"Nome do Projeto":null,"Tipo":null,"Município":null,"Região Hidrográfica":null,"UGRHI":null,"Propriedade":null,"Área (ha)":33.625843771934996,"Ano de Implantação":null,"Metodologia de Restauração":null,"Monitoramento":null,"Status do Projeto":null,"Fotos do Projeto":null},"geometry":{"type":"MultiPolygon","coordinates":[[[[-45.939511663321902,-23.011624820801099],[-45.939821682453598,-23.011518396323002],[-45.939663637586399,-23.0113692541589],[-45.939566451729803,-23.011226714902602],[-45.939359121902399,-23.0111036128176],[-45.939145313018003,-23.011051780360699],[-45.9388926297908,-23.011116570931801],[-45.938639946563697,-23.011375733215999],[-45.938497407307402,-23.011615458328901],[-45.938413179565003,-23.012068992326299],[-45.938632050315597,-23.012102298802901],[-45.9386898778031,-23.012245032334899],[-45.938821379278203,-23.012453348018301],[-45.938992496955102,-23.0119477959562],[-45.939141491224298,-23.011780293082101],[-45.939511663321902,-23.011624820801099]]],[[[-45.948975421473499,-23.011876846304201],[-45.949473919898203,-23.0115264167184],[-45.949735508180503,-23.011245085924301],[-45.949834220739902,-23.0108946563386],[-45.949955645154397,-23.0107981019848],[-45.950130358418001,-23.010736716243599],[-45.9503277835367,-23.010647874940201],[-45.950061259626402,-23.0104751279613],[-45.949819413855998,-23.010647874940201],[-45.949621988737299,-23.010608389916399],[-45.9496812162729,-23.0104405785655],[-45.949656538132999,-23.0101987327951],[-45.949241945383797,-23.0103764154019],[-45.948921129565797,-23.010188861539199],[-45.948852030774297,-23.010045728328102],[-45.948595378119997,-23.0098433675814],[-45.948318982953801,-23.009710105626301],[-45.948008038391798,-23.009715041254299],[-45.9475440893628,-23.009833496325498],[-45.947272629824603,-23.009947015768699],[-45.947065333449899,-23.009947015768699],[-45.9468679083312,-23.009917402000902],[-45.946675418840499,-23.0101345696315],[-45.9463792811624,-23.010445514193499],[-45.946260826091198,-23.010519548613001],[-45.945969624041098,-23.0105540980088],[-45.945658679479102,-23.0106034542885],[-45.945303314265402,-23.010712038103801],[-45.945105889146703,-23.010889720710601],[-45.944962755935698,-23.011442511043001],[-45.945076275378902,-23.011748519977001],[-45.945273700497602,-23.011941009467701],[-45.945737649526599,-23.011876846304201],[-45.9461226285081,-23.011684356813401],[-45.946611255676899,-23.011240150296299],[-45.946681000251601,-23.011048352715999],[-45.947173917265197,-23.010707102475799],[-45.947567521132001,-23.010549660929101],[-45.947850098296797,-23.0105392911249],[-45.948146235974903,-23.010662681824101],[-45.9483239185817,-23.010914398850399],[-45.9485747745412,-23.0111747210725],[-45.948037652159599,-23.011605386765901],[-45.947948810856197,-23.011669549929501],[-45.948072201555398,-23.011778133744802],[-45.948437438025003,-23.011565901742198],[-45.948748382586999,-23.011437575414998],[-45.949074134032898,-23.011328991599701],[-45.9490346490091,-23.0115116098345],[-45.9486792837954,-23.0117040993253],[-45.948501601188603,-23.011723841837199],[-45.948175849742697,-23.012039722027101],[-45.9480623302995,-23.012330924077201],[-45.947859969552802,-23.012553027335699],[-45.947751385737497,-23.0127553880824],[-45.947943875228198,-23.012844229385902],[-45.948368339233497,-23.012365473473],[-45.948595378119997,-23.012069335794902],[-45.948975421473499,-23.011876846304201]],[[-45.948927193385501,-23.010928881403899],[-45.948817298908097,-23.010845513179699],[-45.948612667812199,-23.010739408167002],[-45.948461089222697,-23.010709092449101],[-45.948370142069002,-23.010591619042199],[-45.948332247421597,-23.010386987946401],[-45.948529299588003,-23.0101330938089],[-45.948582352094299,-23.010208883103701],[-45.948840035696499,-23.010462777241099],[-45.949200034846598,-23.0107469870965],[-45.949173508593397,-23.0110198285576],[-45.949234140029297,-23.0111524598234],[-45.949116666622402,-23.0112320385829],[-45.949082561439702,-23.011137301964499],[-45.949048456257103,-23.0110046706986],[-45.948927193385501,-23.010928881403899]]],[[[-45.937483434870302,-23.010899522518699],[-45.937591369076102,-23.010651673893701],[-45.9385326661032,-23.009946503283501],[-45.939212977030898,-23.0094676004829],[-45.939126684340401,-23.0094222968204],[-45.938956405175503,-23.0093741744477],[-45.9387454070799,-23.009215000445799],[-45.938710797493499,-23.009121554562601],[-45.938688030404798,-23.009109501398001],[-45.938628843684299,-23.0087439363596],[-45.937924436031103,-23.009240189779302],[-45.937198391340303,-23.009784103751201],[-45.936770738588699,-23.0098207595106],[-45.936391713748002,-23.009930903481401],[-45.936213539677603,-23.010076682266298],[-45.936100156178298,-23.010400635121599],[-45.936151988635103,-23.0109092411044],[-45.936284809305803,-23.011097133760501],[-45.936472701961797,-23.011285026416498],[-45.936893840673697,-23.011262349716699],[-45.9372080749433,-23.011191080088501],[-45.937483434870302,-23.010899522518699]]],[[[-45.940792432840396,-23.012138675035601],[-45.941171588115097,-23.011368416544201],[-45.941192056025798,-23.011319483675901],[-45.9412657104549,-23.011107582530101],[-45.941306713039097,-23.011165457108898],[-45.941409359518701,-23.011270035384701],[-45.941453994195399,-23.011293642842201],[-45.941698061517599,-23.011537709643701],[-45.941905391345003,-23.0114664400155],[-45.942222865143201,-23.011343337930501],[-45.9424949855416,-23.011187840560002],[-45.9425338598842,-23.011019385075201],[-45.942462590256099,-23.010825013361998],[-45.942138637400802,-23.0104686652212],[-45.941736792888697,-23.0099842503293],[-45.9417333595553,-23.009961372047599],[-45.941878874606203,-23.009710315270301],[-45.941978854411303,-23.009563883359299],[-45.942084362192297,-23.009600843957099],[-45.942222930206803,-23.0096106056547],[-45.942358849790701,-23.009583805864299],[-45.942745088899997,-23.0094521677721],[-45.9429101894372,-23.009357844135099],[-45.942918500626298,-23.009350631827601],[-45.943013310110103,-23.009334830227701],[-45.943285430508503,-23.009153416628799],[-45.943525155621401,-23.009023835486701],[-45.943810234133998,-23.008712840745599],[-45.9440305220756,-23.008641571117401],[-45.944276726245697,-23.008524948089502],[-45.944509972301503,-23.008162120891601],[-45.944471097958797,-23.007851126150499],[-45.944399828330702,-23.0075336523524],[-45.944283205302803,-23.0073068853536],[-45.943941800049302,-23.0071097360733],[-45.943910337127399,-23.007049753115901],[-45.943965275720103,-23.006758358075601],[-45.944180307432703,-23.006208524226601],[-45.9444990618601,-23.005844036873398],[-45.944094559121801,-23.005809564679701],[-45.944000889226103,-23.006029103497699],[-45.9439819419024,-23.006256471381999],[-45.943890994748699,-23.0063966815773],[-45.943743205623903,-23.006457313013101],[-45.943633311146499,-23.006544470702],[-45.943549942922303,-23.006570996955201],[-45.943462785233301,-23.0064611024778],[-45.943455206303803,-23.006275418705599],[-45.943542363992798,-23.005998787779799],[-45.9435309955986,-23.0059608931324],[-45.943424890585902,-23.0058623670492],[-45.943323719860501,-23.005775649284601],[-45.943290791650398,-23.0058296418113],[-45.943033297592898,-23.006488040077102],[-45.943011425004002,-23.006564129201799],[-45.942922051312401,-23.007038150219699],[-45.942919532940998,-23.007178649104699],[-45.942963784905899,-23.0073130636769],[-45.942989524245,-23.007362135530101],[-45.942719376940602,-23.008043159395701],[-45.942702370184001,-23.008095691581701],[-45.9426359599112,-23.008357756615201],[-45.942315080969003,-23.0086362098546],[-45.9422309939511,-23.008664868407099],[-45.9420996666164,-23.008597713170101],[-45.941861905783902,-23.0083788668429],[-45.941757383728898,-23.008305646230301],[-45.941635575501103,-23.008260828604801],[-45.941235068449799,-23.0081686926261],[-45.9411884608581,-23.008160176859601],[-45.9408185976243,-23.008109772754601],[-45.940294790088501,-23.008004397914799],[-45.940125650389597,-23.0079981902092],[-45.9398108677156,-23.008037691352001],[-45.939603540236099,-23.008110839782301],[-45.939190571916598,-23.008369027516299],[-45.938947637305603,-23.008531167015001],[-45.938919387965797,-23.009011405792101],[-45.939237735969698,-23.009285333144302],[-45.939423564425503,-23.009327049736399],[-45.939751200569901,-23.0091083780313],[-45.939718794072199,-23.009053096358599],[-45.939707425677902,-23.008946991345901],[-45.939597531200498,-23.0088863599101],[-45.939317110809903,-23.008829517939098],[-45.939317110809903,-23.008719623461602],[-45.9395217419058,-23.008605939519502],[-45.939692267818998,-23.0084657293242],[-45.939946161956399,-23.008344466452598],[-45.940162161446501,-23.008348255917301],[-45.940442581837097,-23.008363413776301],[-45.940541107920303,-23.008458150394699],[-45.940579002567702,-23.008613518449],[-45.940582792032401,-23.008749939179602],[-45.940529739526099,-23.008844675797999],[-45.940383449665298,-23.008946556236701],[-45.940627564730399,-23.008995664956402],[-45.941022822351599,-23.009050579201801],[-45.941154367380499,-23.009080841],[-45.941027289571402,-23.009269100653501],[-45.940798335637098,-23.0096641095626],[-45.940748004203797,-23.009798016971502],[-45.940747737087896,-23.009810635127],[-45.940492048046302,-23.010384449469498],[-45.940304983393403,-23.010922618904299],[-45.940355655704401,-23.011243543540601],[-45.940259410959001,-23.011491558845901],[-45.940026202537602,-23.011613715638099],[-45.939859625093597,-23.011639627685],[-45.939530171926798,-23.011739574151299],[-45.939245139411703,-23.0118506257806],[-45.939156298108202,-23.0119616774099],[-45.939013458556303,-23.012230747263601],[-45.938893921316399,-23.0125682641761],[-45.938923681953,-23.0126154089502],[-45.939328606516,-23.012778978978201],[-45.939355005457301,-23.012690982507099],[-45.939203426867799,-23.012562140705999],[-45.9391655322204,-23.012452246228602],[-45.939233742585699,-23.0122514045975],[-45.939339847598397,-23.012069510290001],[-45.939483847258401,-23.011997510459999],[-45.939589952271099,-23.01192551063],[-45.939851425337999,-23.0118307740115],[-45.940150793052297,-23.011743616322601],[-45.940325108430301,-23.0117170900694],[-45.940480476484503,-23.0118118266879],[-45.940514581667202,-23.011898984376799],[-45.9402947927124,-23.012190773161699],[-45.940309950571297,-23.012304457103799],[-45.940283424318103,-23.012463614622799],[-45.940215213952797,-23.012596245888599],[-45.940056056433903,-23.012675824648099],[-45.939927214632803,-23.0128008769845],[-45.939789179401501,-23.0129650269892],[-45.9402489249631,-23.013150739113801],[-45.940372366757302,-23.0128563291284],[-45.940483843928298,-23.012605541611801],[-45.940762895301503,-23.012189725745401],[-45.940792432840396,-23.012138675035601]]],[[[-45.940573945109797,-23.0057519116483],[-45.940907616550703,-23.005586695692099],[-45.940659138603898,-23.005526877018301],[-45.9400445353781,-23.005458381924399],[-45.939530405773397,-23.005419815110699],[-45.939260316281597,-23.005393943743201],[-45.9392360198175,-23.0056385281489],[-45.9392360198175,-23.0059430438329],[-45.939336445202599,-23.0061730503602],[-45.939547014558499,-23.006360943016201],[-45.939699272400503,-23.006432212644398],[-45.939948716099103,-23.006399817358901],[-45.940227315554601,-23.006276715273899],[-45.940389291982299,-23.0060596668608],[-45.940573945109797,-23.0057519116483]]],[[[-45.945270679991602,-23.005034099614601],[-45.945295934297,-23.004884416830301],[-45.945266295886903,-23.004735424547],[-45.945151818567801,-23.004445674879602],[-45.945020489905602,-23.004154240049001],[-45.944944201057297,-23.003779786778502],[-45.944920939535102,-23.003702882053801],[-45.944751203244202,-23.003941108427],[-45.944709519132097,-23.004047213439701],[-45.944610993048897,-23.004123002734499],[-45.944538993218899,-23.0041343711287],[-45.944489730177303,-23.0040055293276],[-45.9444707828536,-23.003888055920701],[-45.944448046065197,-23.003785740372798],[-45.944410343862998,-23.003748038170599],[-45.944135112820803,-23.003803084379101],[-45.9439470856002,-23.003861581736601],[-45.943992241492403,-23.003980749603699],[-45.944071233054203,-23.004368481856002],[-45.944100672347503,-23.0044592886846],[-45.944239341395402,-23.004765706311101],[-45.9442594622858,-23.004816634564499],[-45.943902752182503,-23.005101752758701],[-45.943842405945702,-23.0051594155949],[-45.943765117978302,-23.005247792209499],[-45.945079071524901,-23.005354860303999],[-45.945170315116897,-23.005260700505701],[-45.945227765015701,-23.005152606727599],[-45.945270679991602,-23.005034099614601]]],[[[-45.941551311579602,-23.004358342525499],[-45.941484680602102,-23.004077011731301],[-45.941484680602102,-23.003973363543999],[-45.942234543557902,-23.003283757432801],[-45.9421075812106,-23.0033217559794],[-45.9419694963618,-23.003333667707398],[-45.941829336297701,-23.003389610939099],[-45.941357268247003,-23.003666128616999],[-45.941291543719302,-23.003712265983001],[-45.940833743952901,-23.004094156005401],[-45.940436672745001,-23.004445858408399],[-45.939920281428599,-23.004934430162798],[-45.941180406813899,-23.005037143439399],[-45.941492392964498,-23.004760577299098],[-45.941867354362003,-23.004447788596],[-45.941551311579602,-23.004358342525499]]],[[[-45.943891589151299,-23.003853743750302],[-45.943764940723199,-23.003803084379101],[-45.943424382393403,-23.0037586637274],[-45.943143051599201,-23.0037734706113],[-45.942906141456803,-23.003810487820999],[-45.942476741823597,-23.004106625499102],[-45.942371685370503,-23.004191983867202],[-45.942837574633501,-23.004052547987399],[-45.943448143409697,-23.003952696465301],[-45.943891589151299,-23.003853743750302]]],[[[-45.947973837112102,-23.001257570516199],[-45.948360075694801,-23.001007413368299],[-45.948452398868497,-23.000929557149099],[-45.9488165620511,-23.000532235459801],[-45.949669809167403,-22.999828847799801],[-45.950125686607301,-22.999699727718902],[-45.950244947555902,-22.999648837016501],[-45.9503452241782,-22.999570339905802],[-45.950468184855602,-22.9994441269113],[-45.949979219556901,-22.999417696354602],[-45.949442573766603,-22.999616255297099],[-45.949369346280598,-22.999686770653899],[-45.949080612044497,-23.0000051186578],[-45.948629002085397,-23.0003752907554],[-45.948103357706898,-23.000997179879398],[-45.9476739580737,-23.001241493463802],[-45.946941017320498,-23.0015376311419],[-45.946556038338997,-23.001582051793601],[-45.946000780192598,-23.001878189471601],[-45.945815694143803,-23.002115099614102],[-45.9457278605475,-23.002507423010901],[-45.946007505410101,-23.0022843118889],[-45.946921587221297,-23.001794573973399],[-45.947928667662502,-23.0012835509018],[-45.947973837112102,-23.001257570516199]]],[[[-45.9517017256888,-23.000782474848201],[-45.951785953431198,-23.000601061249299],[-45.951857223059299,-23.000471480107102],[-45.951973846087199,-23.000315982736598],[-45.9521228644007,-23.000024425166899],[-45.952058073829598,-22.999791179111099],[-45.952015752377598,-22.999764728233099],[-45.951967930278798,-22.9996812544689],[-45.951858249711798,-22.999582994655601],[-45.9517004505608,-22.9994804768968],[-45.951549128662698,-22.999245384511799],[-45.951433010628001,-22.998948832746201],[-45.951606592044399,-22.9986891916205],[-45.951651962583298,-22.998601401910101],[-45.951825071326098,-22.998147564221],[-45.952106526347201,-22.997666686112801],[-45.952143498694198,-22.997587002428499],[-45.952060818672201,-22.997488695166101],[-45.9518760019781,-22.997350832841502],[-45.951564466819299,-22.997743367141599],[-45.951371977328598,-22.998231994310402],[-45.951283136025097,-22.998468904452899],[-45.9509795949051,-22.998572552640201],[-45.950567450646901,-22.9987300069015],[-45.950562649876098,-22.999375710565801],[-45.950646852618902,-22.9995918250494],[-45.950686878481299,-22.999670297940199],[-45.950915724077198,-23.000025833612298],[-45.951054567980599,-23.000164325403301],[-45.951297790880702,-23.0003223410937],[-45.951329264661503,-23.000336590102499],[-45.9513518566051,-23.000432605764502],[-45.9514296052904,-23.000646414649001],[-45.951565665489603,-23.001203613560101],[-45.9515851026609,-23.001443338672999],[-45.951688767574602,-23.0014757339585],[-45.9517406000314,-23.001372069044798],[-45.951747079088499,-23.0011712182746],[-45.951669330403298,-23.000925014104499],[-45.9517017256888,-23.000782474848201]]]]}}
]
}
