{
"type": "FeatureCollection",
"name": "Sitio Sao Joao (4553)",
"crs": { "type": "name", "properties": { "name": "urn:ogc:def:crs:OGC:1.3:CRS84" } },
"features": [
{"type":"Feature","properties":{"Nome do Projeto":null,"Tipo":null,"Município":null,"Região Hidrográfica":null,"UGRHI":null,"Propriedade":null,"Área (ha)":10.075673254263023,"Ano de Implantação":null,"Metodologia de Restauração":null,"Monitoramento":null,"Status do Projeto":null,"Fotos do Projeto":null},"geometry":{"type":"MultiPolygon","coordinates":[[[[-46.211035762538501,-22.979709897361801],[-46.211124551083202,-22.979640410674602],[-46.211167015169799,-22.979567063615999],[-46.211224920742403,-22.979513018414899],[-46.211286686686499,-22.979513018414899],[-46.211367754488201,-22.9794975769288],[-46.211471984518901,-22.9794435317277],[-46.211556912692103,-22.979331580954],[-46.211630259750798,-22.979242792409298],[-46.211742210524498,-22.979138562378498],[-46.211865742412797,-22.9790574945769],[-46.212000855415603,-22.979042053090801],[-46.212097364703297,-22.979061354948399],[-46.212147549532901,-22.979026611604802],[-46.212186153247998,-22.979026611604802],[-46.212226204602402,-22.9790357799871],[-46.212305583491499,-22.9788965653396],[-46.212266979776501,-22.978854101252999],[-46.212272770333698,-22.978792335308899],[-46.212266979776501,-22.978761452336801],[-46.212278560891001,-22.978734429736299],[-46.212280491076697,-22.978695826021202],[-46.212243817547403,-22.9786147582195],[-46.212261189219198,-22.9785665035756],[-46.212280491076697,-22.978547201718101],[-46.212305583491499,-22.9785047376315],[-46.212315234420302,-22.9783947170435],[-46.212363489064202,-22.978359973700002],[-46.212419464451003,-22.9783310209137],[-46.2124657889091,-22.978294347384299],[-46.212558437825301,-22.978261534226501],[-46.212607657562103,-22.978265877144398],[-46.212628165785702,-22.978255502395999],[-46.2126501216487,-22.978250435658399],[-46.212663632948903,-22.978161647113701],[-46.212653258200497,-22.978056693263301],[-46.212670629872299,-22.978006508433701],[-46.212696687380003,-22.977956806150502],[-46.212791266481901,-22.9779201326212],[-46.212839521125801,-22.9779934796798],[-46.212949541713797,-22.9779799683796],[-46.212999726543401,-22.977891179834899],[-46.212992005800402,-22.977840995005302],[-46.212912868184397,-22.9778081818475],[-46.2128549626118,-22.977748346089101],[-46.212870404097799,-22.977663417915899],[-46.212937960599199,-22.977576559557001],[-46.213067283044801,-22.977572699185401],[-46.213229418648098,-22.977572699185401],[-46.213320137378602,-22.977545676584899],[-46.213461158658397,-22.977386470963499],[-46.213300654641401,-22.976905930622699],[-46.213177303632797,-22.976932842607901],[-46.213021997985898,-22.9771049983441],[-46.212861663193003,-22.9772995094126],[-46.212549804678297,-22.977615639961702],[-46.212333812458198,-22.977780194154001],[-46.212341542140102,-22.9777984484314],[-46.212468925461003,-22.977770543225201],[-46.2124998779001,-22.977792764583601],[-46.212532357030398,-22.977824431735598],[-46.212559644191401,-22.9779399170252],[-46.212538040878201,-22.977998195082399],[-46.212467398769903,-22.9780396059735],[-46.212411372270203,-22.978054221582099],[-46.212355345770497,-22.978072897082001],[-46.2122952087431,-22.9782096604843],[-46.212176304564899,-22.9784017482759],[-46.212069803863599,-22.978603249018001],[-46.212011898274099,-22.9787229205273],[-46.2119574764248,-22.978802865534501],[-46.211744738121702,-22.978963637229299],[-46.2114897769492,-22.9791325287066],[-46.211297338102398,-22.979236461923399],[-46.211016799614796,-22.979379370096499],[-46.210840194344101,-22.979492641063299],[-46.210722051507801,-22.979594950323602],[-46.210646943519102,-22.979680614029601],[-46.210586045149803,-22.9797731795509],[-46.210559971750101,-22.979852731107599],[-46.210515,-22.979945],[-46.21064194,-22.98029778],[-46.21073194,-22.98043306],[-46.21085611,-22.98051556],[-46.21101389,-22.98009028],[-46.211035762538501,-22.979709897361801]]],[[[-46.211433680347199,-22.977444517890799],[-46.211393671007301,-22.977386042701699],[-46.211384159854099,-22.977316117126499],[-46.2111597077879,-22.9772831467304],[-46.211177466689698,-22.977385273291301],[-46.211226290005001,-22.977583578685302],[-46.211245371494002,-22.977645695021899],[-46.211269324852601,-22.977689541847699],[-46.211366527048803,-22.977540111252502],[-46.211433680347199,-22.977444517890799]]],[[[-46.211640875772403,-22.977807216754599],[-46.211758617103399,-22.977797565825799],[-46.211845475462397,-22.977747380996199],[-46.2119709375364,-22.977716498024101],[-46.212065516638397,-22.977708777281102],[-46.212144654254303,-22.977710707466901],[-46.212208041922501,-22.9776370001339],[-46.212353291093699,-22.977551559445001],[-46.212737774193997,-22.9771499882069],[-46.212984285057303,-22.976878797406801],[-46.2129032172557,-22.9768401936917],[-46.212818289082499,-22.976826682391501],[-46.212688966637003,-22.976770707004601],[-46.212565434748697,-22.9767301731037],[-46.212502776074302,-22.976749740315],[-46.212418140932201,-22.976795904938001],[-46.2123565881015,-22.976860535410101],[-46.212316578761602,-22.976983641071399],[-46.2122598346158,-22.977057702233498],[-46.212160405918198,-22.9771225828447],[-46.212074983901402,-22.977142139610301],[-46.211988809938497,-22.977236007677],[-46.211933938111599,-22.977360914138998],[-46.211849496020498,-22.977417942568302],[-46.211741240356403,-22.977457780845501],[-46.211631308527103,-22.977460464074898],[-46.211385384156699,-22.977746718619201],[-46.211455577940001,-22.9777821243398],[-46.2115308551844,-22.977787914897],[-46.211640875772403,-22.977807216754599]]],[[[-46.211544362989898,-22.977122967985899],[-46.211615394036201,-22.977013551656199],[-46.2116541986477,-22.976973070176001],[-46.211655484764897,-22.9769394516609],[-46.211674996114802,-22.976892287159099],[-46.211646666329699,-22.9768503271669],[-46.211596481500102,-22.976867698838699],[-46.211540506113202,-22.976939115711598],[-46.211472949611803,-22.977012462770301],[-46.211335906423301,-22.977120553172501],[-46.211252908435803,-22.977166877630602],[-46.211216525771903,-22.9771975633656],[-46.211335970405102,-22.977238922491299],[-46.211430674770298,-22.9772529872664],[-46.211497132106899,-22.977213761107102],[-46.211544362989898,-22.977122967985899]]],[[[-46.210866,-22.97846],[-46.210991,-22.978477000000101],[-46.211257,-22.978487999999899],[-46.211406,-22.9785],[-46.211522,-22.978472],[-46.211666,-22.97842],[-46.211889,-22.978297],[-46.21199,-22.978223],[-46.212052,-22.978136],[-46.21208,-22.978087],[-46.212118999999802,-22.97799],[-46.212153,-22.977923],[-46.212150000000101,-22.977885999999899],[-46.212136933511303,-22.977844855376901],[-46.212038978742299,-22.977850922526201],[-46.211910787675002,-22.977916083781398],[-46.211775593295499,-22.977949374889899],[-46.211703834716999,-22.977949273392401],[-46.211584473913398,-22.977939529653302],[-46.211484093101298,-22.977922275115599],[-46.211326255494399,-22.977883459091998],[-46.211240093635404,-22.977817428423201],[-46.2112012553388,-22.9777395567504],[-46.211162189705298,-22.9776542495336],[-46.2111274463618,-22.977530717645202],[-46.211117953775798,-22.977463884111],[-46.2110984056755,-22.977388357360201],[-46.2110830520894,-22.977260974186098],[-46.211090772832598,-22.977201138427699],[-46.211133236919103,-22.9771220008118],[-46.2112956637772,-22.977036047282699],[-46.211438942465698,-22.976948747244499],[-46.211498042026797,-22.976848396981101],[-46.211504028753801,-22.9768187968061],[-46.211549344803899,-22.976755709755601],[-46.211619643729001,-22.9766862613778],[-46.211652456886902,-22.976659238777302],[-46.211706502087999,-22.976651518034299],[-46.2117914302614,-22.9766959123065],[-46.211828103790502,-22.976722934907201],[-46.211878288620298,-22.976738376393101],[-46.211907241406401,-22.976736446207401],[-46.2119554960505,-22.976657308591399],[-46.211988309208301,-22.9765704502327],[-46.212044284595102,-22.9764063844435],[-46.212055865709601,-22.976289125658901],[-46.211997960137097,-22.9762466615724],[-46.211945845121498,-22.9762370106437],[-46.211853196205297,-22.9761984069284],[-46.211787569889701,-22.976181035256602],[-46.211702641716599,-22.976186825814001],[-46.211625434286503,-22.9761964767428],[-46.2115559475995,-22.976235080457901],[-46.211474879797699,-22.976217708785999],[-46.211378370509898,-22.9760999674549],[-46.211362929023799,-22.976032410953501],[-46.211416009132101,-22.975966302091599],[-46.211419869503601,-22.975919977633499],[-46.211473914704698,-22.975869792803799],[-46.211533750462998,-22.975871722989599],[-46.211562703249399,-22.975900675776],[-46.2116312248436,-22.975941692223099],[-46.211669828558698,-22.976001527981499],[-46.211700711530803,-22.9760382015108],[-46.211725803945498,-22.976061363739898],[-46.211774058589498,-22.976059433554099],[-46.211996029951301,-22.9761443617274],[-46.212188083433901,-22.976037718964498],[-46.212201594734097,-22.975993324692102],[-46.212151409904301,-22.975933488933698],[-46.212114736375,-22.975877513546902],[-46.212041389316298,-22.975860141875],[-46.212002785601399,-22.975750121287],[-46.212022087458998,-22.9756227290273],[-46.211996995044103,-22.9755783347549],[-46.211906276313698,-22.975483755652998],[-46.211800116097201,-22.975391106736701],[-46.2117229086669,-22.9753003880063],[-46.211561738156497,-22.975133426938498],[-46.2116235041008,-22.9750542893226],[-46.2117735191854,-22.974958147081001],[-46.211872498063002,-22.975172513200199],[-46.211961286607497,-22.975261301744801],[-46.211990239393899,-22.975328858246101],[-46.212066481731199,-22.975425367534001],[-46.212231512613201,-22.975651923086701],[-46.212373381265998,-22.975886199382799],[-46.212626701298397,-22.975895078088101],[-46.212716414021699,-22.975933526397998],[-46.212776222504097,-22.975989062845901],[-46.213003234752499,-22.976029097987599],[-46.212816715988303,-22.975893395726501],[-46.212689687061797,-22.975703966625598],[-46.212557086691099,-22.975334022734302],[-46.212532572336798,-22.9752159081185],[-46.212441200652997,-22.9748949929355],[-46.212448349158898,-22.974383157096099],[-46.212326652172003,-22.974029393719999],[-46.212313060000099,-22.973981940000101],[-46.2122277799999,-22.973925],[-46.211746670000103,-22.97372167],[-46.211690169981701,-22.973950076008201],[-46.211360340488397,-22.974266534035799],[-46.211003768063101,-22.974502763267601],[-46.210847767626902,-22.9744113915837],[-46.21034972,-22.974848889999901],[-46.2102925,-22.9750875],[-46.21025972,-22.97537194],[-46.210286110000098,-22.97567611],[-46.2102969399999,-22.97598778],[-46.21029528,-22.97633306],[-46.21028056,-22.97668194],[-46.210209999999897,-22.9771308300001],[-46.21019944,-22.97786472],[-46.21023972,-22.978264720000102],[-46.210271886218699,-22.978350865962],[-46.210299,-22.978352],[-46.210619000000101,-22.978395],[-46.210866,-22.97846]],[[-46.2104199821676,-22.976340413991402],[-46.210521544338199,-22.9762419294624],[-46.210693892263897,-22.9762173083299],[-46.210798532075998,-22.976318870500599],[-46.2107739109439,-22.976552771257101],[-46.210764678019302,-22.976758973239601],[-46.210675426414802,-22.976857457768698],[-46.210561553678197,-22.976842069561101],[-46.210441525658403,-22.976811293145602],[-46.210401516318598,-22.976663566352201],[-46.210395361035403,-22.976485063143301],[-46.2104199821676,-22.976340413991402]]]]}}
]
}
