{
"type": "FeatureCollection",
"name": "Sitio Sao Joao (5666)",
"crs": { "type": "name", "properties": { "name": "urn:ogc:def:crs:OGC:1.3:CRS84" } },
"features": [
{"type":"Feature","properties":{"Nome do Projeto":null,"Tipo":null,"Município":null,"Região Hidrográfica":null,"UGRHI":null,"Propriedade":null,"Área (ha)":1.0910459567340323,"Ano de Implantação":null,"Metodologia de Restauração":null,"Monitoramento":null,"Status do Projeto":null,"Fotos do Projeto":null},"geometry":{"type":"MultiPolygon","coordinates":[[[[-46.212448378220998,-22.974381076238799],[-46.212441200652798,-22.9748949929355],[-46.212532572336798,-22.9752159081184],[-46.212557086691099,-22.975334022734302],[-46.212689687061797,-22.975703966625598],[-46.212816715988303,-22.975893395726601],[-46.213003234752499,-22.976029097987499],[-46.212448378220998,-22.974381076238799]]],[[[-46.210847767626902,-22.974411391583601],[-46.211003768063001,-22.974502763267601],[-46.211360340488298,-22.974266534035799],[-46.2116901699818,-22.9739500760083],[-46.21174667,-22.97372167],[-46.21161972,-22.97368222],[-46.21138139,-22.97364556],[-46.21121806,-22.97364167],[-46.21098417,-22.97366944],[-46.21088028,-22.97375306],[-46.21075278,-22.97397],[-46.21042472,-22.97457361],[-46.21034972,-22.97484889],[-46.210847767626902,-22.974411391583601]]]]}}
]
}
